,Record Sequence Number,EQID,Earthquake Name,YEAR,MODY,HRMN,Station Name,Station Sequence Number,Station ID  No.,Earthquake Magnitude,Magnitude Type,Magnitude Uncertainty: Kagan Model,Magnitude Uncertainty: Statistical,Magnitude Sample Size,Magnitude Uncertainty: Study Class,Mo (dyne.cm),Strike (deg),Dip (deg),Rake Angle (deg),Mechanism Based on Rake Angle,P-plunge (deg),P-trend (deg),T-plunge (deg),T-trend (deg),Hypocenter Latitude (deg),Hypocenter Longitude (deg),Hypocenter Depth (km),Coseismic Surface Rupture: 1=Yes; 0=No;    -999=Unknown,Coseismic Surface Rupture (Including Inferred),Basis for Inference of Surface Rupture,Finite Rupture Model: 1=Yes;  0=No,Depth to Top Of Fault Rupture Model,Fault Rupture Length for Calculation of Ry (km),Fault Rupture Width (km),Fault Rupture Area (km^2),Avg Fault Disp (cm),Rise Time (s),Avg Slip Velocity (cm/s),Static Stress Drop (bars),Preferred Rupture Velocity (km/s),Average Vr/Vs,Percent of Moment Release in the Top 5 Km of Crust,Existence of Shallow Asperity: 0=No; 1=Yes,Depth to Top of Shallowest Asperity (km),Earthquake in Extensional Regime: 1=Yes; 0=No,Fault Name,Slip Rate (mm/Yr),EpiD (km),HypD (km),Joyner-Boore Dist. (km),Campbell R Dist. (km),RmsD (km),ClstD (km),Rx,FW/HW Indicator,Source to Site Azimuth (deg),X,Theta.D (deg),SSGA (Strike Slip),Y,Phi.D (deg),SSGA (Dip Slip),s,d,ctildepr,Unused Column,D,Rfn.Hyp,Rfp.Hyp,Unused Column.1,Unused Column.2,Unused Column.3,T,GMX's C1,GMX's C2,GMX's C3,Campbell's GEOCODE,Bray and Rodriguez-Marek SGS,Depth,Preferred NEHRP Based on Vs30,Vs30 (m/s) selected for analysis,Column Not Used,Measured/Inferred Class,Sigma of Vs30 (in natural log Units),NEHRP Classification from CGS's Site Condition Map,Geological Unit,Geology,Owner,Station Latitude,Station Longitude,STORIES,INSTLOC,Depth to Basement Rock,Site Visited,NGA Type,Age,Grain Size,Depositional History,Northern CA/Southern CA - H11 Z1 (m),Northern CA/Southern CA - H11 Z1.5 (m),Northern CA/Southern CA - H11 Z2.5 (m),Northern CA/Southern CA - S4 Z1 (m),Northern CA/Southern CA - S4 Z1.5 (m),Northern CA/Southern CA - S4 Z2.5 (m),Depth to Franciscan Rock (km),Basin,h (m),hnorm (m),Rsbe (m),Rcebe (m),Rebe (m),Rsbe1 (m),File Name (Horizontal 1),File Name (Horizontal 2),File Name (Vertical),H1 azimth (degrees),H2 azimith (degrees),Type of Recording,Instrument Model,PEA Processing Flag,Type of Filter,npass,nroll,HP-H1 (Hz),HP-H2 (Hz),LP-H1 (Hz),LP-H2 (Hz),Factor,Lowest Usable Freq - H1 (Hz),Lowest Usable Freq - H2 (H2),Lowest Usable Freq - Ave. Component (Hz),PGA (g),PGV (cm/sec),PGD (cm),T0.010S,T0.020S,T0.022S,T0.025S,T0.029S,T0.030S,T0.032S,T0.035S,T0.036S,T0.040S,T0.042S,T0.044S,T0.045S,T0.046S,T0.048S,T0.050S,T0.055S,T0.060S,T0.065S,T0.067S,T0.070S,T0.075S,T0.080S,T0.085S,T0.090S,T0.095S,T0.100S,T0.110S,T0.120S,T0.130S,T0.133S,T0.140S,T0.150S,T0.160S,T0.170S,T0.180S,T0.190S,T0.200S,T0.220S,T0.240S,T0.250S,T0.260S,T0.280S,T0.290S,T0.300S,T0.320S,T0.340S,T0.350S,T0.360S,T0.380S,T0.400S,T0.420S,T0.440S,T0.450S,T0.460S,T0.480S,T0.500S,T0.550S,T0.600S,T0.650S,T0.667S,T0.700S,T0.750S,T0.800S,T0.850S,T0.900S,T0.950S,T1.000S,T1.100S,T1.200S,T1.300S,T1.400S,T1.500S,T1.600S,T1.700S,T1.800S,T1.900S,T2.000S,T2.200S,T2.400S,T2.500S,T2.600S,T2.800S,T3.000S,T3.200S,T3.400S,T3.500S,T3.600S,T3.800S,T4.000S,T4.200S,T4.400S,T4.600S,T4.800S,T5.000S,T5.500S,T6.000S,T6.500S,T7.000S,T7.500S,T8.000S,T8.500S,T9.000S,T9.500S,T10.000S,T11.000S,T12.000S,T13.000S,T14.000S,T15.000S,T20.000S,Ave Strike (deg),TYPE(CRjb = 0),CRjb,"TYPE
772,773,118,Loma Prieta,1989,1018,5,Hayward - BART Sta,487,58498,6.93,Mw,0.081,0.036,10,0.1,278612116862977930864623616,128.0,70.0,140,3,10.68,184.55,41.99,84.78,37.0407,-121.8829,17.48,0,0,-999,1,3.85,40.0,18.0,719.8,108.11977445,1.5,72.0798496331,35.1467443897,2.79,0.774885027316,1.0,0,9,0,San Andreas-Santa Cruz,17.0,72.29,74.38,54.01,-999.0,70.89,54.15,-39.15,nu,-133.54,0.5,37.67,-999.0,0.81,48.41,-999.0,20.02,-999,2.3145,-999,24.74,0.5217,-0.1432,-999,-999,-999,-39.151742,I,Q,D,B,D,D,D,337.88,-999.0,2a_3a_4b_4c,0.25,C,Qoa,-999,CDMG,37.67,-122.086,0,GROUND LEVEL,-999.0,-999,-999,Pleistocene,-999,Alluvial Fan,44.0,271.2,872.1,44.0,271.2,872.1,0.01,-999,-999.0,-999.0,-999.0,-999.0,-999.0,-999.0,LOMAP\HWB220.AT2,LOMAP\HWB310.AT2,LOMAP\HWB-UP.AT2,220,310,A,-999,PEA,A,1,2.5,0.1,0.1,31.0,36.0,1.25,0.125,0.125,0.125,0.15833,12.099,4.195,0.1587839,0.1596875,0.1606604,0.161078,0.1712477,0.1659567,0.1710626,0.177225,0.1738897,0.1865,0.1853546,0.2056907,0.1964851,0.2120113,0.2255244,0.2357504,0.2223912,0.3484396,0.3760992,0.4080222,0.4142228,0.4633507,0.3516205,0.497934,0.5444801,0.5214996,0.7269141,0.6964116,0.6315737,0.9483444,0.8560028,0.8385772,0.9087403,0.6070023,1.09808,0.8199707,0.5961748,0.6491328,1.362596,1.341915,0.9903621,0.6882969,0.4637403,0.5051602,0.444982,0.5177059,0.5467157,0.3621608,0.4063476,0.4329692,0.6211423,0.5009445,0.5022996,0.4330285,0.3879074,0.3859314,0.2996849,0.3714764,0.3913909,0.3165337,0.26682,0.187565,0.3278342,0.4049492,0.5057061,0.6324896,0.6218585,0.6255299,0.3725049,0.3061832,0.166906,0.1115916,0.07076116,0.06637111,0.05904305,0.06497552,0.05169477,0.0387419,0.03603721,0.03738072,0.03492261,0.0276854,0.02967134,0.0243054,0.02150594,0.02183156,0.01922382,0.02223184,0.02751461,0.03126275,0.03042569,0.02492085,0.02118525,0.01971038,0.017913,0.02509307,0.02752657,0.02083487,0.01453419,0.01002811,0.007463873,0.005827329,0.004798498,0.004555415,0.004067185,0.003330018,0.002610768,0.002062802,0.001634049,0.001278958,0.0005632034,128.0,C1,0,C1,0.0,C1,0.0,C1,0.0,C1,0.0,C1,0.0,-37.202588,1.4881,0.4275,0.1486,0.5,50,-999.0,-999.0,-999,-999,0,-999,?,0,-999.0,-57.202588
773,774,118,Loma Prieta,1989,1018,5,Hayward City Hall - North,1606,1129,6.93,Mw,0.081,0.036,10,0.1,278612116862977930864623616,128.0,70.0,140,3,10.68,184.55,41.99,84.78,37.0407,-121.8829,17.48,0,0,-999,1,3.85,40.0,18.0,719.8,108.11977445,1.5,72.0798496331,35.1467443897,2.79,0.774885027316,1.0,0,9,0,San Andreas-Santa Cruz,17.0,73.18,75.24,54.97,-999.0,71.79,55.11,-40.16,nu,-133.07,0.5,38.14,-999.0,0.81,48.85,-999.0,20.02,-999,2.2927,-999,24.74,0.5078,-0.1449,-999,-999,-999,-40.15855,E,Q,B,C,C,-999,C,735.44,-999.0,0,0.2,C,serpentine,-999,USGS,37.679,-122.082,-999,-999,-999.0,-999,-999,-999,-999,-999,0.0,0.0,0.0,0.0,0.0,0.0,-999.0,-999,-999.0,-999.0,-999.0,-999.0,-999.0,-999.0,LOMAP\HYN064.AT2,LOMAP\HYN334.AT2,LOMAP\HYN-UP.AT2,64,334,-999,SMA-1,PEA,A,1,2.5,0.08,0.09,23.0,23.0,1.2,0.096,0.108,0.108,0.052689,5.8386,4.2043,0.05279907,0.05357289,0.05414611,0.05441031,0.05857345,0.0565304,0.05832676,0.0644718,0.05816629,0.06418153,0.06483461,0.06765424,0.07524755,0.08508067,0.08264847,0.08726989,0.1004637,0.1433285,0.2396742,0.2480685,0.2488665,0.3303877,0.1986089,0.274863,0.221927,0.2579536,0.2676612,0.2925949,0.3854722,0.3082808,0.3191813,0.4696398,0.2914473,0.2672144,0.3002291,0.2792372,0.3275673,0.3508905,0.2525214,0.2458053,0.2303462,0.1947924,0.1633968,0.2402508,0.1888539,0.1618476,0.1384244,0.1399937,0.1653242,0.2295187,0.1968504,0.1576145,0.1215227,0.1349814,0.1220407,0.1447259,0.1371518,0.1837542,0.1558472,0.1407795,0.1345595,0.09051644,0.1029939,0.09782702,0.09062909,0.09697441,0.09065215,0.1149114,0.1057328,0.1213917,0.0634563,0.04841081,0.04013548,0.0382119,0.06182124,0.08249678,0.05283795,0.03100719,0.02476847,0.03465807,0.03685068,0.03518321,0.0267684,0.01912105,0.01661613,0.01378588,0.01209204,0.01453997,0.01882607,0.02331251,0.02510484,0.0221101,0.02022119,0.01835832,0.01669224,0.02736019,0.02684911,0.01945219,0.0145347,0.01247613,0.01064281,0.008559597,0.007351705,0.006578203,0.005733733,0.004432368,0.003452017,0.002503299,0.001887142,0.00161752,0.0006959707,128.0,C1,0,C1,0.0,C1,0.0,C1,0.0,C1,0.0,C1,0.0,-37.539387,1.4316,0.4248,0.1479,0.5,50,-999.0,-999.0,-999,-999,0,-999,?,0,-999.0,-57.539387
774,775,118,Loma Prieta,1989,1018,5,Hollister - SAGO Vault,136,1032,6.93,Mw,0.081,0.036,10,0.1,278612116862977930864623616,128.0,70.0,140,3,10.68,184.55,41.99,84.78,37.0407,-121.8829,17.48,0,0,-999,1,3.85,40.0,18.0,719.8,108.11977445,1.5,72.0798496331,35.1467443897,2.79,0.774885027316,1.0,0,9,0,San Andreas-Santa Cruz,17.0,49.52,52.52,29.54,-999.0,47.65,30.24,5.16,nu,9.91,0.5,0.15,-999.0,0.81,20.42,-999.0,19.98,-999,2.8731,-999,24.71,-0.5155,0.0734,-999,-999,-999,5.1589361,F,G,A,D,B,S,C,621.2,-999.0,2a_3a_4b_4c,0.4,B,Kgr,-999,USGS,36.765,-121.446,0,GROUND LEVEL,0.0,-999,-999,Mesozoic,-999,-999,200.0,326.0,726.0,200.0,326.0,726.0,0.003,-999,-999.0,-999.0,-999.0,-999.0,-999.0,-999.0,LOMAP\SGI270.AT2,LOMAP\SGI360.AT2,LOMAP\SGI-UP.AT2,270,0,A,-999,PEA,A,1,2.5,0.1,0.07,32.0,31.0,1.25,0.125,0.0875,0.125,0.051259,7.3444,5.15,0.05127506,0.05137068,0.05229711,0.0523439,0.05355656,0.05299614,0.05268977,0.05889434,0.06071704,0.07043322,0.07418324,0.1091464,0.09455377,0.08693356,0.1362867,0.09850524,0.1474322,0.1303647,0.1100052,0.1501416,0.1355149,0.16095,0.1940827,0.199167,0.2232448,0.1918903,0.2084802,0.2005986,0.2857786,0.1973422,0.2589915,0.2006784,0.1356765,0.1404235,0.170674,0.2166336,0.201072,0.1561951,0.1678822,0.1724261,0.1876094,0.1442212,0.2175344,0.1993198,0.2191563,0.1442681,0.2426711,0.2458347,0.2463924,0.1773464,0.2040545,0.15897,0.17118,0.1744191,0.1738344,0.1746651,0.1684877,0.1243772,0.09983261,0.1462052,0.1778625,0.2447438,0.2999809,0.2283399,0.1611979,0.1624065,0.167047,0.1588241,0.09930816,0.07724024,0.08502932,0.05546741,0.05571791,0.04997304,0.04875511,0.04353935,0.04740003,0.05820905,0.04286478,0.03776712,0.02938637,0.02728703,0.02669526,0.0223363,0.01872918,0.01803083,0.01769273,0.01841063,0.02175275,0.02639556,0.02938418,0.0279808,0.0246696,0.02052867,0.01616476,0.01588895,0.02069778,0.02276597,0.02177073,0.01983874,0.01684356,0.01395879,0.01127252,0.008932802,0.007292275,0.004933952,0.003314697,0.002362797,0.001850936,0.001478489,0.0006798601,128.0,C1,0,C1,0.0,C1,0.0,C1,0.0,C1,0.0,C1,0.0,69.541761,1.5594,0.3041,-0.0948,0.5,50,-999.0,-999.0,-999,-999,0,-999,?,0,-999.0,49.541761
775,776,118,Loma Prieta,1989,1018,5,Hollister - South & Pine,427,47524,6.93,Mw,0.081,0.036,10,0.1,278612116862977930864623616,128.0,70.0,140,3,10.68,184.55,41.99,84.78,37.0407,-121.8829,17.48,0,0,-999,1,3.85,40.0,18.0,719.8,108.11977445,1.5,72.0798496331,35.1467443897,2.79,0.774885027316,1.0,0,9,0,San Andreas-Santa Cruz,17.0,48.24,51.31,27.67,-999.0,45.99,27.93,-4.8,nu,-9.98,0.5,11.75,-999.0,0.81,9.35,-999.0,19.98,-999,3.292,-999,24.71,-0.4352,0.1425,-999,-999,-999,-4.7960921,I,Q,D,A,D,D,D,282.14,-999.0,2a_3a_4b_4c,-999.0,D,Qoa,-999,CDMG,36.848,-121.397,0,GROUND LEVEL,1.8,-999,-999,Holocene,Aggregate,-999,492.2,742.0,2791.5,492.2,742.0,2791.5,-999.0,-999,-999.0,-999.0,-999.0,-999.0,-999.0,-999.0,LOMAP\HSP000.AT2,LOMAP\HSP090.AT2,LOMAP\HSP-UP.AT2,0,90,A,-999,PEA,A,1,2.5,0.05,0.07,29.0,23.0,1.25,0.0625,0.0875,0.0875,0.28678,51.01,24.977,0.2868461,0.287585,0.2877796,0.2886631,0.2884028,0.2921475,0.2918215,0.2951241,0.294099,0.3012227,0.2883742,0.2932829,0.2995734,0.2943744,0.3034383,0.3116551,0.3021274,0.3090776,0.3134646,0.3203341,0.3351661,0.3691111,0.3460535,0.3533674,0.3297785,0.4500805,0.4737094,0.4660499,0.5261506,0.5548242,0.4761326,0.4838717,0.7995957,0.7795547,0.6570494,0.9413972,0.7389891,0.8583629,0.65117,1.114226,0.8402238,0.8407495,0.9208919,0.8114393,0.9145794,1.410525,0.9329856,1.180818,1.191632,0.9122623,0.822498,1.014941,1.007345,0.951068,0.9616657,1.240998,1.748116,1.753329,1.558527,0.9884927,0.8440597,0.9427963,1.361648,1.362359,0.992345,0.9521557,1.243759,1.090763,0.8948876,0.8055633,0.6235059,0.5676754,0.4979745,0.6107719,0.6754385,0.604059,0.5444813,0.4768871,0.4090351,0.3089295,0.2452604,0.2985168,0.2383762,0.2222866,0.2339429,0.2231544,0.2072422,0.1726727,0.1134708,0.1201859,0.2056598,0.1740647,0.1521069,0.1976395,0.2245349,0.1415992,0.09133258,0.09067938,0.08326859,0.07196335,0.05442485,0.04405479,0.03517461,0.02850989,0.02313964,0.0145943,0.01065792,0.008505182,0.006741106,0.005499999,0.002921412,128.0,C1,0,C1,0.0,C1,0.0,C1,0.0,C1,0.0,C1,0.0,67.247671,1.3715,0.3185,-0.0779,0.5,50,-999.0,-999.0,-999,-999,0,-999,?,0,-999.0,47.247671
776,777,118,Loma Prieta,1989,1018,5,Hollister City Hall,135,1028,6.93,Mw,0.081,0.036,10,0.1,278612116862977930864623616,128.0,70.0,140,3,10.68,184.55,41.99,84.78,37.0407,-121.8829,17.48,0,0,-999,1,3.85,40.0,18.0,719.8,108.11977445,1.5,72.0798496331,35.1467443897,2.79,0.774885027316,1.0,0,9,0,San Andreas-Santa Cruz,17.0,47.9,50.99,27.33,-999.0,45.64,27.6,-4.81,nu,-10.13,0.5,11.85,-999.0,0.81,9.37,-999.0,19.98,-999,3.3005,-999,24.71,-0.4329,0.1422,-999,-999,-999,-4.80524,C,H,D,A,D,D,D,198.77,-999.0,0,0.1,D,Qoa,-999,USGS,36.85,-121.4,1,BASEMENT,1.7,-999,-999,Holocene,Aggregate,-999,389.3,741.9,2842.8,389.3,741.9,2842.8,-999.0,-999,-999.0,-999.0,-999.0,-999.0,-999.0,-999.0,LOMAP\HCH090.AT2,LOMAP\HCH180.AT2,LOMAP\HCH-UP.AT2,90,180,A,-999,PEA,A,1,2.5,0.08,0.07,29.0,30.0,1.25,0.1,0.0875,0.1,0.23371,44.665,22.665,0.2337669,0.2342755,0.2342354,0.2352506,0.2398067,0.237206,0.2392608,0.2397857,0.2375541,0.2360916,0.2412515,0.2462983,0.237739,0.235463,0.2504186,0.2581468,0.2514345,0.2476221,0.2404168,0.2727443,0.2434687,0.2681999,0.294057,0.2956257,0.2910348,0.3109892,0.3018342,0.3003518,0.3356464,0.3854485,0.4276177,0.4613764,0.6174728,0.4104111,0.51176,0.7146837,0.4494826,0.5155533,0.5078641,0.5889052,0.4940855,0.593271,0.4982153,0.5206661,0.6841335,0.7512856,0.8402338,0.8243955,0.6811754,0.8568909,0.734668,0.7053798,0.8837169,1.016478,1.059463,0.8612297,0.9420327,0.9274275,0.9615163,0.7997179,0.7794343,1.107979,1.178356,0.9186633,0.9935856,1.171457,0.8155001,0.8051975,0.8486032,0.9073215,0.5964481,0.524801,0.5069049,0.5789093,0.5837659,0.5329664,0.5136598,0.4389658,0.2951553,0.2130519,0.2003263,0.2155447,0.2251157,0.2324254,0.2602127,0.224389,0.2060604,0.1547563,0.1002334,0.1084863,0.1261305,0.1382168,0.1375574,0.1438817,0.1695556,0.1224833,0.09132282,0.09427878,0.08531564,0.07260805,0.05502845,0.04361617,0.03455678,0.02798655,0.02216237,0.01467125,0.01056384,0.008471215,0.006746838,0.005349433,0.002749039,128.0,C1,0,C1,0.0,C1,0.0,C1,0.0,C1,0.0,C1,0.0,66.900089,1.3644,0.3186,-0.0776,0.5,50,-999.0,-999.0,-999,-999,0,-999,?,0,-999.0,46.900089
777,778,118,Loma Prieta,1989,1018,5,Hollister Differential Array,188,1656,6.93,Mw,0.081,0.036,10,0.1,278612116862977930864623616,128.0,70.0,140,3,10.68,184.55,41.99,84.78,37.0407,-121.8829,17.48,0,0,-999,1,3.85,40.0,18.0,719.8,108.11977445,1.5,72.0798496331,35.1467443897,2.79,0.774885027316,1.0,0,9,0,San Andreas-Santa Cruz,17.0,45.1,48.37,24.52,-999.0,42.77,24.82,-7.41,nu,-17.59,0.5,16.01,-999.0,0.81,15.44,-999.0,19.98,-999,3.3712,-999,24.71,-0.3827,0.1661,-999,-999,-999,-7.4073458,I,Q,D,A,D,D,D,215.54,-999.0,0,0.1,D,Tss,-999,USGS,36.888,-121.413,0,GROUND LEVEL,1.5,-999,-999,Pleistocene,Aggregate,Alluvial Valley,499.2,1071.8,2569.4,499.2,1071.8,2569.4,-999.0,-999,-999.0,-999.0,-999.0,-999.0,-999.0,-999.0,LOMAP\HDA165.AT2,LOMAP\HDA255.AT2,LOMAP\HDA-UP.AT2,165,255,D,-999,PEA,A,1,2.5,0.07,0.07,40.0,33.0,1.25,0.0875,0.0875,0.0875,0.28051,43.121,16.769,0.2811055,0.2807579,0.284446,0.2867652,0.2942043,0.2961768,0.2930548,0.2925964,0.2949171,0.2949294,0.2855327,0.3012354,0.2925365,0.2945918,0.2972552,0.3149935,0.3047822,0.3214118,0.3135226,0.3100645,0.354348,0.4134648,0.4489586,0.4095409,0.4410375,0.541934,0.4070177,0.5376136,0.5272837,0.5871626,0.6384487,0.8262418,0.825385,0.5828065,0.4967687,0.6965053,1.039606,0.7335939,1.046176,1.180937,1.189403,1.144708,0.7057175,0.725231,0.9508441,0.9831436,1.285394,1.28009,1.310008,1.255887,1.094488,1.012301,0.9212587,0.9743574,1.020061,1.054506,1.028028,1.105672,1.080687,1.05257,1.216991,1.010448,1.123145,1.002958,1.027369,0.9536269,0.8054124,0.6594262,0.5372373,0.4552712,0.3530124,0.3388035,0.4040728,0.461999,0.4389082,0.3443734,0.3032544,0.2733061,0.222466,0.2740741,0.3300804,0.3380373,0.2151756,0.1887086,0.2024973,0.2209948,0.205369,0.1822435,0.1385803,0.1211282,0.1123586,0.09186967,0.09270125,0.09024626,0.0796475,0.07310954,0.07482582,0.07057402,0.05953207,0.05030742,0.03786788,0.03092109,0.02644682,0.02179509,0.01745448,0.01121097,0.007677667,0.006128432,0.00510475,0.004287865,0.002049059,128.0,C1,0,C1,0.0,C1,0.0,C1,0.0,C1,0.0,C1,0.0,63.371723,1.2494,0.319,-0.0706,0.5,50,-999.0,-999.0,-999,-999,0,-999,?,0,-999.0,43.371723
778,779,118,Loma Prieta,1989,1018,5,LGPC,17,16,6.93,Mw,0.081,0.036,10,0.1,278612116862977930864623616,128.0,70.0,140,3,10.68,184.55,41.99,84.78,37.0407,-121.8829,17.48,0,0,-999,1,3.85,40.0,18.0,719.8,108.11977445,1.5,72.0798496331,35.1467443897,2.79,0.774885027316,1.0,0,9,0,San Andreas-Santa Cruz,17.0,18.46,25.42,0.0,-999.0,16.11,3.88,0.45,hw,90.0,0.45,14.37,0.43,0.81,5.31,0.8,17.88,-999,3.1761,-999,23.04,0.9739,0.1623,-999,-999,-999,0.45047839,-999,O,A,C,C,S,C,594.83,-999.0,2a_3a_4b_4c,0.33,C,Tss,-999,UCSC,37.172,-122.01,-999,-999,-999.0,-999,-999,Tertiary,-999,-999,445.2,1446.8,3390.7,445.2,1446.8,3390.7,-999.0,-999,-999.0,-999.0,-999.0,-999.0,-999.0,-999.0,LOMAP\LGP000.AT2,LOMAP\LGP090.AT2,LOMAP\LGP-UP.AT2,0,90,D,-999,PEA,A,1,2.5,0.1,0.1,0.0,0.0,1.25,0.125,0.125,0.125,0.59012,83.531,30.45,0.5934572,0.6345821,0.6306956,0.6488282,0.7651723,0.7976916,0.7551526,0.8078021,0.954239,0.9606224,1.16082,1.333846,1.237127,1.660454,1.214332,1.468125,1.419284,1.996614,2.095554,1.761686,2.144799,1.920085,1.861947,1.720207,1.681667,2.019086,1.946445,1.707286,1.471356,1.494241,1.547643,1.716262,2.070725,2.448066,2.431459,2.405096,2.543279,1.461074,1.446706,1.535943,2.172606,2.063279,1.954914,2.207315,2.057153,2.622297,2.372752,2.033465,1.693183,2.417837,2.811796,2.367001,3.108441,2.484061,2.818053,3.490583,2.517796,2.814736,2.407275,3.658459,3.013675,2.763688,3.207519,2.334064,1.859043,1.35645,1.005714,1.090318,1.042286,0.9250599,0.8701454,0.9189967,1.019481,0.9810903,0.9315792,0.8355961,0.6889328,0.5445939,0.4961434,0.4306034,0.4992325,0.5714599,0.623904,0.5241413,0.4440632,0.3869484,0.3598586,0.3318318,0.2749681,0.2381336,0.2080086,0.1790877,0.1527397,0.1271657,0.1052525,0.07287788,0.05397864,0.04131847,0.03428343,0.0290561,0.02487197,0.02149129,0.01874584,0.01648993,0.0146164,0.01172534,0.009624792,0.008050976,0.00684034,0.00588822,0.003198565,128.0,C1,0,C1,0.0,C1,0.0,C1,0.0,C1,0.0,C1,0.0,2.1378794,2.8471,0.3625,0.1116,0.5,50,-999.0,-999.0,-999,-999,0,-999,D,0,-999.0,-17.8621206
