,Record Sequence Number,EQID,Earthquake Name,YEAR,MODY,HRMN,Station Name,Station Sequence Number,Station ID  No.,Earthquake Magnitude,Magnitude Type,Magnitude Uncertainty: Kagan Model,Magnitude Uncertainty: Statistical,Magnitude Sample Size,Magnitude Uncertainty: Study Class,Mo (dyne.cm),Strike (deg),Dip (deg),Rake Angle (deg),Mechanism Based on Rake Angle,P-plunge (deg),P-trend (deg),T-plunge (deg),T-trend (deg),Hypocenter Latitude (deg),Hypocenter Longitude (deg),Hypocenter Depth (km),Coseismic Surface Rupture: 1=Yes; 0=No;    -999=Unknown,Coseismic Surface Rupture (Including Inferred),Basis for Inference of Surface Rupture,Finite Rupture Model: 1=Yes;  0=No,Depth to Top Of Fault Rupture Model,Fault Rupture Length for Calculation of Ry (km),Fault Rupture Width (km),Fault Rupture Area (km^2),Avg Fault Disp (cm),Rise Time (s),Avg Slip Velocity (cm/s),Static Stress Drop (bars),Preferred Rupture Velocity (km/s),Average Vr/Vs,Percent of Moment Release in the Top 5 Km of Crust,Existence of Shallow Asperity: 0=No; 1=Yes,Depth to Top of Shallowest Asperity (km),Earthquake in Extensional Regime: 1=Yes; 0=No,Fault Name,Slip Rate (mm/Yr),EpiD (km),HypD (km),Joyner-Boore Dist. (km),Campbell R Dist. (km),RmsD (km),ClstD (km),Rx,FW/HW Indicator,Source to Site Azimuth (deg),X,Theta.D (deg),SSGA (Strike Slip),Y,Phi.D (deg),SSGA (Dip Slip),s,d,ctildepr,Unused Column,D,Rfn.Hyp,Rfp.Hyp,Unused Column.1,Unused Column.2,Unused Column.3,T,GMX's C1,GMX's C2,GMX's C3,Campbell's GEOCODE,Bray and Rodriguez-Marek SGS,Depth,Preferred NEHRP Based on Vs30,Vs30 (m/s) selected for analysis,Column Not Used,Measured/Inferred Class,Sigma of Vs30 (in natural log Units),NEHRP Classification from CGS's Site Condition Map,Geological Unit,Geology,Owner,Station Latitude,Station Longitude,STORIES,INSTLOC,Depth to Basement Rock,Site Visited,NGA Type,Age,Grain Size,Depositional History,Northern CA/Southern CA - H11 Z1 (m),Northern CA/Southern CA - H11 Z1.5 (m),Northern CA/Southern CA - H11 Z2.5 (m),Northern CA/Southern CA - S4 Z1 (m),Northern CA/Southern CA - S4 Z1.5 (m),Northern CA/Southern CA - S4 Z2.5 (m),Depth to Franciscan Rock (km),Basin,h (m),hnorm (m),Rsbe (m),Rcebe (m),Rebe (m),Rsbe1 (m),File Name (Horizontal 1),File Name (Horizontal 2),File Name (Vertical),H1 azimth (degrees),H2 azimith (degrees),Type of Recording,Instrument Model,PEA Processing Flag,Type of Filter,npass,nroll,HP-H1 (Hz),HP-H2 (Hz),LP-H1 (Hz),LP-H2 (Hz),Factor,Lowest Usable Freq - H1 (Hz),Lowest Usable Freq - H2 (H2),Lowest Usable Freq - Ave. Component (Hz),PGA (g),PGV (cm/sec),PGD (cm),T0.010S,T0.020S,T0.022S,T0.025S,T0.029S,T0.030S,T0.032S,T0.035S,T0.036S,T0.040S,T0.042S,T0.044S,T0.045S,T0.046S,T0.048S,T0.050S,T0.055S,T0.060S,T0.065S,T0.067S,T0.070S,T0.075S,T0.080S,T0.085S,T0.090S,T0.095S,T0.100S,T0.110S,T0.120S,T0.130S,T0.133S,T0.140S,T0.150S,T0.160S,T0.170S,T0.180S,T0.190S,T0.200S,T0.220S,T0.240S,T0.250S,T0.260S,T0.280S,T0.290S,T0.300S,T0.320S,T0.340S,T0.350S,T0.360S,T0.380S,T0.400S,T0.420S,T0.440S,T0.450S,T0.460S,T0.480S,T0.500S,T0.550S,T0.600S,T0.650S,T0.667S,T0.700S,T0.750S,T0.800S,T0.850S,T0.900S,T0.950S,T1.000S,T1.100S,T1.200S,T1.300S,T1.400S,T1.500S,T1.600S,T1.700S,T1.800S,T1.900S,T2.000S,T2.200S,T2.400S,T2.500S,T2.600S,T2.800S,T3.000S,T3.200S,T3.400S,T3.500S,T3.600S,T3.800S,T4.000S,T4.200S,T4.400S,T4.600S,T4.800S,T5.000S,T5.500S,T6.000S,T6.500S,T7.000S,T7.500S,T8.000S,T8.500S,T9.000S,T9.500S,T10.000S,T11.000S,T12.000S,T13.000S,T14.000S,T15.000S,T20.000S,Ave Strike (deg),TYPE(CRjb = 0),CRjb,"TYPE
737,738,118,Loma Prieta,1989,1018,5,Alameda Naval Air Stn Hanger,593,-999,6.93,Mw,0.081,0.036,10,0.1,278612116862977930864623616,128.0,70.0,140,3,10.68,184.55,41.99,84.78,37.0407,-121.8829,17.48,0,0,-999,1,3.85,40.0,18.0,719.8,108.11977445,1.5,72.0798496331,35.1467443897,2.79,0.774885027316,1.0,0,9,0,San Andreas-Santa Cruz,17.0,90.77,92.43,70.9,-999.0,89.24,71.0,-37.55,nu,-148.02,0.5,27.98,-999.0,0.81,47.68,-999.0,20.02,-999,2.6066,-999,24.74,0.6871,-0.1332,-999,-999,-999,-37.553899,B,H,E,F,E,D,D,190.0,-999.0,0,0.1,E,af/qi,-999,USN,37.785,-122.303,-999,-999,-999.0,-999,-999,Holocene,Fine,Marine,146.4,270.9,842.0,146.4,270.9,842.0,-999.0,-999,-999.0,-999.0,-999.0,-999.0,-999.0,-999.0,LOMAP\NAS180.AT2,LOMAP\NAS270.AT2,LOMAP\NAS-UP.AT2,180,270,A,-999,PEA,A,1,2.5,0.1,0.1,0.0,0.0,1.25,0.125,0.125,0.125,0.2294,32.357,10.548,0.2300353,0.2360668,0.2351453,0.2416305,0.2424165,0.2460726,0.2368674,0.2628317,0.2448473,0.2479541,0.271981,0.2514317,0.2777009,0.2621523,0.2612467,0.2694952,0.2776231,0.2548093,0.2793422,0.2992208,0.3679002,0.3127408,0.3551637,0.4379423,0.4848956,0.4430435,0.4319087,0.4164016,0.4737697,0.5592165,0.5006844,0.5182977,0.3869902,0.4620913,0.4542601,0.3906004,0.3840756,0.4054892,0.4566689,0.398177,0.3970126,0.3488269,0.3421856,0.3086759,0.3148113,0.2945696,0.5073767,0.5853862,0.6010514,0.6741376,0.5391481,0.6680685,0.531531,0.5290288,0.5938919,0.7647104,0.731835,0.6785175,1.059982,0.9848366,1.080463,0.9450322,0.8427269,0.6737499,0.5163523,0.4021826,0.4873576,0.5206515,0.4719058,0.347813,0.3471599,0.3618514,0.3515679,0.3180356,0.2951616,0.2757834,0.2769674,0.2948858,0.2943943,0.2674591,0.2303605,0.18839,0.1279537,0.106304,0.09006779,0.0754818,0.07573082,0.07465722,0.06626489,0.05468769,0.04623768,0.03875953,0.0315582,0.02658922,0.02366512,0.01999965,0.01727671,0.01941424,0.01949455,0.01752079,0.01474711,0.01225903,0.009678812,0.007670629,0.006172873,0.003910356,0.003161922,0.002603394,0.002237934,0.001942342,0.001083696,128.0,C1,0,C1,0.0,C1,0.0,C1,0.0,C1,0.0,C1,0.0,-60.136568,2.0972,0.4979,0.1596,0.5,50,-999.0,-999.0,-999,-999,0,-999,?,0,-999.0,-80.136568
738,739,118,Loma Prieta,1989,1018,5,Anderson Dam (Downstream),184,1652,6.93,Mw,0.081,0.036,10,0.1,278612116862977930864623616,128.0,70.0,140,3,10.68,184.55,41.99,84.78,37.0407,-121.8829,17.48,0,0,-999,1,3.85,40.0,18.0,719.8,108.11977445,1.5,72.0798496331,35.1467443897,2.79,0.774885027316,1.0,0,9,0,San Andreas-Santa Cruz,17.0,26.57,31.81,19.9,-999.0,28.64,20.26,-19.9,fw,-90.0,0.23,69.72,0.08,0.81,34.96,0.66,9.21,-999,1.7272,-999,17.2,0.1106,0.5219,-999,-999,-999,-19.89549,H,Q,D,B,C,S,C,488.77,-999.0,0,0.2,C,Tsh,-999,USGS,37.166,-121.628,0,DOWNSTREAM,0.034,-999,-999,Pleistocene,Aggregate,-999,567.1,670.2,817.5,567.1,670.2,817.5,-999.0,-999,-999.0,-999.0,-999.0,-999.0,-999.0,-999.0,LOMAP\AND250.AT2,LOMAP\AND340.AT2,LOMAP\AND-UP.AT2,250,340,A,-999,PEA,A,1,2.5,0.08,0.02,41.0,40.0,1.25,0.1,0.025,0.1,0.23888,21.485,11.567,0.239462,0.2529072,0.251127,0.2555692,0.2574253,0.261548,0.2720273,0.3012212,0.2895509,0.3761014,0.3392165,0.4023692,0.3760829,0.3696202,0.3461643,0.4313775,0.3901584,0.3629069,0.4453937,0.4448607,0.4295567,0.4298055,0.409852,0.4275167,0.5313146,0.5927017,0.6874621,0.8143076,0.9274504,1.298193,1.08951,1.599541,1.309019,0.9095482,1.691575,1.351229,0.8837605,1.531592,1.220136,1.242796,1.089274,1.040912,1.32434,0.9856623,0.7526727,0.7905273,1.139815,0.8727006,0.9535616,0.8489684,1.123599,0.7587639,1.046675,1.124931,1.183418,0.9442214,0.8686524,1.126734,1.229762,1.184173,0.9329249,0.8022383,0.6508254,0.3905149,0.4282369,0.5388077,0.3804757,0.3250096,0.2342638,0.1805371,0.2826572,0.2261724,0.1903606,0.2166869,0.2471632,0.2578873,0.2076574,0.1432653,0.08264565,0.07533253,0.06682844,0.06342094,0.05911396,0.05390359,0.05095435,0.04152873,0.03726268,0.03562915,0.03108765,0.02971483,0.03128518,0.03173,0.03112759,0.03099525,0.0326184,0.0331496,0.02988571,0.02712664,0.02344356,0.02106198,0.01850119,0.01556374,0.01260614,0.01088595,0.009694987,0.007654354,0.006267815,0.004882108,0.004043167,0.003272392,0.001547862,128.0,C1,0,C1,0.0,C1,0.0,C1,0.0,C1,0.0,C1,0.0,29.227148,0.8018,0.1136,-0.0262,0.5,50,-999.0,-999.0,-999,-999,0,-999,?,0,-999.0,9.227148
739,740,118,Loma Prieta,1989,1018,5,Anderson Dam (L Abut),185,1652,6.93,Mw,0.081,0.036,10,0.1,278612116862977930864623616,128.0,70.0,140,3,10.68,184.55,41.99,84.78,37.0407,-121.8829,17.48,0,0,-999,1,3.85,40.0,18.0,719.8,108.11977445,1.5,72.0798496331,35.1467443897,2.79,0.774885027316,1.0,0,9,0,San Andreas-Santa Cruz,17.0,26.57,31.81,19.9,-999.0,28.64,20.26,-19.9,fw,-90.0,0.23,69.72,0.08,0.81,34.96,0.66,9.21,-999,1.7272,-999,17.2,0.1106,0.5219,-999,-999,-999,-19.89549,H,F,A,D,B,S,C,488.77,-999.0,0,0.2,B,Tsh,-999,USGS,37.166,-121.628,0,LEFT ABUTMENT,0.0,-999,-999,Mesozoic,-999,-999,567.1,670.2,817.5,567.1,670.2,817.5,-999.0,-999,-999.0,-999.0,-999.0,-999.0,-999.0,-999.0,LOMAP\ADL250.AT2,LOMAP\ADL340.AT2,LOMAP\ADL-UP.AT2,250,340,A,-999,PEA,A,1,2.5,0.06,0.14,32.0,41.0,1.25,0.075,0.175,0.175,0.070426,10.345,9.62,0.07046435,0.07330523,0.07325467,0.07531257,0.07715458,0.0789355,0.07656217,0.09000965,0.0813204,0.09496227,0.1083402,0.1004451,0.1102829,0.08850122,0.09804669,0.09375136,0.09990708,0.1336405,0.1280925,0.1571109,0.143477,0.1477505,0.1658099,0.1869078,0.201391,0.2276359,0.2088054,0.2660295,0.1811912,0.2170897,0.2758488,0.3038682,0.271983,0.2472835,0.2424664,0.2648925,0.3325736,0.2135503,0.3389612,0.3846448,0.3697884,0.2610465,0.2360048,0.2686427,0.2267847,0.2042891,0.2892628,0.2635554,0.2954602,0.1936416,0.1713423,0.2196668,0.3422857,0.335768,0.2788268,0.1681199,0.1884746,0.2058862,0.3305733,0.2710378,0.2647051,0.2413802,0.1809945,0.1947844,0.1698074,0.2551117,0.232631,0.2105902,0.1642316,0.1321747,0.1344541,0.1189219,0.1515843,0.2034661,0.2662941,0.2965192,0.2551088,0.1616261,0.09788804,0.08302464,0.0772198,0.07276892,0.06640173,0.06575434,0.05239569,0.04381819,0.04044719,0.0383647,0.0344657,0.03176694,0.0312589,0.03428786,0.03384379,0.03389947,0.03496349,0.03529562,0.03032577,0.0264114,0.02128411,0.0184846,0.01584722,0.01349606,0.01172257,0.01002382,0.00865265,0.006355423,0.004664285,0.003781431,0.003221669,0.002761113,0.00139525,128.0,C1,0,C1,0.0,C1,0.0,C1,0.0,C1,0.0,C1,0.0,29.227148,0.8018,0.1136,-0.0262,0.5,50,-999.0,-999.0,-999,-999,0,-999,?,0,-999.0,9.227148
740,741,118,Loma Prieta,1989,1018,5,BRAN,14,13,6.93,Mw,0.081,0.036,10,0.1,278612116862977930864623616,128.0,70.0,140,3,10.68,184.55,41.99,84.78,37.0407,-121.8829,17.48,0,0,-999,1,3.85,40.0,18.0,719.8,108.11977445,1.5,72.0798496331,35.1467443897,2.79,0.774885027316,1.0,0,9,0,San Andreas-Santa Cruz,17.0,9.01,19.66,3.85,-999.0,17.46,10.72,10.0,hw,90.0,0.19,33.51,0.16,0.81,35.88,0.65,7.51,-999,1.4224,-999,16.36,0.4167,-0.1257,-999,-999,-999,10.00336,A,P,A,C,B,S,C,476.54,-999.0,2a_3a_4b_4c,0.25,C,Tsh,-999,UCSC,37.047,-121.984,-999,-999,-999.0,-999,-999,-999,-999,-999,191.1,316.1,669.0,191.1,316.1,669.0,-999.0,-999,-999.0,-999.0,-999.0,-999.0,-999.0,-999.0,LOMAP\BRN000.AT2,LOMAP\BRN090.AT2,LOMAP\BRN-UP.AT2,0,90,D,-999,PEA,A,1,2.5,0.1,0.08,0.0,0.0,1.25,0.125,0.1,0.125,0.46337,49.061,6.5817,0.4898171,0.8297377,0.8637184,0.8808585,0.8369671,0.8846598,0.7895749,0.9711239,1.092854,1.028906,1.084231,1.04813,1.030567,1.308446,1.337499,1.128919,1.177081,1.270662,1.476932,1.716987,1.338945,1.854264,1.793791,1.632923,2.046537,1.668356,2.299985,2.198178,2.813916,3.583027,3.596363,3.366252,3.113202,3.627675,3.056429,3.066696,2.562898,1.929727,1.750084,2.068109,2.64717,2.473654,3.269994,2.201712,2.219912,2.547093,2.985942,3.039021,4.078956,3.563933,3.223231,3.53204,4.177328,3.481836,2.436649,3.28944,3.026597,1.821411,1.635952,2.350792,2.370473,1.834716,1.44524,1.705825,1.810784,1.219525,0.6746578,0.6259618,0.698339,0.7765229,0.6204863,0.4601477,0.2799691,0.1867656,0.1662548,0.1507135,0.1280187,0.1077344,0.08395308,0.1018089,0.1112131,0.1269783,0.1281321,0.1071931,0.09132158,0.079798,0.07386129,0.06656049,0.05190656,0.04272356,0.03527072,0.02928507,0.02485498,0.02148501,0.01866893,0.013119,0.009866535,0.007989059,0.006566299,0.005529998,0.004792088,0.004161685,0.003640852,0.003212934,0.002857484,0.002305719,0.00190624,0.001608801,0.00137723,0.001196578,0.0006708629,128.0,C1,0,C1,0.0,C1,0.0,C1,0.0,C1,0.0,C1,0.0,12.508087,0.4391,0.1422,-0.0558,0.5,50,-999.0,-999.0,-999,-999,0,-999,D,0,-999.0,-7.491913
741,742,118,Loma Prieta,1989,1018,5,"Bear Valley #1, Fire Station",1593,1210,6.93,Mw,0.081,0.036,10,0.1,278612116862977930864623616,128.0,70.0,140,3,10.68,184.55,41.99,84.78,37.0407,-121.8829,17.48,0,0,-999,1,3.85,40.0,18.0,719.8,108.11977445,1.5,72.0798496331,35.1467443897,2.79,0.774885027316,1.0,0,9,0,San Andreas-Santa Cruz,17.0,81.15,83.02,61.15,-999.0,79.97,61.71,7.41,nu,6.91,0.5,1.68,-999.0,0.81,27.75,-999.0,19.98,-999,2.5811,-999,24.71,-0.605,0.1495,-999,-999,-999,7.4110144,A,H,B,C,C,-999,C,439.58,-999.0,2a_3a_4b_4c,0.25,C,"Qal, thin",-999,USGS,36.573,-121.184,-999,-999,-999.0,-999,-999,-999,-999,-999,-999.0,-999.0,-999.0,-999.0,-999.0,-999.0,-999.0,-999,-999.0,-999.0,-999.0,-999.0,-999.0,-999.0,LOMAP\BVF220.AT2,LOMAP\BVF310.AT2,LOMAP\BVF-UP.AT2,220,310,-999,SMA-1,PEA,A,1,2.5,0.3,0.23,20.0,20.0,1.2,0.36,0.276,0.36,0.076506,5.4205,1.4452,0.07661813,0.07728712,0.07754981,0.0778185,0.07874829,0.07830318,0.08015949,0.08045558,0.08093409,0.08241303,0.08514248,0.08673348,0.08739716,0.08549378,0.0885988,0.102878,0.1035898,0.1138171,0.1243736,0.1331884,0.1433754,0.1489574,0.1903525,0.1928454,0.2900007,0.3719,0.3496685,0.3129586,0.3552634,0.626811,0.3248441,0.3713254,0.2943991,0.5372969,0.4678895,0.5666265,0.4795793,0.4182819,0.497561,0.4803097,0.5552256,0.4529721,0.4808655,0.5362142,0.5756342,0.5223551,0.6751537,0.5555466,0.4698106,0.6500514,0.5413749,0.3424222,0.3282628,0.2734323,0.2087573,0.1814795,0.230716,0.2347798,0.2311731,0.1759858,0.1748522,0.2131323,0.1391818,0.1054152,0.1174849,0.1307451,0.1037559,0.1247936,0.1292753,0.09309367,0.08377244,0.06100363,0.05451205,0.04930143,0.03807422,0.03211737,0.0322215,0.04953203,0.073717,0.0634605,0.07284415,0.06900276,0.04775736,0.03199778,0.02617584,0.02277373,0.02041453,0.01778901,0.01287179,0.009694944,0.009057526,0.00811585,0.007321072,0.006304916,0.00564986,0.003376076,0.002577101,0.001857911,0.00155871,0.001216136,0.001057514,0.0009699693,0.0008735397,0.0007745182,0.0006767437,0.0005701777,0.0004711189,0.0003892089,0.0003201288,0.000282748,0.0001606431,128.0,C1,0,C1,0.0,C1,0.0,C1,0.0,C1,0.0,C1,0.0,101.13762,1.8662,0.2932,-0.1105,0.5,50,-999.0,-999.0,-999,-999,0,-999,?,0,-999.0,81.13762
742,743,118,Loma Prieta,1989,1018,5,"Bear Valley #10, Webb Residence",1596,1479,6.93,Mw,0.081,0.036,10,0.1,278612116862977930864623616,128.0,70.0,140,3,10.68,184.55,41.99,84.78,37.0407,-121.8829,17.48,0,0,-999,1,3.85,40.0,18.0,719.8,108.11977445,1.5,72.0798496331,35.1467443897,2.79,0.774885027316,1.0,0,9,0,San Andreas-Santa Cruz,17.0,86.9,88.64,66.89,-999.0,85.82,67.52,8.71,nu,7.42,0.5,2.42,-999.0,0.81,31.88,-999.0,19.98,-999,2.5322,-999,24.71,-0.615,0.1566,-999,-999,-999,8.707247,A,H,B,A,C,-999,D,304.08,-999.0,0,0.1,D,"Qal, thin",-999,USGS,36.532,-121.143,-999,-999,-999.0,-999,-999,-999,-999,-999,-999.0,-999.0,-999.0,-999.0,-999.0,-999.0,-999.0,-999,-999.0,-999.0,-999.0,-999.0,-999.0,-999.0,LOMAP\BVR220.AT2,LOMAP\BVR310.AT2,LOMAP\BVR-UP.AT2,220,310,-999,SMA-1,PEA,A,1,2.5,0.1,0.13,23.0,30.0,1.2,0.12,0.156,0.156,0.09456,8.3933,2.956,0.09461007,0.09549391,0.0963296,0.09610756,0.09735073,0.09830879,0.09965873,0.1011048,0.1016428,0.1034574,0.1112018,0.1094184,0.1159454,0.1209433,0.140583,0.1418835,0.1398214,0.1511207,0.1727324,0.1979144,0.1969644,0.1959398,0.3142482,0.2466952,0.2412205,0.2839198,0.3443777,0.4935034,0.4777652,0.6156538,0.4620606,0.4671218,0.5592495,0.3698488,0.5191385,0.4447722,0.4125156,0.3487778,0.576502,0.4838333,0.4585024,0.4322086,0.5122219,0.4749551,0.5051624,0.5358557,0.6767995,0.8065704,0.8557851,0.6748708,0.7991365,0.8230996,0.688701,0.6172917,0.713954,0.9331163,0.5187934,0.5428234,0.3484242,0.3254234,0.2427937,0.2762391,0.2421778,0.2195389,0.2405034,0.2473991,0.2075222,0.1341864,0.2045288,0.2003956,0.164553,0.08261326,0.07661129,0.05408331,0.08794478,0.07840006,0.06935424,0.05092309,0.05876719,0.03414346,0.02794524,0.03947655,0.04247216,0.03613468,0.02644078,0.02992541,0.02436866,0.0211521,0.01721732,0.0168011,0.01818275,0.01983287,0.0204212,0.01821491,0.02020334,0.0213814,0.01426989,0.01247648,0.01220349,0.01137803,0.009534737,0.007990474,0.006213873,0.00514342,0.004093019,0.002617165,0.00178974,0.001294171,0.0009845906,0.0007764896,0.0003358367,128.0,C1,0,C1,0.0,C1,0.0,C1,0.0,C1,0.0,C1,0.0,106.84464,1.9007,0.2906,-0.113,0.5,50,-999.0,-999.0,-999,-999,0,-999,?,0,-999.0,86.84464
743,744,118,Loma Prieta,1989,1018,5,"Bear Valley #12, Williams Ranch",1597,1481,6.93,Mw,0.081,0.036,10,0.1,278612116862977930864623616,128.0,70.0,140,3,10.68,184.55,41.99,84.78,37.0407,-121.8829,17.48,0,0,-999,1,3.85,40.0,18.0,719.8,108.11977445,1.5,72.0798496331,35.1467443897,2.79,0.774885027316,1.0,0,9,0,San Andreas-Santa Cruz,17.0,70.71,72.84,50.71,-999.0,69.24,50.99,3.6,nu,4.06,0.5,1.16,-999.0,0.81,15.33,-999.0,19.98,-999,2.7357,-999,24.71,-0.5762,0.1394,-999,-999,-999,3.6039188,A,H,C,A,D,-999,D,331.21,-999.0,0,0.1,D,"Qal, thin",-999,USGS,36.658,-121.249,-999,-999,-999.0,-999,-999,-999,-999,-999,-999.0,-999.0,-999.0,-999.0,-999.0,-999.0,-999.0,-999,-999.0,-999.0,-999.0,-999.0,-999.0,-999.0,LOMAP\BVW220.AT2,LOMAP\BVW310.AT2,LOMAP\BVW-UP.AT2,220,310,-999,SMA-1,PEA,A,1,2.5,0.09,0.08,23.0,20.0,1.2,0.108,0.096,0.108,0.1551,21.757,9.8045,0.1552102,0.1555381,0.1555219,0.1560138,0.1562739,0.15662,0.1564624,0.1576937,0.1573451,0.1562642,0.1584396,0.1595093,0.158348,0.1583648,0.1569882,0.1629061,0.1652336,0.1595179,0.1644807,0.1710707,0.1732092,0.1848189,0.1771743,0.2027346,0.2311838,0.1941878,0.2278064,0.2634325,0.2869082,0.2841606,0.3140367,0.4513014,0.3286462,0.3606776,0.4807039,0.4692516,0.6177056,0.6195583,0.5787793,0.3936092,0.6121811,0.7071431,0.6457941,0.846971,0.9343753,0.8029882,0.4962874,0.4479681,0.5525376,0.6710457,0.6747414,0.6415471,0.5373259,0.5567547,0.577989,0.7521566,0.5893607,0.5346346,0.5360654,0.5082446,0.4244916,0.3697402,0.4529985,0.4803244,0.5526327,0.6850396,0.5690822,0.613822,0.9330654,0.9653443,0.4566579,0.3369897,0.2269073,0.1329917,0.1467764,0.1243337,0.1264002,0.1350917,0.1362426,0.1196467,0.1199696,0.1305974,0.1220097,0.1129323,0.07854952,0.09095889,0.1015964,0.105198,0.09021454,0.07586346,0.07423791,0.06900208,0.05707126,0.05601507,0.05422971,0.03920926,0.02307493,0.02808597,0.03184396,0.02958666,0.02226586,0.01685308,0.01402844,0.009627384,0.008243778,0.00527482,0.003780384,0.003109289,0.002594204,0.002189449,0.001109078,128.0,C1,0,C1,0.0,C1,0.0,C1,0.0,C1,0.0,C1,0.0,90.712453,1.7754,0.3007,-0.1033,0.5,50,-999.0,-999.0,-999,-999,0,-999,?,0,-999.0,70.712453
