,Record Sequence Number,EQID,Earthquake Name,YEAR,MODY,HRMN,Station Name,Station Sequence Number,Station ID  No.,Earthquake Magnitude,Magnitude Type,Magnitude Uncertainty: Kagan Model,Magnitude Uncertainty: Statistical,Magnitude Sample Size,Magnitude Uncertainty: Study Class,Mo (dyne.cm),Strike (deg),Dip (deg),Rake Angle (deg),Mechanism Based on Rake Angle,P-plunge (deg),P-trend (deg),T-plunge (deg),T-trend (deg),Hypocenter Latitude (deg),Hypocenter Longitude (deg),Hypocenter Depth (km),Coseismic Surface Rupture: 1=Yes; 0=No;    -999=Unknown,Coseismic Surface Rupture (Including Inferred),Basis for Inference of Surface Rupture,Finite Rupture Model: 1=Yes;  0=No,Depth to Top Of Fault Rupture Model,Fault Rupture Length for Calculation of Ry (km),Fault Rupture Width (km),Fault Rupture Area (km^2),Avg Fault Disp (cm),Rise Time (s),Avg Slip Velocity (cm/s),Static Stress Drop (bars),Preferred Rupture Velocity (km/s),Average Vr/Vs,Percent of Moment Release in the Top 5 Km of Crust,Existence of Shallow Asperity: 0=No; 1=Yes,Depth to Top of Shallowest Asperity (km),Earthquake in Extensional Regime: 1=Yes; 0=No,Fault Name,Slip Rate (mm/Yr),EpiD (km),HypD (km),Joyner-Boore Dist. (km),Campbell R Dist. (km),RmsD (km),ClstD (km),Rx,FW/HW Indicator,Source to Site Azimuth (deg),X,Theta.D (deg),SSGA (Strike Slip),Y,Phi.D (deg),SSGA (Dip Slip),s,d,ctildepr,Unused Column,D,Rfn.Hyp,Rfp.Hyp,Unused Column.1,Unused Column.2,Unused Column.3,T,GMX's C1,GMX's C2,GMX's C3,Campbell's GEOCODE,Bray and Rodriguez-Marek SGS,Depth,Preferred NEHRP Based on Vs30,Vs30 (m/s) selected for analysis,Column Not Used,Measured/Inferred Class,Sigma of Vs30 (in natural log Units),NEHRP Classification from CGS's Site Condition Map,Geological Unit,Geology,Owner,Station Latitude,Station Longitude,STORIES,INSTLOC,Depth to Basement Rock,Site Visited,NGA Type,Age,Grain Size,Depositional History,Northern CA/Southern CA - H11 Z1 (m),Northern CA/Southern CA - H11 Z1.5 (m),Northern CA/Southern CA - H11 Z2.5 (m),Northern CA/Southern CA - S4 Z1 (m),Northern CA/Southern CA - S4 Z1.5 (m),Northern CA/Southern CA - S4 Z2.5 (m),Depth to Franciscan Rock (km),Basin,h (m),hnorm (m),Rsbe (m),Rcebe (m),Rebe (m),Rsbe1 (m),File Name (Horizontal 1),File Name (Horizontal 2),File Name (Vertical),H1 azimth (degrees),H2 azimith (degrees),Type of Recording,Instrument Model,PEA Processing Flag,Type of Filter,npass,nroll,HP-H1 (Hz),HP-H2 (Hz),LP-H1 (Hz),LP-H2 (Hz),Factor,Lowest Usable Freq - H1 (Hz),Lowest Usable Freq - H2 (H2),Lowest Usable Freq - Ave. Component (Hz),PGA (g),PGV (cm/sec),PGD (cm),T0.010S,T0.020S,T0.022S,T0.025S,T0.029S,T0.030S,T0.032S,T0.035S,T0.036S,T0.040S,T0.042S,T0.044S,T0.045S,T0.046S,T0.048S,T0.050S,T0.055S,T0.060S,T0.065S,T0.067S,T0.070S,T0.075S,T0.080S,T0.085S,T0.090S,T0.095S,T0.100S,T0.110S,T0.120S,T0.130S,T0.133S,T0.140S,T0.150S,T0.160S,T0.170S,T0.180S,T0.190S,T0.200S,T0.220S,T0.240S,T0.250S,T0.260S,T0.280S,T0.290S,T0.300S,T0.320S,T0.340S,T0.350S,T0.360S,T0.380S,T0.400S,T0.420S,T0.440S,T0.450S,T0.460S,T0.480S,T0.500S,T0.550S,T0.600S,T0.650S,T0.667S,T0.700S,T0.750S,T0.800S,T0.850S,T0.900S,T0.950S,T1.000S,T1.100S,T1.200S,T1.300S,T1.400S,T1.500S,T1.600S,T1.700S,T1.800S,T1.900S,T2.000S,T2.200S,T2.400S,T2.500S,T2.600S,T2.800S,T3.000S,T3.200S,T3.400S,T3.500S,T3.600S,T3.800S,T4.000S,T4.200S,T4.400S,T4.600S,T4.800S,T5.000S,T5.500S,T6.000S,T6.500S,T7.000S,T7.500S,T8.000S,T8.500S,T9.000S,T9.500S,T10.000S,T11.000S,T12.000S,T13.000S,T14.000S,T15.000S,T20.000S,Ave Strike (deg),TYPE(CRjb = 0),CRjb,"TYPE
758,759,118,Loma Prieta,1989,1018,5,Foster City - APEEL 1,482,58375,6.93,Mw,0.081,0.036,10,0.1,278612116862977930864623616,128.0,70.0,140,3,10.68,184.55,41.99,84.78,37.0407,-121.8829,17.48,0,0,-999,1,3.85,40.0,18.0,719.8,108.11977445,1.5,72.0798496331,35.1467443897,2.79,0.774885027316,1.0,0,9,0,San Andreas-Santa Cruz,17.0,64.02,66.36,43.77,-999.0,62.17,43.94,-20.33,nu,-152.33,0.5,23.33,-999.0,0.81,35.42,-999.0,20.02,-999,2.9115,-999,24.74,0.8215,-0.0345,-999,-999,-999,-20.325677,I,Q,E,F,E,D,E,116.35,-999.0,0,0.05,E,Qi,-999,CDMG,37.545,-122.231,0,GROUND LEVEL,0.21,-999,-999,Holocene,Fine,Fill,168.4,270.9,842.0,168.4,270.9,842.0,-999.0,-999,-999.0,-999.0,-999.0,-999.0,-999.0,-999.0,LOMAP\A01000.AT2,LOMAP\A01090.AT2,LOMAP\A01-UP.AT2,0,90,A,-999,PEA,A,1,2.5,0.08,0.12,18.0,18.0,1.25,0.1,0.15,0.15,0.28314,36.945,11.265,0.2832913,0.283948,0.2839366,0.2843935,0.2849741,0.2846843,0.2855305,0.2840786,0.2853496,0.2879386,0.2925899,0.2926343,0.2895006,0.2915603,0.2940065,0.2944867,0.2936918,0.2996997,0.3283586,0.2925545,0.3156499,0.3284155,0.3206739,0.3572344,0.3318667,0.3359312,0.4066024,0.4322969,0.4769391,0.8375595,0.8788677,1.077226,0.6856939,0.7569932,0.9294385,1.00954,0.9464109,0.9556205,0.9880623,0.8246748,0.9831306,0.758677,1.128644,1.025625,0.980554,0.9989421,1.173479,1.317077,1.189612,0.9184799,0.7332469,1.035584,1.082083,1.043923,1.183444,1.453056,1.18312,1.231366,1.157665,2.475928,2.245595,1.241442,1.101767,1.303871,1.049254,0.7846993,0.9347981,0.6424406,1.084648,0.7163854,0.6136619,0.6544108,0.6065357,0.4824911,0.4283834,0.3411368,0.4051716,0.2603137,0.3237609,0.3011314,0.3052931,0.3166193,0.3127962,0.2786114,0.196611,0.1514519,0.1421864,0.1342117,0.1146616,0.09337855,0.07355119,0.06207158,0.06062221,0.05253296,0.04769948,0.03655006,0.02999584,0.02455711,0.01830593,0.01589796,0.01430664,0.01219317,0.01052092,0.008769647,0.00687844,0.004891426,0.003856353,0.003146054,0.002666003,0.002278229,0.001173431,128.0,C1,0,C1,0.0,C1,0.0,C1,0.0,C1,0.0,C1,0.0,-38.767005,2.4638,0.5196,0.166,0.5,50,-999.0,-999.0,-999,-999,0,-999,?,0,-999.0,-58.767005
759,760,118,Loma Prieta,1989,1018,5,Foster City - Menhaden Court,1605,1515,6.93,Mw,0.081,0.036,10,0.1,278612116862977930864623616,128.0,70.0,140,3,10.68,184.55,41.99,84.78,37.0407,-121.8829,17.48,0,0,-999,1,3.85,40.0,18.0,719.8,108.11977445,1.5,72.0798496331,35.1467443897,2.79,0.774885027316,1.0,0,9,0,San Andreas-Santa Cruz,17.0,65.72,68.01,45.42,-999.0,63.89,45.58,-20.29,nu,-153.47,0.5,22.66,-999.0,0.81,35.38,-999.0,20.02,-999,2.9137,-999,24.74,0.8259,-0.0303,-999,-999,-999,-20.28628,B,H,E,F,E,-999,E,126.4,-999.0,0,0.05,E,af/qi,-999,USGS,37.555,-122.248,-999,-999,-999.0,-999,-999,-999,-999,-999,168.4,270.9,842.0,168.4,270.9,842.0,-999.0,-999,-999.0,-999.0,-999.0,-999.0,-999.0,-999.0,LOMAP\MEN270.AT2,LOMAP\MEN360.AT2,LOMAP\MEN-UP.AT2,270,0,-999,-999,PEA,A,1,2.5,0.05,0.1,30.0,30.0,1.25,0.0625,0.125,0.125,0.11019,21.145,7.512,0.1101965,0.1111091,0.1111132,0.1118914,0.1122581,0.1127126,0.1132443,0.1133306,0.1149531,0.1147462,0.1136143,0.112504,0.1162098,0.1192706,0.1213702,0.1278734,0.1272839,0.1258297,0.1196482,0.1195496,0.1318393,0.1397046,0.1386953,0.1756647,0.1439571,0.133934,0.1532269,0.1547828,0.1870044,0.25823,0.2649896,0.2324753,0.1929654,0.2003034,0.225025,0.2752644,0.3527798,0.2855996,0.2938637,0.3834153,0.38392,0.3401834,0.3622163,0.4640189,0.494701,0.5807328,0.6372064,0.5707253,0.4760706,0.3701173,0.3314138,0.2754032,0.3053796,0.3519028,0.3745126,0.3318672,0.3128206,0.491029,0.7450502,0.8232872,0.7692572,0.5990229,0.5085543,0.5497437,0.5741048,0.5232284,0.4686921,0.3211893,0.3585866,0.4497193,0.2895813,0.2731052,0.2784572,0.2302962,0.2558484,0.367176,0.3199844,0.2108748,0.122871,0.1117854,0.1134251,0.112276,0.120045,0.1288881,0.1033382,0.073878,0.06951798,0.06528922,0.05550342,0.04880136,0.04018637,0.03661489,0.03292326,0.02961179,0.02756238,0.02401758,0.01868432,0.01597106,0.0145258,0.01461338,0.01425577,0.01314424,0.01186647,0.01060078,0.00921953,0.006383763,0.004830488,0.003734028,0.003034583,0.002579263,0.001093987,128.0,C1,0,C1,0.0,C1,0.0,C1,0.0,C1,0.0,C1,0.0,-40.634116,2.4767,0.5221,0.1661,0.5,50,-999.0,-999.0,-999,-999,0,-999,?,0,-999.0,-60.634116
760,761,118,Loma Prieta,1989,1018,5,Fremont - Emerson Court,195,1686,6.93,Mw,0.081,0.036,10,0.1,278612116862977930864623616,128.0,70.0,140,3,10.68,184.55,41.99,84.78,37.0407,-121.8829,17.48,0,0,-999,1,3.85,40.0,18.0,719.8,108.11977445,1.5,72.0798496331,35.1467443897,2.79,0.774885027316,1.0,0,9,0,San Andreas-Santa Cruz,17.0,55.16,57.86,39.66,-999.0,54.28,39.85,-35.81,nu,-115.46,0.5,47.77,-999.0,0.81,46.83,-999.0,20.02,-999,1.9163,-999,24.74,0.3689,-0.0546,-999,-999,-999,-35.808625,A,Q,D,B,D,-999,D,284.79,-999.0,0,0.1,C,Qoa,-999,USGS,37.535,-121.929,-999,-999,-999.0,-999,-999,Pleistocene,-999,Alluvial Fan,345.0,770.8,3472.2,345.0,770.8,3472.2,-999.0,-999,-999.0,-999.0,-999.0,-999.0,-999.0,-999.0,LOMAP\FMS090.AT2,LOMAP\FMS180.AT2,LOMAP\FMS-UP.AT2,90,180,A,-999,PEA,A,1,2.5,0.09,0.05,31.0,32.0,1.25,0.1125,0.0625,0.1125,0.14869,13.407,8.4569,0.1486925,0.1501674,0.148822,0.1507699,0.1519108,0.1616204,0.1582574,0.1766732,0.1702017,0.1735617,0.1785402,0.1658007,0.1806995,0.188006,0.1803503,0.1876726,0.1880541,0.1892224,0.2250844,0.2614292,0.2235867,0.2420318,0.3542761,0.305406,0.3415171,0.4754787,0.4410263,0.5178171,0.6400092,0.5805747,0.5103001,0.5734714,0.5672998,0.7528642,0.6559436,0.6716567,0.7414626,0.9963704,0.8450714,0.6264241,0.7232528,0.6954658,0.7377742,0.4570958,0.5969458,0.9286828,0.6435075,0.7779384,0.7136105,0.6598395,0.7050261,0.5049146,0.6098716,0.5765545,0.58565,0.6472694,0.425244,0.595504,0.4982783,0.4465519,0.4815831,0.6141036,0.3917731,0.3322291,0.2783491,0.3453366,0.3476133,0.2889458,0.1965445,0.1506921,0.1885305,0.1747883,0.1907221,0.1550995,0.1585118,0.109463,0.0845114,0.0992622,0.08575255,0.09302408,0.06795829,0.05625734,0.04965095,0.04804494,0.07055065,0.08295608,0.07348321,0.06665584,0.04973101,0.0423086,0.04250989,0.0415282,0.03992447,0.03675175,0.03563013,0.02991222,0.02129275,0.01936339,0.01911133,0.01889342,0.01750169,0.01488488,0.0135211,0.01259688,0.01132563,0.008299876,0.006134058,0.005197732,0.004423228,0.003684502,0.001360126,128.0,C1,0,C1,0.0,C1,0.0,C1,0.0,C1,0.0,C1,0.0,-17.051403,0.756,0.3329,0.1256,0.5,50,-999.0,-999.0,-999,-999,0,-999,?,0,-999.0,-37.051403
761,762,118,Loma Prieta,1989,1018,5,Fremont - Mission San Jose,444,57064,6.93,Mw,0.081,0.036,10,0.1,278612116862977930864623616,128.0,70.0,140,3,10.68,184.55,41.99,84.78,37.0407,-121.8829,17.48,0,0,-999,1,3.85,40.0,18.0,719.8,108.11977445,1.5,72.0798496331,35.1467443897,2.79,0.774885027316,1.0,0,9,0,San Andreas-Santa Cruz,17.0,54.54,57.27,39.32,-999.0,53.72,39.51,-35.91,nu,-114.03,0.5,48.65,-999.0,0.81,46.88,-999.0,20.02,-999,1.8803,-999,24.74,0.3533,-0.0452,-999,-999,-999,-35.913011,A,Q,B,B,C,D,C,367.57,-999.0,0,0.2,C,Qoa,-999,CDMG,37.53,-121.919,1,GROUND LEVEL,2.3,-999,-999,Pleistocene,Aggregate,Alluvial Fan,345.3,749.4,3497.3,345.3,749.4,3497.3,-999.0,-999,-999.0,-999.0,-999.0,-999.0,-999.0,-999.0,LOMAP\FRE000.AT2,LOMAP\FRE090.AT2,LOMAP\FRE-UP.AT2,0,90,A,-999,PEA,A,1,2.5,0.06,0.08,24.0,28.0,1.25,0.075,0.1,0.1,0.1329,12.51,7.8579,0.1330999,0.1341502,0.1344406,0.1343087,0.1360974,0.1345764,0.1367616,0.1397298,0.1377604,0.1385227,0.1505266,0.1441014,0.1357588,0.1422506,0.1551618,0.1510461,0.1695704,0.1925884,0.2082454,0.2390982,0.3023385,0.3087899,0.302563,0.3193936,0.3478949,0.6867157,0.5825034,0.6631747,0.6512151,0.9367033,0.8099191,0.7478645,0.6376695,0.570402,0.8943457,0.9547914,0.7499611,0.5627275,0.8871412,0.4873945,0.42483,0.4374794,0.5911233,0.4951229,0.7429222,0.7621747,0.6406236,0.7066788,0.5866672,0.3878537,0.3527115,0.4767993,0.530947,0.4734652,0.4062595,0.4312669,0.4226949,0.5066686,0.4593052,0.4204421,0.4032466,0.4592555,0.3290953,0.2853227,0.2229457,0.1801593,0.2415103,0.2036982,0.1420038,0.2127716,0.1990661,0.1562971,0.1386979,0.1498206,0.1101844,0.1218503,0.08277652,0.08760016,0.07601254,0.1165439,0.07327808,0.04616702,0.0402482,0.02970254,0.04858726,0.06892567,0.06846634,0.06440742,0.05076358,0.04834171,0.04764152,0.04518361,0.04394956,0.04039447,0.03643581,0.03352632,0.02406961,0.01945124,0.01877524,0.01795378,0.01683792,0.01423359,0.01294982,0.01147047,0.01009497,0.007162844,0.005634115,0.004464712,0.00356836,0.00280735,0.001255793,128.0,C1,0,C1,0.0,C1,0.0,C1,0.0,C1,0.0,C1,0.0,-16.013451,0.6988,0.3253,0.1232,0.5,50,-999.0,-999.0,-999,-999,0,-999,?,0,-999.0,-36.013451
762,763,118,Loma Prieta,1989,1018,5,Gilroy - Gavilan Coll.,416,47006,6.93,Mw,0.081,0.036,10,0.1,278612116862977930864623616,128.0,70.0,140,3,10.68,184.55,41.99,84.78,37.0407,-121.8829,17.48,0,0,-999,1,3.85,40.0,18.0,719.8,108.11977445,1.5,72.0798496331,35.1467443897,2.79,0.774885027316,1.0,0,9,0,San Andreas-Santa Cruz,17.0,28.98,33.84,9.19,-999.0,26.4,9.96,-6.3,nu,-43.31,0.5,23.03,-999.0,0.81,12.96,-999.0,19.98,-999,3.5274,-999,24.71,-0.1962,0.1566,-999,-999,-999,-6.3038165,A,Q,B,E,C,S,C,729.65,-999.0,0,0.2,C,KJf,-999,CDMG,36.973,-121.568,1,GROUND LEVEL,0.012,-999,-999,Mesozoic,-999,-999,15.0,19.0,822.2,15.0,19.0,822.2,-999.0,-999,-999.0,-999.0,-999.0,-999.0,-999.0,-999.0,LOMAP\GIL067.AT2,LOMAP\GIL337.AT2,LOMAP\GIL-UP.AT2,67,337,A,-999,PEA,A,1,2.5,0.07,0.1,45.0,35.0,1.25,0.0875,0.125,0.125,0.33673,27.366,9.852,0.3382753,0.3698234,0.3512693,0.3817544,0.4333517,0.4242882,0.4862723,0.5165215,0.5340485,0.5023584,0.6272559,0.5275789,0.5637146,0.5803301,0.5783452,0.5979685,0.7730734,0.9025177,0.9613597,0.8370692,1.179117,1.013965,1.034521,1.590826,1.167137,1.453412,1.324261,1.343016,1.685818,1.417933,1.159042,1.254884,1.582558,2.017725,2.212714,1.648512,1.665958,1.631995,1.593764,1.305645,1.221688,1.184977,1.197837,1.3317,1.508774,1.151059,1.389874,1.528273,1.590854,1.664832,1.339437,1.306322,1.33275,1.293508,1.226069,1.127277,0.9292561,0.715259,0.5090138,0.3740596,0.3593248,0.3344072,0.3075492,0.2766261,0.262873,0.2354358,0.2361288,0.2282083,0.2290607,0.2498007,0.2555183,0.2567025,0.2488254,0.185724,0.1454697,0.1232469,0.1101544,0.09861343,0.07594929,0.06845541,0.06382009,0.0617968,0.07173104,0.06971425,0.05607046,0.04981761,0.04767132,0.0449194,0.04311247,0.03881345,0.03417172,0.03253495,0.03114234,0.02931462,0.0270921,0.02216733,0.0196177,0.01743143,0.01543116,0.01377772,0.01239755,0.01112457,0.009527842,0.00802931,0.006866067,0.005157836,0.003789634,0.003122985,0.00252308,0.00202836,0.001008433,128.0,C1,0,C1,0.0,C1,0.0,C1,0.0,C1,0.0,C1,0.0,46.688116,0.7517,0.3102,-0.054,0.5,50,-999.0,-999.0,-999,-999,0,-999,?,0,-999.0,26.688116
763,764,118,Loma Prieta,1989,1018,5,Gilroy - Historic Bldg.,453,57476,6.93,Mw,0.081,0.036,10,0.1,278612116862977930864623616,128.0,70.0,140,3,10.68,184.55,41.99,84.78,37.0407,-121.8829,17.48,0,0,-999,1,3.85,40.0,18.0,719.8,108.11977445,1.5,72.0798496331,35.1467443897,2.79,0.774885027316,1.0,0,9,0,San Andreas-Santa Cruz,17.0,28.11,33.1,10.27,-999.0,26.26,10.97,-9.4,fw,-66.22,0.5,30.89,0.43,0.81,19.54,0.76,19.98,-999,2.824,-999,24.71,-0.1192,0.2335,-999,-999,-999,-9.3974717,B,Q,D,A,C,S,D,308.55,-999.0,2a_3a_4b_4c,0.25,D,"Qal, thin",-999,CDMG,37.009,-121.569,2,GROUND LEVEL,-999.0,-999,-999,Holocene,-999,Alluvial Fan,73.4,227.4,799.6,73.4,227.4,799.6,-999.0,-999,-999.0,-999.0,-999.0,-999.0,-999.0,-999.0,LOMAP\GOF160.AT2,LOMAP\GOF250.AT2,LOMAP\GOF-UP.AT2,160,250,A,-999,PEA,A,1,2.5,0.18,0.1,38.0,40.0,1.25,0.225,0.125,0.225,0.27618,32.117,7.3419,0.276442,0.2789398,0.2794825,0.2941443,0.2918932,0.3212523,0.356441,0.319189,0.342329,0.3151917,0.3196218,0.3219347,0.365062,0.3212682,0.3631717,0.3584522,0.3334098,0.3258323,0.328627,0.3118418,0.312714,0.3420214,0.3145952,0.3306542,0.3370363,0.4175267,0.6304141,0.4866328,0.5224701,0.8760564,0.7760852,0.6467148,0.5289837,0.703552,0.5954497,0.7842027,0.7825992,0.6111969,0.6173391,0.7914482,0.8624055,0.9079283,0.7693763,0.8199645,0.8540137,0.9678393,0.9217337,0.9424935,1.089712,1.400174,1.458529,1.324549,1.167455,1.069198,1.067143,1.15804,1.043427,0.8068524,0.4889727,0.420904,0.3624766,0.3453158,0.3266265,0.3716057,0.3794139,0.4206905,0.6650252,0.6660923,0.5613887,0.6258765,0.5399591,0.4958529,0.549387,0.3824944,0.2957818,0.2435517,0.2255937,0.1917959,0.1404697,0.1260794,0.1061434,0.08177905,0.07359368,0.06599747,0.07015689,0.06361284,0.05912742,0.05214804,0.04424213,0.03581024,0.0284967,0.02458043,0.02156491,0.01822966,0.01594421,0.01310579,0.01089788,0.009154464,0.008371813,0.007636697,0.006534367,0.005035441,0.004427667,0.00392438,0.003498245,0.002828205,0.002334825,0.001958465,0.001667906,0.001436689,0.0007799231,128.0,C1,0,C1,0.0,C1,0.0,C1,0.0,C1,0.0,C1,0.0,44.141534,0.785,0.2891,-0.05,0.5,50,-999.0,-999.0,-999,-999,0,-999,?,1,1.638,24.141534
764,765,118,Loma Prieta,1989,1018,5,Gilroy Array #1,424,47379,6.93,Mw,0.081,0.036,10,0.1,278612116862977930864623616,128.0,70.0,140,3,10.68,184.55,41.99,84.78,37.0407,-121.8829,17.48,0,0,-999,1,3.85,40.0,18.0,719.8,108.11977445,1.5,72.0798496331,35.1467443897,2.79,0.774885027316,1.0,0,9,0,San Andreas-Santa Cruz,17.0,28.64,33.55,8.84,-999.0,26.03,9.64,-6.08,nu,-43.51,0.5,22.84,-999.0,0.81,12.45,-999.0,19.98,-999,3.5438,-999,24.71,-0.1939,0.152,-999,-999,-999,-6.0839656,I,F,A,D,B,S,B,1428.14,-999.0,1,0.4,B,KJf,-999,CDMG,36.973,-121.572,0,GROUND LEVEL,0.0,-999,-999,Mesozoic,-999,-999,3.0,9.0,822.2,3.0,9.0,822.2,0.001, SC,2.4,-3.09652,9.048,-0.775064,29.0661,0.674118,LOMAP\G01000.AT2,LOMAP\G01090.AT2,LOMAP\G01-UP.AT2,0,90,A,-999,PEA,A,1,2.5,0.06,0.0,50.0,50.0,1.25,0.075,0.0,0.075,0.43322,32.699,13.13,0.4373679,0.519864,0.5231022,0.6374448,0.6687155,0.6843837,0.9719098,0.640444,0.7513887,0.8453376,0.99708,0.8589015,0.8749702,1.083494,0.7311789,0.7154061,1.09552,1.487862,1.991463,1.281305,2.016785,1.510388,1.367684,1.573489,1.394907,2.079282,1.706244,1.225122,1.515581,1.638043,1.705101,1.76484,1.526487,1.366071,1.661729,1.475721,1.552264,1.833099,2.138224,1.858828,1.513606,1.467368,1.377967,1.692866,1.688432,1.612934,2.092447,2.287531,2.466674,2.648688,2.401197,2.180721,1.934784,1.827564,1.669139,1.429713,1.169175,0.7915624,0.5571284,0.4596013,0.4377667,0.3427167,0.3737812,0.345978,0.3321229,0.2829204,0.2799595,0.2696342,0.238825,0.2867959,0.3103308,0.284035,0.2506717,0.1940287,0.157867,0.1290423,0.123461,0.109599,0.08973665,0.07759196,0.07300857,0.07220087,0.0845321,0.08248027,0.0644995,0.05676144,0.05466771,0.05136016,0.05013217,0.0458301,0.04078991,0.03850263,0.03596703,0.0335748,0.03090361,0.02526553,0.02123949,0.0191166,0.01580884,0.01385108,0.01274117,0.01166134,0.01000903,0.008873911,0.007932778,0.006277745,0.005020024,0.004204433,0.003507916,0.002894884,0.001633036,128.0,C1,0,C1,0.0,C1,0.0,C1,0.0,C1,0.0,C1,0.0,46.408614,0.7378,0.3102,-0.054,0.5,50,-999.0,-999.0,-999,-999,0,-999,?,0,-999.0,26.408614
