,Record Sequence Number,EQID,Earthquake Name,YEAR,MODY,HRMN,Station Name,Station Sequence Number,Station ID  No.,Earthquake Magnitude,Magnitude Type,Magnitude Uncertainty: Kagan Model,Magnitude Uncertainty: Statistical,Magnitude Sample Size,Magnitude Uncertainty: Study Class,Mo (dyne.cm),Strike (deg),Dip (deg),Rake Angle (deg),Mechanism Based on Rake Angle,P-plunge (deg),P-trend (deg),T-plunge (deg),T-trend (deg),Hypocenter Latitude (deg),Hypocenter Longitude (deg),Hypocenter Depth (km),Coseismic Surface Rupture: 1=Yes; 0=No;    -999=Unknown,Coseismic Surface Rupture (Including Inferred),Basis for Inference of Surface Rupture,Finite Rupture Model: 1=Yes;  0=No,Depth to Top Of Fault Rupture Model,Fault Rupture Length for Calculation of Ry (km),Fault Rupture Width (km),Fault Rupture Area (km^2),Avg Fault Disp (cm),Rise Time (s),Avg Slip Velocity (cm/s),Static Stress Drop (bars),Preferred Rupture Velocity (km/s),Average Vr/Vs,Percent of Moment Release in the Top 5 Km of Crust,Existence of Shallow Asperity: 0=No; 1=Yes,Depth to Top of Shallowest Asperity (km),Earthquake in Extensional Regime: 1=Yes; 0=No,Fault Name,Slip Rate (mm/Yr),EpiD (km),HypD (km),Joyner-Boore Dist. (km),Campbell R Dist. (km),RmsD (km),ClstD (km),Rx,FW/HW Indicator,Source to Site Azimuth (deg),X,Theta.D (deg),SSGA (Strike Slip),Y,Phi.D (deg),SSGA (Dip Slip),s,d,ctildepr,Unused Column,D,Rfn.Hyp,Rfp.Hyp,Unused Column.1,Unused Column.2,Unused Column.3,T,GMX's C1,GMX's C2,GMX's C3,Campbell's GEOCODE,Bray and Rodriguez-Marek SGS,Depth,Preferred NEHRP Based on Vs30,Vs30 (m/s) selected for analysis,Column Not Used,Measured/Inferred Class,Sigma of Vs30 (in natural log Units),NEHRP Classification from CGS's Site Condition Map,Geological Unit,Geology,Owner,Station Latitude,Station Longitude,STORIES,INSTLOC,Depth to Basement Rock,Site Visited,NGA Type,Age,Grain Size,Depositional History,Northern CA/Southern CA - H11 Z1 (m),Northern CA/Southern CA - H11 Z1.5 (m),Northern CA/Southern CA - H11 Z2.5 (m),Northern CA/Southern CA - S4 Z1 (m),Northern CA/Southern CA - S4 Z1.5 (m),Northern CA/Southern CA - S4 Z2.5 (m),Depth to Franciscan Rock (km),Basin,h (m),hnorm (m),Rsbe (m),Rcebe (m),Rebe (m),Rsbe1 (m),File Name (Horizontal 1),File Name (Horizontal 2),File Name (Vertical),H1 azimth (degrees),H2 azimith (degrees),Type of Recording,Instrument Model,PEA Processing Flag,Type of Filter,npass,nroll,HP-H1 (Hz),HP-H2 (Hz),LP-H1 (Hz),LP-H2 (Hz),Factor,Lowest Usable Freq - H1 (Hz),Lowest Usable Freq - H2 (H2),Lowest Usable Freq - Ave. Component (Hz),PGA (g),PGV (cm/sec),PGD (cm),T0.010S,T0.020S,T0.022S,T0.025S,T0.029S,T0.030S,T0.032S,T0.035S,T0.036S,T0.040S,T0.042S,T0.044S,T0.045S,T0.046S,T0.048S,T0.050S,T0.055S,T0.060S,T0.065S,T0.067S,T0.070S,T0.075S,T0.080S,T0.085S,T0.090S,T0.095S,T0.100S,T0.110S,T0.120S,T0.130S,T0.133S,T0.140S,T0.150S,T0.160S,T0.170S,T0.180S,T0.190S,T0.200S,T0.220S,T0.240S,T0.250S,T0.260S,T0.280S,T0.290S,T0.300S,T0.320S,T0.340S,T0.350S,T0.360S,T0.380S,T0.400S,T0.420S,T0.440S,T0.450S,T0.460S,T0.480S,T0.500S,T0.550S,T0.600S,T0.650S,T0.667S,T0.700S,T0.750S,T0.800S,T0.850S,T0.900S,T0.950S,T1.000S,T1.100S,T1.200S,T1.300S,T1.400S,T1.500S,T1.600S,T1.700S,T1.800S,T1.900S,T2.000S,T2.200S,T2.400S,T2.500S,T2.600S,T2.800S,T3.000S,T3.200S,T3.400S,T3.500S,T3.600S,T3.800S,T4.000S,T4.200S,T4.400S,T4.600S,T4.800S,T5.000S,T5.500S,T6.000S,T6.500S,T7.000S,T7.500S,T8.000S,T8.500S,T9.000S,T9.500S,T10.000S,T11.000S,T12.000S,T13.000S,T14.000S,T15.000S,T20.000S,Ave Strike (deg),TYPE(CRjb = 0),CRjb,"TYPE
744,745,118,Loma Prieta,1989,1018,5,"Bear Valley #14, Upper Butts Rn",1598,1483,6.93,Mw,0.081,0.036,10,0.1,278612116862977930864623616,128.0,70.0,140,3,10.68,184.55,41.99,84.78,37.0407,-121.8829,17.48,0,0,-999,1,3.85,40.0,18.0,719.8,108.11977445,1.5,72.0798496331,35.1467443897,2.79,0.774885027316,1.0,0,9,0,San Andreas-Santa Cruz,17.0,91.41,93.06,71.28,-999.0,90.17,71.39,-0.08,nu,-0.06,0.5,3.2,-999.0,0.81,3.71,-999.0,19.98,-999,2.684,-999,24.71,-0.601,0.1738,-999,-999,-999,-0.077919889,A,M,B,C,C,-999,C,422.79,-999.0,2a_3a_4b_4c,0.33,C,Tsh,-999,USGS,36.569,-121.043,-999,-999,-999.0,-999,-999,-999,-999,-999,-999.0,-999.0,-999.0,-999.0,-999.0,-999.0,-999.0,-999,-999.0,-999.0,-999.0,-999.0,-999.0,-999.0,LOMAP\BVU220.AT2,LOMAP\BVU310.AT2,LOMAP\BVU-UP.AT2,220,310,-999,SMA-1,PEA,A,1,2.5,0.2,0.1,20.0,20.0,1.2,0.24,0.12,0.24,0.09685,7.7326,3.0318,0.09693784,0.09751898,0.09784701,0.09806821,0.09822297,0.09770113,0.09910841,0.09954791,0.09877664,0.09961402,0.09887096,0.1014593,0.1003708,0.105994,0.1048051,0.1181077,0.1060002,0.1140831,0.1153436,0.1284813,0.1441012,0.1208611,0.1590852,0.160784,0.170039,0.264347,0.2426406,0.237077,0.2789083,0.3805199,0.5002131,0.3780997,0.2594656,0.444291,0.4755287,0.5466175,0.7511237,0.4965668,0.6139993,0.3593066,0.3439579,0.4634588,0.5461165,0.4216267,0.3654194,0.4171486,0.5098393,0.6789879,0.5575036,0.8766344,1.155374,0.8876405,0.5185627,0.5974246,0.5549106,0.5604556,0.5695083,0.6342046,0.394667,0.2320482,0.2735636,0.1604498,0.1532302,0.1235588,0.1176119,0.1193097,0.09953801,0.1144362,0.1295213,0.06010639,0.06761732,0.07578023,0.06893414,0.05671324,0.04055895,0.04968579,0.05102286,0.03464186,0.03931085,0.06636727,0.06454621,0.05519811,0.03831326,0.02861372,0.02305006,0.02056817,0.01954111,0.01750666,0.02053169,0.02054122,0.02093226,0.01956126,0.01901359,0.01601042,0.01716585,0.01844316,0.01681595,0.01609026,0.0138112,0.01216327,0.01006602,0.008056514,0.006638081,0.005032816,0.003859214,0.002264702,0.001439708,0.001019613,0.0008465281,0.0007250922,0.0003879748,128.0,C1,0,C1,0.0,C1,0.0,C1,0.0,C1,0.0,C1,0.0,111.28232,1.8737,0.2992,-0.1067,0.5,50,-999.0,-999.0,-999,-999,0,-999,?,0,-999.0,91.28232
745,746,118,Loma Prieta,1989,1018,5,"Bear Valley #5, Callens Ranch",1599,1474,6.93,Mw,0.081,0.036,10,0.1,278612116862977930864623616,128.0,70.0,140,3,10.68,184.55,41.99,84.78,37.0407,-121.8829,17.48,0,0,-999,1,3.85,40.0,18.0,719.8,108.11977445,1.5,72.0798496331,35.1467443897,2.79,0.774885027316,1.0,0,9,0,San Andreas-Santa Cruz,17.0,73.66,75.7,53.46,-999.0,72.13,53.6,-0.7,nu,-0.75,0.5,4.46,-999.0,0.81,1.85,-999.0,19.98,-999,2.8157,-999,24.71,-0.5659,0.1557,-999,-999,-999,-0.69800327,B,H,C,C,D,-999,C,391.01,-999.0,0,0.2,C,QT,-999,USGS,36.673,-121.195,-999,-999,-999.0,-999,-999,-999,-999,-999,-999.0,-999.0,-999.0,-999.0,-999.0,-999.0,-999.0,-999,-999.0,-999.0,-999.0,-999.0,-999.0,-999.0,LOMAP\BVC220.AT2,LOMAP\BVC310.AT2,LOMAP\BVC-UP.AT2,220,310,-999,SMA-1,PEA,A,1,2.5,0.08,0.08,25.0,20.0,1.2,0.096,0.096,0.096,0.069032,9.3404,6.2743,0.06910256,0.06958005,0.06945687,0.0698721,0.07045793,0.07005285,0.07022773,0.07131702,0.07215919,0.07189611,0.07203147,0.07244303,0.07354271,0.07237574,0.07179955,0.07828816,0.07912739,0.0781033,0.1287176,0.1401262,0.1020913,0.09615779,0.09898713,0.1001612,0.1101806,0.09671987,0.105023,0.1465013,0.1615123,0.2469988,0.2610847,0.3411602,0.3692228,0.1957677,0.3361512,0.2566406,0.3441817,0.3065349,0.3707766,0.4034746,0.4234478,0.3915102,0.3500048,0.4101178,0.5093165,0.2958432,0.2066175,0.2511285,0.305014,0.3194241,0.3533471,0.3464203,0.2581124,0.2338544,0.2694251,0.2526718,0.2237293,0.2789284,0.1594535,0.2355448,0.2256236,0.1515893,0.2168445,0.2286365,0.2367332,0.1975109,0.2216721,0.1630151,0.1673491,0.2097287,0.1632639,0.09119689,0.1344361,0.09789445,0.08463462,0.07971282,0.074305,0.06605068,0.08174696,0.1106446,0.1155988,0.09902065,0.07874605,0.05451435,0.04686634,0.04998067,0.05440992,0.05459763,0.04983167,0.04825237,0.04108667,0.03654315,0.03438954,0.02873651,0.0219648,0.01673958,0.01633205,0.02052976,0.01908649,0.0169407,0.01552301,0.01329357,0.01168635,0.01035395,0.008363852,0.005647595,0.004038478,0.003098418,0.002427059,0.00189063,0.0008067915,128.0,C1,0,C1,0.0,C1,0.0,C1,0.0,C1,0.0,C1,0.0,93.453577,1.7578,0.3047,-0.0999,0.5,50,-999.0,-999.0,-999,-999,0,-999,?,0,-999.0,73.453577
746,747,118,Loma Prieta,1989,1018,5,"Bear Valley #7, Pinnacles",1600,1476,6.93,Mw,0.081,0.036,10,0.1,278612116862977930864623616,128.0,70.0,140,3,10.68,184.55,41.99,84.78,37.0407,-121.8829,17.48,0,0,-999,1,3.85,40.0,18.0,719.8,108.11977445,1.5,72.0798496331,35.1467443897,2.79,0.774885027316,1.0,0,9,0,San Andreas-Santa Cruz,17.0,88.19,89.91,68.22,-999.0,87.31,69.38,15.04,nu,12.53,0.5,6.51,-999.0,0.72,49.78,-999.0,19.98,-999,2.5703,-999,23.84,-0.6198,0.1495,-999,-999,-999,15.035869,A,V,B,C,C,-999,C,509.87,-999.0,2a_3a_4b_4c,0.33,C,Tv,-999,USGS,36.483,-121.18,-999,-999,-999.0,-999,-999,-999,-999,-999,40.0,-999.0,220.0,-999.0,-999.0,-999.0,-999.0,-999,-999.0,-999.0,-999.0,-999.0,-999.0,-999.0,LOMAP\BV7220.AT2,LOMAP\BV7310.AT2,LOMAP\BV7-UP.AT2,220,310,-999,SMA-1,PEA,A,1,2.5,0.1,0.1,20.0,20.0,1.2,0.12,0.12,0.12,0.043242,3.2279,1.9626,0.04335117,0.04418413,0.04466297,0.04512123,0.04606374,0.0450651,0.04795999,0.06277035,0.06704903,0.06110278,0.06001987,0.07129587,0.07563658,0.0721899,0.1029048,0.1179556,0.09805401,0.1483164,0.1671419,0.1799168,0.1690684,0.2396114,0.2333851,0.22281,0.2141472,0.3329852,0.2444548,0.1878866,0.2992037,0.3430555,0.2928727,0.2416866,0.164977,0.1544,0.2070096,0.2109461,0.2504692,0.1879672,0.1455828,0.1684203,0.1676361,0.2642885,0.185292,0.1417779,0.1903167,0.1410786,0.1117458,0.08683401,0.09731436,0.1013591,0.1106392,0.1591648,0.09097946,0.07222148,0.08124566,0.06914604,0.07462227,0.09089894,0.1756675,0.1340493,0.1229745,0.1144132,0.1662617,0.08016419,0.0859817,0.06642029,0.05793798,0.05526415,0.05412164,0.08308282,0.07005489,0.05089639,0.03598952,0.02173231,0.02768003,0.02066972,0.01293689,0.01304349,0.01298779,0.0195178,0.01268854,0.01099186,0.01854792,0.01586302,0.007648946,0.005398066,0.005219392,0.005187587,0.006645256,0.008215455,0.009719829,0.01116955,0.01071221,0.01054109,0.009587876,0.008130863,0.006045599,0.005311588,0.005947312,0.006315845,0.005985846,0.005090572,0.004201926,0.003285531,0.002692399,0.001967007,0.001520408,0.001096839,0.000850814,0.0006973812,0.0002904368,128.0,C1,0,C1,0.0,C1,0.0,C1,0.0,C1,0.0,C1,0.0,107.6412,1.9093,0.2811,-0.1183,0.5,50,-999.0,-999.0,-999,-999,0,-999,?,0,-999.0,87.6412
747,748,118,Loma Prieta,1989,1018,5,Belmont - Envirotech,478,58262,6.93,Mw,0.081,0.036,10,0.1,278612116862977930864623616,128.0,70.0,140,3,10.68,184.55,41.99,84.78,37.0407,-121.8829,17.48,0,0,-999,1,3.85,40.0,18.0,719.8,108.11977445,1.5,72.0798496331,35.1467443897,2.79,0.774885027316,1.0,0,9,0,San Andreas-Santa Cruz,17.0,64.55,66.88,43.94,-999.0,62.65,44.11,-13.26,nu,-162.43,0.5,16.46,-999.0,0.81,26.3,-999.0,20.02,-999,3.0361,-999,24.74,0.8875,0.0587,-999,-999,-999,-13.26124,C,F,A,D,C,S,C,627.59,-999.0,0,0.2,B,KJf,-999,CDMG,37.512,-122.308,2,"BASEMENT, NEAR CENTER",0.0,-999,-999,Mesozoic,-999,-999,95.7,272.3,846.3,95.7,272.3,846.3,0.003,-999,-999.0,-999.0,-999.0,-999.0,-999.0,-999.0,LOMAP\BES075.AT2,LOMAP\BES345.AT2,LOMAP\BES-UP.AT2,75,345,A,-999,PEA,A,1,2.5,0.04,0.08,30.0,22.0,1.25,0.05,0.1,0.1,0.10953,14.709,9.8228,0.109543,0.1097712,0.1097614,0.1097763,0.1095595,0.1109878,0.1135612,0.114071,0.1132458,0.1176443,0.1116491,0.1149031,0.1161967,0.1190937,0.1227584,0.1218375,0.1284059,0.1409789,0.1471796,0.1329285,0.1402086,0.1388424,0.1541551,0.1675476,0.1677722,0.1457619,0.1631256,0.1469136,0.1513232,0.2004066,0.1950131,0.2312274,0.2437302,0.3050357,0.3145526,0.3122616,0.2928118,0.3115126,0.2572902,0.3961031,0.3972213,0.3660582,0.2700527,0.310756,0.3152142,0.4459795,0.4074284,0.3311657,0.2832213,0.3607604,0.3942542,0.3599467,0.4073404,0.4556462,0.4890551,0.5202841,0.3561814,0.5708448,0.8163,0.5564212,0.4568235,0.3537905,0.3439859,0.2840438,0.3425905,0.3793856,0.267991,0.1822369,0.1763952,0.2081624,0.1495175,0.1271774,0.1056935,0.08842098,0.09205416,0.07446066,0.06312776,0.06695806,0.05944287,0.06390657,0.07586126,0.08613239,0.1078382,0.1142688,0.09785456,0.07352084,0.06677861,0.0620349,0.05231863,0.04513199,0.04436797,0.03304243,0.03011087,0.03309896,0.03459705,0.02601085,0.01956024,0.01597603,0.01557594,0.01726789,0.01663992,0.01479345,0.01276566,0.01148815,0.01037552,0.008180853,0.006470629,0.005315413,0.004286508,0.003660266,0.001798478,128.0,C1,0,C1,0.0,C1,0.0,C1,0.0,C1,0.0,C1,0.0,-41.889948,2.6652,0.5478,0.1682,0.5,50,-999.0,-999.0,-999,-999,0,-999,?,0,-999.0,-61.889948
748,749,118,Loma Prieta,1989,1018,5,Berkeley - Strawberry Canyon,1602,1005,6.93,Mw,0.081,0.036,10,0.1,278612116862977930864623616,128.0,70.0,140,3,10.68,184.55,41.99,84.78,37.0407,-121.8829,17.48,0,0,-999,1,3.85,40.0,18.0,719.8,108.11977445,1.5,72.0798496331,35.1467443897,2.79,0.774885027316,1.0,0,9,0,San Andreas-Santa Cruz,17.0,97.52,99.08,78.32,-999.0,96.09,78.41,-48.42,nu,-141.81,0.5,33.24,-999.0,0.81,51.89,-999.0,20.02,-999,2.413,-999,24.74,0.5623,-0.1768,-999,-999,-999,-48.422483,I,K,B,C,C,-999,C,512.27,-999.0,2a_3a_4b_4c,0.33,C,Tss,-999,USGS,37.87,-122.24,-999,-999,-999.0,-999,-999,-999,-999,-999,347.6,1397.7,3342.6,347.6,1397.7,3342.6,-999.0,-999,-999.0,-999.0,-999.0,-999.0,-999.0,-999.0,LOMAP\UCS045.AT2,LOMAP\UCS135.AT2,LOMAP\UCS-UP.AT2,45,135,-999,SMA-1,PEA,A,1,2.5,0.07,0.07,13.0,12.0,1.2,0.084,0.084,0.084,0.055303,7.0769,5.6222,0.05530318,0.05537458,0.05538687,0.05538213,0.05567743,0.05569332,0.05554597,0.05560695,0.05609332,0.05588462,0.05592382,0.05579391,0.05602348,0.05628352,0.05598786,0.05724807,0.05649393,0.05732395,0.05747157,0.05977414,0.06025876,0.0644577,0.06443182,0.06485477,0.06666428,0.0622208,0.06125492,0.05706646,0.0681854,0.08103228,0.0864536,0.07282665,0.07727271,0.10076,0.1191256,0.1314903,0.1761677,0.1604465,0.2415156,0.1760847,0.1940154,0.1683998,0.2307078,0.2242666,0.2242344,0.317621,0.2190205,0.2170237,0.2238244,0.2688337,0.2029365,0.1240789,0.1415862,0.1306001,0.1247588,0.1791087,0.2174074,0.1435486,0.1463972,0.1247977,0.1227243,0.1343303,0.173207,0.1839426,0.2005254,0.1824427,0.1644588,0.155716,0.1907116,0.1487633,0.09419353,0.06676633,0.07062159,0.08014223,0.05590629,0.03992216,0.04095284,0.03763598,0.03916774,0.0507752,0.05449023,0.06076377,0.04898892,0.02748784,0.02429238,0.03188945,0.03460612,0.03638602,0.03457416,0.03238341,0.02845243,0.02742011,0.02751838,0.02708679,0.02357383,0.01701263,0.01441426,0.01531575,0.01729761,0.01703833,0.01513612,0.01310721,0.01109326,0.009159051,0.007617806,0.005571959,0.004026981,0.00274897,0.00218172,0.001765195,0.0007124539,128.0,C1,0,C1,0.0,C1,0.0,C1,0.0,C1,0.0,C1,0.0,-61.551164,1.7269,0.4689,0.1542,0.5,50,-999.0,-999.0,-999,-999,0,-999,?,0,-999.0,-81.551164
749,750,118,Loma Prieta,1989,1018,5,Berkeley LBL,486,58471,6.93,Mw,0.081,0.036,10,0.1,278612116862977930864623616,128.0,70.0,140,3,10.68,184.55,41.99,84.78,37.0407,-121.8829,17.48,0,0,-999,1,3.85,40.0,18.0,719.8,108.11977445,1.5,72.0798496331,35.1467443897,2.79,0.774885027316,1.0,0,9,0,San Andreas-Santa Cruz,17.0,98.41,99.95,79.16,-999.0,96.98,79.25,-48.47,nu,-142.25,0.5,32.93,-999.0,0.81,51.91,-999.0,20.02,-999,2.4214,-999,24.74,0.5679,-0.1766,-999,-999,-999,-48.465906,I,V,A,C,C,S,C,623.52,-999.0,2a_3a_4b_4c,-999.0,C,Tv,-999,CDMG,37.876,-122.249,0,GROUND LEVEL,-999.0,-999,-999,Tertiary,-999,-999,583.6,1410.9,3361.1,583.6,1410.9,3361.1,0.018,-999,-999.0,-999.0,-999.0,-999.0,-999.0,-999.0,LOMAP\BRK000.AT2,LOMAP\BRK090.AT2,LOMAP\BRK-UP.AT2,0,90,A,-999,PEA,A,1,2.5,0.1,0.1,20.0,18.0,1.25,0.125,0.125,0.125,0.091233,15.425,4.3591,0.09125751,0.09140411,0.09135148,0.09149313,0.09155355,0.0917643,0.09168513,0.09191901,0.09261527,0.092163,0.0923221,0.09234645,0.09383313,0.09452229,0.09527154,0.09486877,0.09689124,0.09582599,0.1025669,0.1018318,0.1032092,0.1077713,0.1166742,0.106941,0.1207553,0.1127645,0.1155794,0.1161282,0.1392767,0.1248645,0.1255063,0.1589022,0.1511826,0.1461984,0.1549633,0.1571814,0.168676,0.2152414,0.182124,0.2011169,0.1530713,0.1376969,0.2587413,0.3646546,0.3790342,0.3733149,0.3930742,0.3608884,0.4218938,0.4036356,0.4769494,0.3799787,0.3100182,0.2587328,0.2287387,0.2495947,0.231584,0.3077184,0.2514509,0.2623001,0.2823025,0.2933184,0.3397341,0.3990094,0.4326857,0.4740477,0.4823236,0.3974345,0.3100958,0.2316695,0.1932733,0.1584928,0.1605683,0.1411537,0.09932888,0.06647304,0.05764334,0.05138153,0.04528992,0.05931615,0.0613514,0.05848644,0.05142476,0.03243592,0.02674701,0.03484353,0.03495462,0.0337828,0.03307414,0.02925081,0.0272528,0.02395171,0.02261207,0.02229998,0.02530921,0.02323202,0.02208004,0.02433254,0.02205754,0.01769638,0.01381054,0.01051709,0.008229216,0.006416608,0.005220897,0.003600646,0.002661707,0.00199608,0.001600183,0.00128631,0.000576353,128.0,C1,0,C1,0.0,C1,0.0,C1,0.0,C1,0.0,C1,0.0,-62.585025,1.7513,0.4705,0.1545,0.5,50,-999.0,-999.0,-999,-999,0,-999,?,0,-999.0,-82.585025
750,751,118,Loma Prieta,1989,1018,5,Calaveras Reservoir,1601,1687,6.93,Mw,0.081,0.036,10,0.1,278612116862977930864623616,128.0,70.0,140,3,10.68,184.55,41.99,84.78,37.0407,-121.8829,17.48,0,0,-999,1,3.85,40.0,18.0,719.8,108.11977445,1.5,72.0798496331,35.1467443897,2.79,0.774885027316,1.0,0,9,0,San Andreas-Santa Cruz,17.0,46.26,49.45,35.28,-999.0,46.34,35.49,-35.16,fw,-94.68,0.5,60.33,0.25,0.81,46.5,0.56,20.02,-999,1.4586,-999,24.74,0.1866,0.1185,-999,-999,-999,-35.16425,A,Q,A,C,B,-999,C,571.99,-999.0,2a_3a_4b_4c,0.4,C,Kss,-999,USGS,37.452,-121.807,-999,-999,-999.0,-999,-999,-999,-999,-999,0.0,302.5,878.1,0.0,302.5,878.1,-999.0,-999,-999.0,-999.0,-999.0,-999.0,-999.0,-999.0,LOMAP\CLR090.AT2,LOMAP\CLR180.AT2,LOMAP\CLR-UP.AT2,90,180,-999,SMA-1,PEA,A,1,2.5,0.07,0.06,25.0,25.0,1.2,0.084,0.072,0.084,0.087136,10.967,8.3563,0.08722342,0.08795132,0.08896624,0.08900479,0.09191945,0.08980254,0.09072835,0.09428791,0.09280932,0.09489237,0.1031682,0.1045596,0.1095168,0.100152,0.1094737,0.1107264,0.1134003,0.1279148,0.1542758,0.1669669,0.1811666,0.1719118,0.1610424,0.1992633,0.2086382,0.2673364,0.2862081,0.4181629,0.3826364,0.4960508,0.4295185,0.4484917,0.5788696,0.7942621,0.736032,0.5720586,0.6183235,0.671982,0.6638176,0.5127148,0.4925218,0.4000923,0.414802,0.3184075,0.3835699,0.3602172,0.4113835,0.3845125,0.4246143,0.5202042,0.4108682,0.4011874,0.3544604,0.3565647,0.3177798,0.2537628,0.1989127,0.1937326,0.3490998,0.5045559,0.4853145,0.3935361,0.4101113,0.4306742,0.3286377,0.3190034,0.3267379,0.2822221,0.2770526,0.1793014,0.100246,0.0786312,0.07670131,0.062248,0.08866791,0.06959172,0.05621947,0.05325985,0.05086214,0.0427938,0.04017524,0.04284804,0.05382089,0.04489243,0.03788494,0.04053587,0.03825197,0.0353561,0.03583557,0.03592071,0.03175142,0.02702591,0.02199017,0.01762982,0.01509324,0.01357353,0.01490294,0.01796175,0.02002465,0.01964443,0.01928586,0.01804236,0.01644148,0.0145932,0.01279978,0.009309519,0.007355393,0.005819879,0.004529695,0.003507737,0.001351013,128.0,C1,0,C1,0.0,C1,0.0,C1,0.0,C1,0.0,C1,0.0,-2.8772345,0.2644,0.2132,0.0888,0.5,50,-999.0,-999.0,-999,-999,0,-999,?,0,-999.0,-22.8772345
