,Record Sequence Number,EQID,Earthquake Name,YEAR,MODY,HRMN,Station Name,Station Sequence Number,Station ID  No.,Earthquake Magnitude,Magnitude Type,Magnitude Uncertainty: Kagan Model,Magnitude Uncertainty: Statistical,Magnitude Sample Size,Magnitude Uncertainty: Study Class,Mo (dyne.cm),Strike (deg),Dip (deg),Rake Angle (deg),Mechanism Based on Rake Angle,P-plunge (deg),P-trend (deg),T-plunge (deg),T-trend (deg),Hypocenter Latitude (deg),Hypocenter Longitude (deg),Hypocenter Depth (km),Coseismic Surface Rupture: 1=Yes; 0=No;    -999=Unknown,Coseismic Surface Rupture (Including Inferred),Basis for Inference of Surface Rupture,Finite Rupture Model: 1=Yes;  0=No,Depth to Top Of Fault Rupture Model,Fault Rupture Length for Calculation of Ry (km),Fault Rupture Width (km),Fault Rupture Area (km^2),Avg Fault Disp (cm),Rise Time (s),Avg Slip Velocity (cm/s),Static Stress Drop (bars),Preferred Rupture Velocity (km/s),Average Vr/Vs,Percent of Moment Release in the Top 5 Km of Crust,Existence of Shallow Asperity: 0=No; 1=Yes,Depth to Top of Shallowest Asperity (km),Earthquake in Extensional Regime: 1=Yes; 0=No,Fault Name,Slip Rate (mm/Yr),EpiD (km),HypD (km),Joyner-Boore Dist. (km),Campbell R Dist. (km),RmsD (km),ClstD (km),Rx,FW/HW Indicator,Source to Site Azimuth (deg),X,Theta.D (deg),SSGA (Strike Slip),Y,Phi.D (deg),SSGA (Dip Slip),s,d,ctildepr,Unused Column,D,Rfn.Hyp,Rfp.Hyp,Unused Column.1,Unused Column.2,Unused Column.3,T,GMX's C1,GMX's C2,GMX's C3,Campbell's GEOCODE,Bray and Rodriguez-Marek SGS,Depth,Preferred NEHRP Based on Vs30,Vs30 (m/s) selected for analysis,Column Not Used,Measured/Inferred Class,Sigma of Vs30 (in natural log Units),NEHRP Classification from CGS's Site Condition Map,Geological Unit,Geology,Owner,Station Latitude,Station Longitude,STORIES,INSTLOC,Depth to Basement Rock,Site Visited,NGA Type,Age,Grain Size,Depositional History,Northern CA/Southern CA - H11 Z1 (m),Northern CA/Southern CA - H11 Z1.5 (m),Northern CA/Southern CA - H11 Z2.5 (m),Northern CA/Southern CA - S4 Z1 (m),Northern CA/Southern CA - S4 Z1.5 (m),Northern CA/Southern CA - S4 Z2.5 (m),Depth to Franciscan Rock (km),Basin,h (m),hnorm (m),Rsbe (m),Rcebe (m),Rebe (m),Rsbe1 (m),File Name (Horizontal 1),File Name (Horizontal 2),File Name (Vertical),H1 azimth (degrees),H2 azimith (degrees),Type of Recording,Instrument Model,PEA Processing Flag,Type of Filter,npass,nroll,HP-H1 (Hz),HP-H2 (Hz),LP-H1 (Hz),LP-H2 (Hz),Factor,Lowest Usable Freq - H1 (Hz),Lowest Usable Freq - H2 (H2),Lowest Usable Freq - Ave. Component (Hz),PGA (g),PGV (cm/sec),PGD (cm),T0.010S,T0.020S,T0.022S,T0.025S,T0.029S,T0.030S,T0.032S,T0.035S,T0.036S,T0.040S,T0.042S,T0.044S,T0.045S,T0.046S,T0.048S,T0.050S,T0.055S,T0.060S,T0.065S,T0.067S,T0.070S,T0.075S,T0.080S,T0.085S,T0.090S,T0.095S,T0.100S,T0.110S,T0.120S,T0.130S,T0.133S,T0.140S,T0.150S,T0.160S,T0.170S,T0.180S,T0.190S,T0.200S,T0.220S,T0.240S,T0.250S,T0.260S,T0.280S,T0.290S,T0.300S,T0.320S,T0.340S,T0.350S,T0.360S,T0.380S,T0.400S,T0.420S,T0.440S,T0.450S,T0.460S,T0.480S,T0.500S,T0.550S,T0.600S,T0.650S,T0.667S,T0.700S,T0.750S,T0.800S,T0.850S,T0.900S,T0.950S,T1.000S,T1.100S,T1.200S,T1.300S,T1.400S,T1.500S,T1.600S,T1.700S,T1.800S,T1.900S,T2.000S,T2.200S,T2.400S,T2.500S,T2.600S,T2.800S,T3.000S,T3.200S,T3.400S,T3.500S,T3.600S,T3.800S,T4.000S,T4.200S,T4.400S,T4.600S,T4.800S,T5.000S,T5.500S,T6.000S,T6.500S,T7.000S,T7.500S,T8.000S,T8.500S,T9.000S,T9.500S,T10.000S,T11.000S,T12.000S,T13.000S,T14.000S,T15.000S,T20.000S,Ave Strike (deg),TYPE(CRjb = 0),CRjb,"TYPE
751,752,118,Loma Prieta,1989,1018,5,Capitola,417,47125,6.93,Mw,0.081,0.036,10,0.1,278612116862977930864623616,128.0,70.0,140,3,10.68,184.55,41.99,84.78,37.0407,-121.8829,17.48,0,0,-999,1,3.85,40.0,18.0,719.8,108.11977445,1.5,72.0798496331,35.1467443897,2.79,0.774885027316,1.0,0,9,0,San Andreas-Santa Cruz,17.0,9.78,20.03,8.65,-999.0,20.11,15.23,14.8,hw,90.0,0.01,88.39,0.0,0.73,49.21,0.48,0.27,-999,1.1323,-999,13.09,-0.0892,-0.5707,-999,-999,-999,14.80284,A,Q,B,A,C,S,D,288.62,-999.0,0,0.1,D,"Qal, thin",-999,CDMG,36.973,-121.953,1,GROUND LEVEL,6.0,-999,-999,Holocene,-999,Alluvium,197.7,322.2,695.6,197.7,322.2,695.6,-999.0,-999,-999.0,-999.0,-999.0,-999.0,-999.0,-999.0,LOMAP\CAP000.AT2,LOMAP\CAP090.AT2,LOMAP\CAP-UP.AT2,0,90,A,-999,PEA,A,1,2.5,0.2,0.2,48.0,40.0,1.25,0.25,0.25,0.25,0.46822,38.854,6.9463,0.4717945,0.6841835,0.6295282,0.6906948,0.7574644,0.7591281,0.8493285,0.895289,0.905758,0.9965577,1.083047,0.8408087,0.9863942,1.016332,1.194773,1.081831,1.084807,1.425021,1.062972,1.36179,1.101369,1.269516,1.331419,1.31443,1.283136,1.650869,1.531975,2.134789,3.091639,2.542504,2.865677,2.577515,2.341987,2.159305,2.004675,1.759828,1.792778,2.179666,2.177787,1.929702,1.986115,2.659259,3.567731,3.136044,3.246846,1.720132,3.243125,3.136135,2.834871,2.839785,2.233002,1.914669,2.419954,2.182372,1.666709,1.246462,1.28799,1.206142,1.518507,2.275092,2.035434,1.839755,1.471519,1.020836,0.9938865,0.6391326,0.5125791,0.5683293,0.4991177,0.932337,1.01924,0.852272,0.7296426,0.5761713,0.3717518,0.2250901,0.2170022,0.2140742,0.1262738,0.1117469,0.102605,0.09480106,0.07789406,0.06628973,0.05704832,0.04551584,0.04226016,0.03771332,0.03809348,0.03230814,0.02664063,0.02575837,0.02451507,0.02147821,0.01855476,0.01431935,0.01074942,0.008346272,0.006582991,0.005114369,0.004558245,0.004089655,0.003584146,0.003086241,0.002673047,0.002156365,0.001900063,0.001669824,0.001469953,0.001293594,0.0007329042,128.0,C1,0,C1,0.0,C1,0.0,C1,0.0,C1,0.0,C1,0.0,19.744022,0.3111,0.0661,-0.1144,0.5,50,-999.0,-999.0,-999,-999,0,-999,?,0,-999.0,-0.255978
752,753,118,Loma Prieta,1989,1018,5,Corralitos,442,57007,6.93,Mw,0.081,0.036,10,0.1,278612116862977930864623616,128.0,70.0,140,3,10.68,184.55,41.99,84.78,37.0407,-121.8829,17.48,0,0,-999,1,3.85,40.0,18.0,719.8,108.11977445,1.5,72.0798496331,35.1467443897,2.79,0.774885027316,1.0,0,9,0,San Andreas-Santa Cruz,17.0,7.17,18.89,0.16,-999.0,13.68,3.85,-0.16,fw,-90.0,0.12,46.32,0.09,0.81,3.47,0.81,4.95,-999,3.7017,-999,15.35,0.4127,-0.0757,-999,-999,-999,-0.15504375,I,P,A,C,C,S,C,462.24,-999.0,0,0.2,C,Tss,-999,CDMG,37.05,-121.803,0,GROUND LEVEL,3.8,-999,-999,Tertiary,-999,-999,564.2,861.2,861.2,564.2,861.2,861.2,-999.0,-999,-999.0,-999.0,-999.0,-999.0,-999.0,-999.0,LOMAP\CLS000.AT2,LOMAP\CLS090.AT2,LOMAP\CLS-UP.AT2,0,90,A,-999,PEA,A,1,2.5,0.15,0.08,40.0,40.0,1.25,0.1875,0.1,0.1875,0.5,48.341,11.394,0.5013131,0.5141301,0.5309048,0.5246712,0.5441369,0.5613104,0.5720782,0.577166,0.6070631,0.6890503,0.5705795,0.5633266,0.5717021,0.5606475,0.6060327,0.6032286,0.6552458,0.7328499,0.7320247,0.7348006,0.7762814,0.7605935,0.9016033,0.8170732,1.003864,0.8674011,1.190401,1.227461,1.230753,1.194049,1.44643,1.294474,1.462965,1.358532,2.105576,1.499006,1.905965,1.547914,2.090549,1.79782,2.039671,3.446578,2.65485,2.62795,2.600538,2.788826,2.897675,2.861287,3.137065,1.999738,1.568604,1.794577,1.878803,1.586857,1.426922,1.405554,1.66183,2.114741,2.091748,1.681111,1.593876,2.32246,2.773018,1.571762,1.196735,1.21472,0.8212002,0.662171,0.5821452,0.4373856,0.4982041,0.5061815,0.4156086,0.2996838,0.245041,0.2354463,0.2249601,0.2552325,0.216212,0.169165,0.1369515,0.1165112,0.1043982,0.09894923,0.09435461,0.09847587,0.1003383,0.1002082,0.08441658,0.05566034,0.04263246,0.03969442,0.03715385,0.03484875,0.03308393,0.02787117,0.0245127,0.02092312,0.02069822,0.01932542,0.01583439,0.01373164,0.01141988,0.009075859,0.007844539,0.006274431,0.004812804,0.00365692,0.002913142,0.002388465,0.001277495,128.0,C1,0,C1,0.0,C1,0.0,C1,0.0,C1,0.0,C1,0.0,24.971044,1.1222,0.1651,-0.0791,0.5,50,-999.0,-999.0,-999,-999,0,-999,?,0,-999.0,4.971044
753,754,118,Loma Prieta,1989,1018,5,Coyote Lake Dam (Downst),454,57504,6.93,Mw,0.081,0.036,10,0.1,278612116862977930864623616,128.0,70.0,140,3,10.68,184.55,41.99,84.78,37.0407,-121.8829,17.48,0,0,-999,1,3.85,40.0,18.0,719.8,108.11977445,1.5,72.0798496331,35.1467443897,2.79,0.774885027316,1.0,0,9,0,San Andreas-Santa Cruz,17.0,30.89,35.49,20.44,-999.0,31.47,20.8,-20.44,fw,-90.0,0.44,55.56,0.25,0.81,35.54,0.66,17.47,-999,1.657,-999,22.72,0.0126,0.5057,-999,-999,-999,-20.443025,I,H,C,B,C,S,D,295.01,-999.0,0,0.1,C,"Qal, thin",-999,CDMG,37.124,-121.551,0,"DOWNSTREAM, INST. SHELTER H",-999.0,-999,-999,Holocene,Coarse,-999,339.6,745.7,945.0,339.6,745.7,945.0,0.015,-999,-999.0,-999.0,-999.0,-999.0,-999.0,-999.0,LOMAP\CLD195.AT2,LOMAP\CLD285.AT2,LOMAP\CLD-UP.AT2,195,285,A,-999,PEA,A,1,2.5,0.063,0.1,30.0,29.0,1.25,0.07875,0.125,0.125,0.16297,19.181,10.31,0.1630017,0.166509,0.1657412,0.1644922,0.1771268,0.1790764,0.1753017,0.1899844,0.2036984,0.2033572,0.2103231,0.1793953,0.2057129,0.2253672,0.2310628,0.2383424,0.2408597,0.2557387,0.3062056,0.3331077,0.2641371,0.3836627,0.3656968,0.390269,0.419819,0.5098789,0.3960908,0.5009935,0.4091594,0.7606318,0.9110413,0.787407,0.8340501,0.6891514,1.016296,1.311331,1.659273,1.348196,1.218505,0.7739987,0.7597897,0.7205852,0.5380936,0.517148,0.6958406,0.5504324,0.7398953,0.6465711,0.8269665,1.025804,0.7905365,0.9545771,0.7339253,0.6212248,0.5374405,0.5749663,0.5865961,0.5042437,0.4465831,0.4056714,0.4295029,0.3888434,0.3592164,0.3758101,0.5058002,0.387264,0.350246,0.2436712,0.1993642,0.1640985,0.2282347,0.3031918,0.3196384,0.2350533,0.1667221,0.1371766,0.1271709,0.1709768,0.1369402,0.09781573,0.07732446,0.06867135,0.0571419,0.05170796,0.04158655,0.03859049,0.03774126,0.03666146,0.03604219,0.03620245,0.03538335,0.03511057,0.03491272,0.0334181,0.0344196,0.03333448,0.02958291,0.02433624,0.02117087,0.0173391,0.01457257,0.01162895,0.00997337,0.008483444,0.007083358,0.005077619,0.004137894,0.003396695,0.002887592,0.002476033,0.001285761,128.0,C1,0,C1,0.0,C1,0.0,C1,0.0,C1,0.0,C1,0.0,37.484915,0.7516,0.1822,-0.0348,0.5,50,-999.0,-999.0,-999,-999,0,-999,?,0,-999.0,17.484915
754,755,118,Loma Prieta,1989,1018,5,Coyote Lake Dam - Southwest Abutment,449,57217,6.93,Mw,0.081,0.036,10,0.1,278612116862977930864623616,128.0,70.0,140,3,10.68,184.55,41.99,84.78,37.0407,-121.8829,17.48,0,0,-999,1,3.85,40.0,18.0,719.8,108.11977445,1.5,72.0798496331,35.1467443897,2.79,0.774885027316,1.0,0,9,0,San Andreas-Santa Cruz,17.0,30.78,35.4,19.97,-999.0,31.26,20.34,-19.97,fw,-90.0,0.45,54.33,0.26,0.81,35.04,0.66,17.95,-999,1.6722,-999,23.09,0.0087,0.4949,-999,-999,-999,-19.97321,H,F,A,D,B,S,C,561.43,-999.0,2a_3a_4b_4c,-999.0,B,Tv,-999,CDMG,37.118,-121.55,0,"S.W. ABUTMENT, INST. SHELTER A",0.0,-999,-999,Holocene,Coarse,Landslide,553.4,553.4,826.4,553.4,553.4,826.4,-999.0,-999,-999.0,-999.0,-999.0,-999.0,-999.0,-999.0,LOMAP\CYC195.AT2,LOMAP\CYC285.AT2,LOMAP\CYC-UP.AT2,195,285,A,-999,PEA,A,1,2.5,0.13,0.07,31.0,33.0,1.25,0.1625,0.0875,0.1625,0.34283,30.989,11.698,0.3443101,0.3486688,0.3503892,0.3549817,0.3570823,0.3552884,0.3764662,0.4081165,0.3941075,0.4409306,0.409431,0.4696584,0.4770808,0.4413759,0.5648818,0.4899825,0.4782098,0.6208296,0.5229813,0.5053188,0.7108038,0.6311928,0.658783,0.6885117,0.8711787,0.7682766,0.9120775,0.8692012,1.259834,1.112277,1.019137,0.891071,1.093656,0.832718,1.19471,1.018702,1.062265,0.98737,1.329012,0.9637463,0.9390387,0.9760206,0.8526574,0.817565,0.8218395,1.27362,1.133979,0.9471614,1.333297,1.424054,0.9481195,1.007822,0.7649344,0.8514881,0.9399639,1.077912,1.211124,0.986645,1.392815,1.780831,1.649095,1.007672,0.6551283,0.7550136,0.5463038,0.5466948,0.7729452,0.7585275,0.4013075,0.3595846,0.3370403,0.3890901,0.4099509,0.2433325,0.207022,0.1837031,0.1997079,0.2707722,0.1839207,0.1410322,0.1175223,0.09435105,0.07735394,0.07370093,0.05410128,0.05042204,0.04874497,0.04809574,0.04798938,0.04707088,0.04368813,0.04127725,0.04243848,0.04217216,0.0408556,0.03701725,0.03276103,0.02663352,0.02255821,0.01900754,0.01568686,0.01292644,0.01088094,0.00923429,0.008023138,0.006533633,0.005408746,0.004511625,0.003789577,0.00321765,0.001603171,128.0,C1,0,C1,0.0,C1,0.0,C1,0.0,C1,0.0,C1,0.0,37.967535,0.7556,0.1886,-0.0359,0.5,50,-999.0,-999.0,-999,-999,0,-999,?,0,-999.0,17.967535
755,756,118,Loma Prieta,1989,1018,5,Dublin - Fire Station,1164,1689,6.93,Mw,0.081,0.036,10,0.1,278612116862977930864623616,128.0,70.0,140,3,10.68,184.55,41.99,84.78,37.0407,-121.8829,17.48,0,0,-999,1,3.85,40.0,18.0,719.8,108.11977445,1.5,72.0798496331,35.1467443897,2.79,0.774885027316,1.0,0,9,0,San Andreas-Santa Cruz,17.0,74.49,76.52,58.68,-999.0,73.48,58.8,-50.91,nu,-119.81,0.5,48.67,-999.0,0.81,52.65,-999.0,20.02,-999,1.8732,-999,24.74,0.2461,-0.0886,-999,-999,-999,-50.909548,A,H,D,A,D,-999,D,318.31,-999.0,2a_3a_4b_4c,0.33962921,D,"Qal, deep (incl LA)",-999,USGS,37.709,-121.932,0,GROUND LEVEL,-999.0,-999,-999,Holocene,-999,Alluvium,595.1,1395.8,3394.1,595.1,1395.8,3394.1,-999.0,-999,-999.0,-999.0,-999.0,-999.0,-999.0,-999.0,LOMAP\DFS270.AT2,LOMAP\DFS360.AT2,LOMAP\DFS-UP.AT2,270,0,-999,SMA-1,#,A,2,4.0,0.08,0.08,13.0,13.0,1.2,0.096,0.096,0.096,0.07225,12.404,9.4202,0.07225002,0.07245094,0.07248892,0.07257915,0.07270693,0.07271354,0.07276248,0.07287422,0.0729726,0.07284129,0.07313198,0.07315059,0.07327988,0.07360332,0.07349836,0.07398126,0.07384311,0.07604479,0.07568815,0.07642653,0.07826347,0.07763625,0.08068666,0.07914387,0.07879536,0.09043736,0.0919708,0.09837525,0.101004,0.1521827,0.163607,0.1666593,0.2358353,0.2039126,0.1699627,0.2201078,0.309916,0.4156827,0.5659732,0.4039288,0.2253802,0.1954059,0.3315028,0.3813113,0.3562963,0.2920115,0.2276126,0.2516387,0.3748394,0.4627072,0.5689701,0.5548474,0.4767129,0.483404,0.4663602,0.4606862,0.4012689,0.263912,0.3046135,0.2976084,0.3183585,0.424904,0.3633757,0.2972455,0.2266447,0.2769379,0.2041859,0.1947237,0.4034887,0.426304,0.3173032,0.1973159,0.2407352,0.2079493,0.1112967,0.1423315,0.2051557,0.1789819,0.07766304,0.0893915,0.08683209,0.08823244,0.08237344,0.05424644,0.03535191,0.02568185,0.02243671,0.02353574,0.025287,0.02236066,0.02641901,0.03413483,0.03679021,0.03531952,0.03352046,0.03709495,0.03874639,0.03962893,0.03382149,0.02642088,0.02124475,0.01803677,0.01520425,0.01240579,0.01003976,0.007620278,0.005756607,0.004162341,0.003197445,0.002633809,0.001213238,128.0,C1,0,C1,0.0,C1,0.0,C1,0.0,C1,0.0,C1,0.0,-29.172514,0.5098,0.337,0.128,0.5,50,-999.0,-999.0,-999,-999,0,-999,?,0,-999.0,-49.172514
756,757,118,Loma Prieta,1989,1018,5,Dumbarton Bridge West End FF,1488,58664,6.93,Mw,0.081,0.036,10,0.1,278612116862977930864623616,128.0,70.0,140,3,10.68,184.55,41.99,84.78,37.0407,-121.8829,17.48,0,0,-999,1,3.85,40.0,18.0,719.8,108.11977445,1.5,72.0798496331,35.1467443897,2.79,0.774885027316,1.0,0,9,0,San Andreas-Santa Cruz,17.0,54.99,57.71,35.31,-999.0,53.15,35.52,-20.81,nu,-143.89,0.5,28.02,-999.0,0.81,35.92,-999.0,20.02,-999,2.8325,-999,24.74,0.7809,-0.0555,-999,-999,-999,-20.807625,I,H,D,A,D,D,D,238.06,-999.0,3a_4b_4c,0.36,D,-999,-999,CDMG,37.492,-122.136,-999,-999,-999.0,-999,-999,-999,-999,-999,190.4,263.6,841.9,190.4,263.6,841.9,0.18,-999,-999.0,-999.0,-999.0,-999.0,-999.0,-999.0,LOMAP\DUMB267.AT2,LOMAP\DUMB357.AT2,LOMAP\DUMB-UP.AT2,267,357,A,-999,PEA,A,1,2.5,0.1,0.1,13.0,13.0,1.25,0.125,0.125,0.125,0.12681,19.054,7.2845,0.1268765,0.1271295,0.1272186,0.1274541,0.1275699,0.1276907,0.1278747,0.1280137,0.1288726,0.1299667,0.13201,0.1287317,0.1294471,0.1289511,0.1363482,0.140203,0.1432483,0.1303861,0.1453384,0.1410303,0.1371423,0.1585063,0.148365,0.1510079,0.2225005,0.193343,0.1851777,0.1990022,0.3286124,0.2911375,0.2840039,0.1999936,0.2638009,0.1854924,0.1996063,0.2043148,0.2475802,0.2712588,0.2896369,0.3935628,0.3586295,0.2484922,0.2938911,0.300724,0.320649,0.3781811,0.3897594,0.4214203,0.5498233,0.3894246,0.538945,0.7240328,0.6170111,0.4456369,0.484782,0.3246182,0.3623505,0.6397926,0.4197057,0.5184404,0.5663878,0.6588445,0.6969571,0.6721807,0.4976925,0.3495681,0.4224923,0.4220934,0.4356413,0.269992,0.1846145,0.176154,0.1845707,0.2345133,0.2265974,0.3358241,0.4165882,0.3939559,0.1778286,0.2005323,0.171832,0.1334215,0.1000216,0.1172016,0.1217616,0.1111289,0.1080263,0.1022794,0.08428056,0.07873673,0.07151926,0.05923244,0.0500249,0.04571831,0.04234331,0.03990199,0.03498198,0.02946816,0.02554602,0.02086862,0.01652574,0.01343843,0.01117761,0.009104643,0.00742689,0.005471347,0.003968117,0.002904087,0.002249901,0.001872425,0.001112091,128.0,C1,0,C1,0.0,C1,0.0,C1,0.0,C1,0.0,C1,0.0,-28.527182,2.346,0.487,0.1625,0.5,50,-999.0,-999.0,-999,-999,0,-999,?,0,-999.0,-48.527182
757,758,118,Loma Prieta,1989,1018,5,"Emeryville; Pacific Park #2, Free Field",1603,1662,6.93,Mw,0.081,0.036,10,0.1,278612116862977930864623616,128.0,70.0,140,3,10.68,184.55,41.99,84.78,37.0407,-121.8829,17.48,0,0,-999,1,3.85,40.0,18.0,719.8,108.11977445,1.5,72.0798496331,35.1467443897,2.79,0.774885027316,1.0,0,9,0,San Andreas-Santa Cruz,17.0,96.52,98.09,76.87,-999.0,95.05,76.97,-43.18,nu,-145.83,0.5,29.96,-999.0,0.81,50.07,-999.0,20.02,-999,2.5248,-999,24.74,0.6369,-0.1571,-999,-999,-999,-43.175977,I,H,D,A,D,-999,D,198.74,-999.0,0,0.1,D,af/qi,-999,USGS,37.844,-122.295,-999,-999,-999.0,-999,-999,-999,-999,-999,95.2,270.9,849.4,95.2,270.9,849.4,-999.0,-999,-999.0,-999.0,-999.0,-999.0,-999.0,-999.0,LOMAP\EMY260.AT2,LOMAP\EMY350.AT2,LOMAP\EMY-UP.AT2,260,350,-999,-999,PEA,A,1,2.5,0.2,0.22,0.0,0.0,1.25,0.25,0.275,0.275,0.23685,34.111,6.6888,0.2390066,0.2539815,0.2518879,0.2485902,0.2526712,0.2485686,0.2529787,0.2598248,0.2711631,0.258679,0.2604804,0.2720869,0.2815323,0.2577147,0.2805114,0.2667849,0.2836926,0.2911588,0.2810875,0.2862589,0.3304716,0.3411475,0.352476,0.3294086,0.3375977,0.3363741,0.3854937,0.4150015,0.3202082,0.3243747,0.3294365,0.2928679,0.3122055,0.3804523,0.4671953,0.536967,0.5770701,0.6312737,0.5521275,0.6831686,0.507463,0.5528737,0.6202314,0.800553,0.6695343,0.8550095,0.656411,0.7574267,0.8983237,0.7970915,0.60431,0.6002414,0.6242808,0.6287156,0.6345206,0.8136078,1.063648,0.5960745,0.6021487,0.9958701,1.044932,0.9300196,0.6466541,0.6314437,0.689105,0.6861662,0.6995445,0.7429768,0.8278713,0.8299729,0.8448012,0.9933695,0.9827563,0.7305467,0.4848807,0.3570668,0.2742417,0.2255004,0.1558564,0.1051975,0.09579024,0.09214939,0.07814569,0.06314971,0.04993594,0.04679463,0.0458779,0.04327203,0.04049465,0.03666641,0.02878544,0.02543567,0.02199888,0.01900526,0.01618209,0.01184371,0.009124251,0.007396757,0.006331271,0.005408023,0.004638444,0.004011538,0.003508433,0.003102939,0.002773648,0.002273511,0.001909396,0.001629547,0.001406842,0.00122591,0.0006853162,128.0,C1,0,C1,0.0,C1,0.0,C1,0.0,C1,0.0,C1,0.0,-63.599422,1.9656,0.4858,0.1575,0.5,50,-999.0,-999.0,-999,-999,0,-999,?,0,-999.0,-83.599422
