,Record Sequence Number,EQID,Earthquake Name,YEAR,MODY,HRMN,Station Name,Station Sequence Number,Station ID  No.,Earthquake Magnitude,Magnitude Type,Magnitude Uncertainty: Kagan Model,Magnitude Uncertainty: Statistical,Magnitude Sample Size,Magnitude Uncertainty: Study Class,Mo (dyne.cm),Strike (deg),Dip (deg),Rake Angle (deg),Mechanism Based on Rake Angle,P-plunge (deg),P-trend (deg),T-plunge (deg),T-trend (deg),Hypocenter Latitude (deg),Hypocenter Longitude (deg),Hypocenter Depth (km),Coseismic Surface Rupture: 1=Yes; 0=No;    -999=Unknown,Coseismic Surface Rupture (Including Inferred),Basis for Inference of Surface Rupture,Finite Rupture Model: 1=Yes;  0=No,Depth to Top Of Fault Rupture Model,Fault Rupture Length for Calculation of Ry (km),Fault Rupture Width (km),Fault Rupture Area (km^2),Avg Fault Disp (cm),Rise Time (s),Avg Slip Velocity (cm/s),Static Stress Drop (bars),Preferred Rupture Velocity (km/s),Average Vr/Vs,Percent of Moment Release in the Top 5 Km of Crust,Existence of Shallow Asperity: 0=No; 1=Yes,Depth to Top of Shallowest Asperity (km),Earthquake in Extensional Regime: 1=Yes; 0=No,Fault Name,Slip Rate (mm/Yr),EpiD (km),HypD (km),Joyner-Boore Dist. (km),Campbell R Dist. (km),RmsD (km),ClstD (km),Rx,FW/HW Indicator,Source to Site Azimuth (deg),X,Theta.D (deg),SSGA (Strike Slip),Y,Phi.D (deg),SSGA (Dip Slip),s,d,ctildepr,Unused Column,D,Rfn.Hyp,Rfp.Hyp,Unused Column.1,Unused Column.2,Unused Column.3,T,GMX's C1,GMX's C2,GMX's C3,Campbell's GEOCODE,Bray and Rodriguez-Marek SGS,Depth,Preferred NEHRP Based on Vs30,Vs30 (m/s) selected for analysis,Column Not Used,Measured/Inferred Class,Sigma of Vs30 (in natural log Units),NEHRP Classification from CGS's Site Condition Map,Geological Unit,Geology,Owner,Station Latitude,Station Longitude,STORIES,INSTLOC,Depth to Basement Rock,Site Visited,NGA Type,Age,Grain Size,Depositional History,Northern CA/Southern CA - H11 Z1 (m),Northern CA/Southern CA - H11 Z1.5 (m),Northern CA/Southern CA - H11 Z2.5 (m),Northern CA/Southern CA - S4 Z1 (m),Northern CA/Southern CA - S4 Z1.5 (m),Northern CA/Southern CA - S4 Z2.5 (m),Depth to Franciscan Rock (km),Basin,h (m),hnorm (m),Rsbe (m),Rcebe (m),Rebe (m),Rsbe1 (m),File Name (Horizontal 1),File Name (Horizontal 2),File Name (Vertical),H1 azimth (degrees),H2 azimith (degrees),Type of Recording,Instrument Model,PEA Processing Flag,Type of Filter,npass,nroll,HP-H1 (Hz),HP-H2 (Hz),LP-H1 (Hz),LP-H2 (Hz),Factor,Lowest Usable Freq - H1 (Hz),Lowest Usable Freq - H2 (H2),Lowest Usable Freq - Ave. Component (Hz),PGA (g),PGV (cm/sec),PGD (cm),T0.010S,T0.020S,T0.022S,T0.025S,T0.029S,T0.030S,T0.032S,T0.035S,T0.036S,T0.040S,T0.042S,T0.044S,T0.045S,T0.046S,T0.048S,T0.050S,T0.055S,T0.060S,T0.065S,T0.067S,T0.070S,T0.075S,T0.080S,T0.085S,T0.090S,T0.095S,T0.100S,T0.110S,T0.120S,T0.130S,T0.133S,T0.140S,T0.150S,T0.160S,T0.170S,T0.180S,T0.190S,T0.200S,T0.220S,T0.240S,T0.250S,T0.260S,T0.280S,T0.290S,T0.300S,T0.320S,T0.340S,T0.350S,T0.360S,T0.380S,T0.400S,T0.420S,T0.440S,T0.450S,T0.460S,T0.480S,T0.500S,T0.550S,T0.600S,T0.650S,T0.667S,T0.700S,T0.750S,T0.800S,T0.850S,T0.900S,T0.950S,T1.000S,T1.100S,T1.200S,T1.300S,T1.400S,T1.500S,T1.600S,T1.700S,T1.800S,T1.900S,T2.000S,T2.200S,T2.400S,T2.500S,T2.600S,T2.800S,T3.000S,T3.200S,T3.400S,T3.500S,T3.600S,T3.800S,T4.000S,T4.200S,T4.400S,T4.600S,T4.800S,T5.000S,T5.500S,T6.000S,T6.500S,T7.000S,T7.500S,T8.000S,T8.500S,T9.000S,T9.500S,T10.000S,T11.000S,T12.000S,T13.000S,T14.000S,T15.000S,T20.000S,Ave Strike (deg),TYPE(CRjb = 0),CRjb,"TYPE
765,766,118,Loma Prieta,1989,1018,5,Gilroy Array #2,425,47380,6.93,Mw,0.081,0.036,10,0.1,278612116862977930864623616,128.0,70.0,140,3,10.68,184.55,41.99,84.78,37.0407,-121.8829,17.48,0,0,-999,1,3.85,40.0,18.0,719.8,108.11977445,1.5,72.0798496331,35.1467443897,2.79,0.774885027316,1.0,0,9,0,San Andreas-Santa Cruz,17.0,29.77,34.52,10.38,-999.0,27.4,11.07,-7.75,nu,-48.29,0.5,25.42,-999.0,0.81,16.18,-999.0,19.98,-999,3.3251,-999,24.71,-0.1839,0.1876,-999,-999,-999,-7.7505117,I,Q,D,A,D,D,D,270.84,-999.0,0,0.1,D,"Qal, deep (incl LA)",-999,CDMG,36.982,-121.556,0,GROUND LEVEL,0.18,-999,-999,Holocene,Coarse,Alluvium,198.0,220.0,799.5,198.0,220.0,799.5,-999.0, SC,2.4,4.94641,10.506,0.4852,28.9154,0.620315,LOMAP\G02000.AT2,LOMAP\G02090.AT2,LOMAP\G02-UP.AT2,0,90,A,-999,PEA,A,1,2.5,0.06,0.06,40.0,31.0,1.25,0.075,0.075,0.075,0.35685,38.096,14.38,0.3569093,0.3603004,0.3665387,0.3628114,0.3639814,0.376838,0.4139964,0.378574,0.40656,0.5235485,0.5238161,0.4611153,0.4757175,0.4217065,0.5943118,0.5298083,0.5075007,0.5368137,0.7221574,1.105484,0.5697627,0.7052038,0.6922732,0.5626098,0.8190922,0.8317394,0.8060433,0.9000428,0.8816614,1.176371,1.157288,1.382812,1.126139,1.170887,1.424905,1.347962,1.491639,1.303476,1.194059,1.385168,1.018579,0.9868259,1.201629,1.444868,1.534537,1.757069,1.535787,1.511456,1.876286,2.202846,1.91295,1.579446,1.276353,1.157717,1.094167,1.218632,1.205973,0.8527637,0.8582191,0.9403768,0.9633988,1.027151,0.9505084,0.6089169,0.4840786,0.388046,0.447669,0.4716736,0.5212981,0.6168414,0.7501639,0.8667445,0.7903182,0.6188153,0.4520449,0.3399989,0.28817,0.2383005,0.1677446,0.1317647,0.1202005,0.1095718,0.1010452,0.08738251,0.07343756,0.06436504,0.06060104,0.05726726,0.04754815,0.042812,0.04011549,0.03435339,0.03013178,0.02801577,0.02651411,0.02227945,0.01994793,0.01736361,0.014969,0.01299898,0.01239575,0.01153059,0.00968417,0.008347052,0.007463606,0.00610621,0.00492173,0.004050663,0.003385405,0.002836384,0.001440747,128.0,C1,0,C1,0.0,C1,0.0,C1,0.0,C1,0.0,C1,0.0,46.907282,0.7868,0.3059,-0.0529,0.5,50,-999.0,-999.0,-999,-999,0,-999,?,1,1.729,26.907282
766,767,118,Loma Prieta,1989,1018,5,Gilroy Array #3,426,47381,6.93,Mw,0.081,0.036,10,0.1,278612116862977930864623616,128.0,70.0,140,3,10.68,184.55,41.99,84.78,37.0407,-121.8829,17.48,0,0,-999,1,3.85,40.0,18.0,719.8,108.11977445,1.5,72.0798496331,35.1467443897,2.79,0.774885027316,1.0,0,9,0,San Andreas-Santa Cruz,17.0,31.4,35.94,12.23,-999.0,29.18,12.82,-9.29,nu,-49.4,0.5,27.13,-999.0,0.81,19.32,-999.0,19.98,-999,3.1795,-999,24.71,-0.185,0.2168,-999,-999,-999,-9.2871812,I,H,D,A,D,D,D,349.85,-999.0,0,0.1,D,"Qal, deep (incl LA)",-999,CDMG,36.987,-121.536,0,GROUND LEVEL,1.1,-999,-999,Holocene,Fine,Alluvial Fan,498.9,550.2,799.6,498.9,550.2,799.6,-999.0, SC,2.4,1.09285,12.273,2.1961,28.8488,2.31798,LOMAP\G03000.AT2,LOMAP\G03090.AT2,LOMAP\G03-UP.AT2,0,90,A,-999,PEA,A,1,2.5,0.1,0.07,33.0,40.0,1.25,0.125,0.0875,0.125,0.49823,43.521,17.791,0.498343,0.5180387,0.5218262,0.5269057,0.5646405,0.6121211,0.670691,0.6838974,0.7237914,0.6013482,0.7273424,1.090107,0.9597709,0.8879361,0.8559824,0.7101338,1.165055,1.055914,0.733771,1.057749,1.08096,0.9958608,1.257692,1.240202,1.01157,1.208266,1.251462,1.585205,2.703256,2.798195,2.353402,2.147049,1.994045,2.00842,2.028541,1.938334,2.900486,3.246243,2.661711,2.13227,1.858597,1.956401,1.961265,1.826801,1.840394,1.557367,1.289505,1.186814,1.166736,1.087542,1.214059,1.424955,1.604013,1.558909,1.497616,1.616802,1.418621,1.251099,1.160493,0.8404341,0.8245884,0.8132969,0.8808296,0.6451685,0.5411422,0.4905458,0.4732573,0.4939623,0.483942,0.5965624,0.3746747,0.3386476,0.472401,0.455525,0.3611977,0.3392082,0.3427637,0.3451291,0.2820621,0.2132395,0.1949368,0.1728417,0.1657037,0.1407514,0.1185632,0.1019563,0.09070342,0.08380369,0.07642882,0.06877148,0.05710688,0.05088587,0.04555095,0.04010482,0.03919033,0.03412618,0.02945196,0.02442197,0.02174043,0.01919062,0.01732304,0.0150098,0.01290999,0.01106041,0.009509299,0.007176619,0.005630654,0.004667687,0.003897275,0.003425157,0.001810799,128.0,C1,0,C1,0.0,C1,0.0,C1,0.0,C1,0.0,C1,0.0,47.96021,0.8536,0.303,-0.0524,0.5,50,-999.0,-999.0,-999,-999,0,-999,?,1,2.639,27.96021
767,768,118,Loma Prieta,1989,1018,5,Gilroy Array #4,450,57382,6.93,Mw,0.081,0.036,10,0.1,278612116862977930864623616,128.0,70.0,140,3,10.68,184.55,41.99,84.78,37.0407,-121.8829,17.48,0,0,-999,1,3.85,40.0,18.0,719.8,108.11977445,1.5,72.0798496331,35.1467443897,2.79,0.774885027316,1.0,0,9,0,San Andreas-Santa Cruz,17.0,32.37,36.79,13.81,-999.0,30.43,14.34,-11.28,nu,-54.74,0.5,30.26,-999.0,0.81,23.02,-999.0,19.98,-999,2.9281,-999,24.71,-0.1661,0.2569,-999,-999,-999,-11.280933,A,H,D,A,D,D,D,221.78,-999.0,0,0.1,D,"Qal, deep (incl LA)",-999,CDMG,37.001,-121.522,1,GROUND LEVEL,1.4,-999,-999,Holocene,Aggregate,Alluvial Fan,520.7,520.7,792.1,520.7,520.7,792.1,-999.0, SC,2.4,0.759013,13.951,3.162,28.7929,3.29574,LOMAP\G04000.AT2,LOMAP\G04090.AT2,LOMAP\G04-UP.AT2,0,90,A,-999,PEA,A,1,2.5,0.09,0.0,28.0,30.0,1.25,0.1125,0.0,0.1125,0.31057,38.386,14.406,0.3107902,0.3120177,0.3126474,0.3137608,0.3161897,0.3202989,0.3168922,0.3198322,0.3172345,0.3331769,0.3313195,0.3314435,0.3817314,0.3610745,0.3254845,0.3334937,0.343713,0.3634385,0.3802016,0.3673751,0.3588041,0.4170678,0.4330936,0.4118424,0.4723876,0.5396408,0.6204376,0.6066582,0.8894377,0.7626623,0.8763042,0.95441,0.6807113,0.9165136,1.196723,0.9820565,1.229923,1.052759,0.7392311,1.1762,0.9325693,1.0251,0.9535875,1.273057,1.74592,1.450616,1.089443,1.314174,1.18047,1.470262,1.698279,1.675439,1.438863,1.471161,1.562261,1.610335,1.484663,1.546154,0.9477882,0.6672112,0.5556972,0.6118884,0.5448023,0.7988165,0.6480372,0.5672911,0.4560615,0.4800903,0.6735324,0.6446259,0.6582382,0.6972348,0.5934173,0.4002856,0.3369146,0.231553,0.1960309,0.1885302,0.1639504,0.1511274,0.1394519,0.1015739,0.1111353,0.1329179,0.1485323,0.1439858,0.1262333,0.11471,0.09880905,0.08073512,0.06499329,0.05466246,0.04618071,0.04068111,0.03658231,0.02888608,0.02251442,0.01818345,0.01615146,0.0145942,0.01303877,0.0114255,0.009989348,0.008856109,0.007791273,0.006526972,0.005436273,0.004646734,0.003852592,0.003534835,0.001772269,128.0,C1,0,C1,0.0,C1,0.0,C1,0.0,C1,0.0,C1,0.0,47.974185,0.9161,0.2949,-0.0508,0.5,50,-999.0,-999.0,-999,-999,0,-999,?,0,-999.0,27.974185
768,769,118,Loma Prieta,1989,1018,5,Gilroy Array #6,451,57383,6.93,Mw,0.081,0.036,10,0.1,278612116862977930864623616,128.0,70.0,140,3,10.68,184.55,41.99,84.78,37.0407,-121.8829,17.48,0,0,-999,1,3.85,40.0,18.0,719.8,108.11977445,1.5,72.0798496331,35.1467443897,2.79,0.774885027316,1.0,0,9,0,San Andreas-Santa Cruz,17.0,35.47,39.55,17.92,-999.0,33.98,18.33,-15.56,fw,-60.21,0.5,35.48,0.41,0.81,29.67,0.7,19.98,-999,2.555,-999,24.71,-0.1453,0.3322,-999,-999,-999,-15.555645,I,K,A,C,C,S,C,663.31,-999.0,1,0.3,C,Kss,-999,CDMG,37.026,-121.484,0,GROUND LEVEL,0.5,-999,-999,Tertiary,-999,-999,318.0,739.5,1589.9,318.0,739.5,1589.9,0.003,-999,-999.0,-999.0,-999.0,-999.0,-999.0,-999.0,LOMAP\G06000.AT2,LOMAP\G06090.AT2,LOMAP\G06-UP.AT2,0,90,A,-999,PEA,A,1,2.5,0.13,0.08,38.0,31.0,1.25,0.1625,0.1,0.1625,0.16374,13.894,4.7236,0.1642428,0.1664511,0.1669846,0.1689937,0.1740444,0.1756953,0.1750711,0.2102664,0.2051961,0.2267871,0.2209394,0.2568354,0.2236859,0.2325251,0.2420227,0.219751,0.2341999,0.2694034,0.3440068,0.343302,0.402784,0.3278152,0.3509244,0.3020947,0.3391213,0.3833575,0.4782156,0.5077373,0.6042331,0.7718666,0.8822689,0.7490712,0.9307956,0.8699011,0.7338091,0.7827631,0.9959105,0.7942899,0.9529251,1.493829,1.648865,1.287775,0.7343866,0.7677523,0.5668153,0.7822548,0.6305566,0.5319158,0.5153379,0.666214,0.6236789,0.5485343,0.4249697,0.4036511,0.5629761,0.4766343,0.3367046,0.4331778,0.5354179,0.4943574,0.3747483,0.3000604,0.2978368,0.2105217,0.2015687,0.2474036,0.3565767,0.3251073,0.2876058,0.2331443,0.2194561,0.264502,0.2204899,0.1720114,0.1504242,0.1403246,0.1634282,0.1557309,0.07181188,0.06268455,0.07799789,0.08793397,0.04840905,0.03962855,0.04113225,0.04627285,0.04885576,0.04836801,0.04634925,0.03594038,0.03305968,0.0300938,0.0274765,0.025724,0.0265668,0.02319423,0.01592303,0.01131641,0.008606482,0.006941779,0.005810947,0.00473961,0.003937684,0.00349311,0.003007091,0.002100831,0.001754128,0.001453989,0.001268382,0.001148339,0.0005813002,128.0,C1,0,C1,0.0,C1,0.0,C1,0.0,C1,0.0,C1,0.0,48.905109,1.086,0.2794,-0.0479,0.5,50,-999.0,-999.0,-999,-999,0,-999,?,0,-999.0,28.905109
769,770,118,Loma Prieta,1989,1018,5,Gilroy Array #7,452,57425,6.93,Mw,0.081,0.036,10,0.1,278612116862977930864623616,128.0,70.0,140,3,10.68,184.55,41.99,84.78,37.0407,-121.8829,17.48,0,0,-999,1,3.85,40.0,18.0,719.8,108.11977445,1.5,72.0798496331,35.1467443897,2.79,0.774885027316,1.0,0,9,0,San Andreas-Santa Cruz,17.0,39.88,43.55,22.35,-999.0,38.47,22.68,-18.92,nu,-57.8,0.5,36.9,-999.0,0.81,33.87,-999.0,19.98,-999,2.4656,-999,24.71,-0.1599,0.3674,-999,-999,-999,-18.917526,I,H,B,B,C,S,D,333.85,-999.0,0,0.1,C,"Qal, thin",-999,CDMG,37.033,-121.434,0,GROUND LEVEL,0.54,-999,-999,Holocene,-999,Alluvial Fan,222.0,318.2,917.7,222.0,318.2,917.7,0.017,-999,-999.0,-999.0,-999.0,-999.0,-999.0,-999.0,LOMAP\GMR000.AT2,LOMAP\GMR090.AT2,LOMAP\GMR-UP.AT2,0,90,A,-999,PEA,A,1,2.5,0.13,0.1,40.0,35.0,1.25,0.1625,0.125,0.1625,0.31222,16.454,3.1193,0.3129998,0.3218178,0.3218533,0.3331694,0.3229142,0.3363252,0.3386139,0.3903522,0.4226223,0.4382403,0.4053507,0.3901112,0.4578867,0.4463836,0.3927794,0.4806032,0.4402609,0.6141698,0.5841115,0.7166954,0.5214568,0.5345197,0.491585,0.7197633,0.548846,0.5641766,0.6778089,0.5934277,1.160605,2.183034,2.104749,1.807665,1.643994,1.267055,1.221547,1.301305,0.9274892,1.23869,0.8201424,1.012938,0.8359454,0.8932617,1.302366,1.096848,1.126187,0.8053483,0.8963344,0.9624616,1.166037,1.457474,1.408075,1.742066,1.708497,1.762368,2.094993,1.927392,1.002478,0.6314914,0.7269071,0.6175538,0.607228,0.5548549,0.453361,0.3063817,0.2072154,0.1796029,0.1625983,0.148827,0.1132954,0.107406,0.09064703,0.06361858,0.06805249,0.07521396,0.06888782,0.05564654,0.05603324,0.05466726,0.05232574,0.04787043,0.04119911,0.03632692,0.03083575,0.02902972,0.01995498,0.01691961,0.01928686,0.01867603,0.01670208,0.01679746,0.01772014,0.01849939,0.0193079,0.02004967,0.02062894,0.02059708,0.01787428,0.01421275,0.01123124,0.007011732,0.004739493,0.003639995,0.003071184,0.002603747,0.002414224,0.001799089,0.001575473,0.001215533,0.00103441,0.0009055838,0.0004248994,128.0,C1,0,C1,0.0,C1,0.0,C1,0.0,C1,0.0,C1,0.0,51.910799,1.2001,0.2758,-0.0473,0.5,50,-999.0,-999.0,-999,-999,0,-999,?,0,-999.0,31.910799
770,771,118,Loma Prieta,1989,1018,5,Golden Gate Bridge,194,1678,6.93,Mw,0.081,0.036,10,0.1,278612116862977930864623616,128.0,70.0,140,3,10.68,184.55,41.99,84.78,37.0407,-121.8829,17.48,0,0,-999,1,3.85,40.0,18.0,719.8,108.11977445,1.5,72.0798496331,35.1467443897,2.79,0.774885027316,1.0,0,9,0,San Andreas-Santa Cruz,17.0,100.19,101.7,79.71,-999.0,98.7,79.81,-30.28,nu,-157.68,0.5,20.64,-999.0,0.81,43.66,-999.0,20.02,-999,2.7405,-999,24.74,0.7932,-0.0567,-999,-999,-999,-30.278847,B,F,A,C,C,S,C,584.17,-999.0,2a_3a_4b_4c,0.3,C,serpentine,-999,USGS,37.808,-122.476,2,GROUND LEVEL,-999.0,-999,-999,Mesozoic,-999,-999,88.0,256.6,835.8,88.0,256.6,835.8,-999.0,-999,-999.0,-999.0,-999.0,-999.0,-999.0,-999.0,LOMAP\GGB270.AT2,LOMAP\GGB360.AT2,LOMAP\GGB-UP.AT2,270,0,A,-999,PEA,A,1,2.5,0.1,0.13,22.0,27.0,1.25,0.125,0.1625,0.1625,0.16475,30.709,9.3382,0.1648497,0.1652975,0.1653469,0.1654708,0.1657989,0.1658656,0.1670284,0.1739991,0.1694796,0.1714317,0.1733616,0.1737242,0.1747355,0.1718403,0.172212,0.1719874,0.1695818,0.1765006,0.1753614,0.1778,0.1837209,0.2109585,0.1887292,0.1941816,0.1887631,0.2092424,0.1863889,0.2386604,0.2354978,0.2381026,0.2163395,0.2408885,0.2848153,0.2690986,0.2742222,0.288302,0.3819484,0.3393915,0.6201662,0.3624177,0.5218122,0.364751,0.5547922,0.4449763,0.4507892,0.430141,0.4873599,0.3845865,0.3748583,0.3681097,0.5806417,0.7666118,0.7526582,0.747418,0.7629848,0.8939303,0.8291108,0.4592077,0.6989634,0.58288,0.7356204,0.8193747,0.7701585,0.6615654,0.7379419,0.7195432,0.7450866,0.6544338,0.4702991,0.523504,0.5192382,0.4794515,0.3997999,0.3237869,0.2527854,0.1914373,0.1594362,0.1481939,0.1147256,0.0864686,0.07879237,0.074576,0.07261487,0.07520344,0.06741525,0.0576011,0.05429477,0.05145787,0.046687,0.04157467,0.03656407,0.03304315,0.02921012,0.02622462,0.02356185,0.01977629,0.01794552,0.01771136,0.01805111,0.0172134,0.0147591,0.01194279,0.008930578,0.007325615,0.005851625,0.003894221,0.003216607,0.002704241,0.002291865,0.001960397,0.001031651,128.0,C1,0,C1,0.0,C1,0.0,C1,0.0,C1,0.0,C1,0.0,-73.739326,2.383,0.5411,0.1622,0.5,50,-999.0,-999.0,-999,-999,0,-999,?,0,-999.0,-93.739326
771,772,118,Loma Prieta,1989,1018,5,Halls Valley,448,57191,6.93,Mw,0.081,0.036,10,0.1,278612116862977930864623616,128.0,70.0,140,3,10.68,184.55,41.99,84.78,37.0407,-121.8829,17.48,0,0,-999,1,3.85,40.0,18.0,719.8,108.11977445,1.5,72.0798496331,35.1467443897,2.79,0.774885027316,1.0,0,9,0,San Andreas-Santa Cruz,17.0,36.31,40.3,30.25,-999.0,37.74,30.49,-30.25,fw,-90.0,0.22,76.3,0.05,0.81,43.64,0.58,8.6,-999,1.4947,-999,16.88,0.1005,0.3633,-999,-999,-999,-30.248204,I,H,C,B,C,S,D,281.61,-999.0,0,0.1,C,"Qal, thin",-999,CDMG,37.338,-121.714,0,GROUND LEVEL,0.016,-999,-999,Holocene,-999,-999,342.1,766.0,3465.8,342.1,766.0,3465.8,0.04,-999,-999.0,-999.0,-999.0,-999.0,-999.0,-999.0,LOMAP\HVR000.AT2,LOMAP\HVR090.AT2,LOMAP\HVR-UP.AT2,0,90,A,-999,PEA,A,1,2.5,0.16,0.16,22.0,22.0,1.25,0.2,0.2,0.2,0.11595,12.857,4.4587,0.1159888,0.1164334,0.1165102,0.116494,0.1173669,0.1172885,0.1168715,0.116936,0.1212825,0.1258435,0.118832,0.1182485,0.1216205,0.1230448,0.1306423,0.1259758,0.1400137,0.1615343,0.1706531,0.1631749,0.1880306,0.1990824,0.210385,0.240822,0.2217384,0.2163813,0.2648067,0.2916163,0.3147138,0.4143412,0.3109402,0.2840631,0.3155847,0.3956673,0.3186883,0.3247449,0.3975768,0.3386586,0.2388628,0.3634238,0.3496737,0.469113,0.6139111,0.3998974,0.4358201,0.4331196,0.650415,0.6692865,0.6620252,0.6235558,0.5423138,0.5736708,0.6261084,0.6604865,0.5742131,0.5458239,0.5453938,0.6387628,0.8135644,0.5885471,0.4374764,0.4387923,0.598779,0.7956948,0.5121107,0.3961234,0.3487222,0.2215035,0.2244144,0.279385,0.2551907,0.2002408,0.09311833,0.1249195,0.1547064,0.1295692,0.09964462,0.08148757,0.07486431,0.1052453,0.09404416,0.07705959,0.05729612,0.04076923,0.03522075,0.0359052,0.03962969,0.04333693,0.03655012,0.03798322,0.03220742,0.02946572,0.02582708,0.02196255,0.01987902,0.0162859,0.01280256,0.01325756,0.01196356,0.009744331,0.007326536,0.005582195,0.004180994,0.003419961,0.00289033,0.002190813,0.001697177,0.001301627,0.001109932,0.0009523584,0.0004763582,128.0,C1,0,C1,0.0,C1,0.0,C1,0.0,C1,0.0,C1,0.0,11.4179,0.4245,0.11,0.0382,0.5,50,-999.0,-999.0,-999,-999,0,-999,?,0,-999.0,-8.5821
