,Record Sequence Number,EQID,Earthquake Name,YEAR,MODY,HRMN,Station Name,Station Sequence Number,Station ID  No.,Earthquake Magnitude,Magnitude Type,Magnitude Uncertainty: Kagan Model,Magnitude Uncertainty: Statistical,Magnitude Sample Size,Magnitude Uncertainty: Study Class,Mo (dyne.cm),Strike (deg),Dip (deg),Rake Angle (deg),Mechanism Based on Rake Angle,P-plunge (deg),P-trend (deg),T-plunge (deg),T-trend (deg),Hypocenter Latitude (deg),Hypocenter Longitude (deg),Hypocenter Depth (km),Coseismic Surface Rupture: 1=Yes; 0=No;    -999=Unknown,Coseismic Surface Rupture (Including Inferred),Basis for Inference of Surface Rupture,Finite Rupture Model: 1=Yes;  0=No,Depth to Top Of Fault Rupture Model,Fault Rupture Length for Calculation of Ry (km),Fault Rupture Width (km),Fault Rupture Area (km^2),Avg Fault Disp (cm),Rise Time (s),Avg Slip Velocity (cm/s),Static Stress Drop (bars),Preferred Rupture Velocity (km/s),Average Vr/Vs,Percent of Moment Release in the Top 5 Km of Crust,Existence of Shallow Asperity: 0=No; 1=Yes,Depth to Top of Shallowest Asperity (km),Earthquake in Extensional Regime: 1=Yes; 0=No,Fault Name,Slip Rate (mm/Yr),EpiD (km),HypD (km),Joyner-Boore Dist. (km),Campbell R Dist. (km),RmsD (km),ClstD (km),Rx,FW/HW Indicator,Source to Site Azimuth (deg),X,Theta.D (deg),SSGA (Strike Slip),Y,Phi.D (deg),SSGA (Dip Slip),s,d,ctildepr,Unused Column,D,Rfn.Hyp,Rfp.Hyp,Unused Column.1,Unused Column.2,Unused Column.3,T,GMX's C1,GMX's C2,GMX's C3,Campbell's GEOCODE,Bray and Rodriguez-Marek SGS,Depth,Preferred NEHRP Based on Vs30,Vs30 (m/s) selected for analysis,Column Not Used,Measured/Inferred Class,Sigma of Vs30 (in natural log Units),NEHRP Classification from CGS's Site Condition Map,Geological Unit,Geology,Owner,Station Latitude,Station Longitude,STORIES,INSTLOC,Depth to Basement Rock,Site Visited,NGA Type,Age,Grain Size,Depositional History,Northern CA/Southern CA - H11 Z1 (m),Northern CA/Southern CA - H11 Z1.5 (m),Northern CA/Southern CA - H11 Z2.5 (m),Northern CA/Southern CA - S4 Z1 (m),Northern CA/Southern CA - S4 Z1.5 (m),Northern CA/Southern CA - S4 Z2.5 (m),Depth to Franciscan Rock (km),Basin,h (m),hnorm (m),Rsbe (m),Rcebe (m),Rebe (m),Rsbe1 (m),File Name (Horizontal 1),File Name (Horizontal 2),File Name (Vertical),H1 azimth (degrees),H2 azimith (degrees),Type of Recording,Instrument Model,PEA Processing Flag,Type of Filter,npass,nroll,HP-H1 (Hz),HP-H2 (Hz),LP-H1 (Hz),LP-H2 (Hz),Factor,Lowest Usable Freq - H1 (Hz),Lowest Usable Freq - H2 (H2),Lowest Usable Freq - Ave. Component (Hz),PGA (g),PGV (cm/sec),PGD (cm),T0.010S,T0.020S,T0.022S,T0.025S,T0.029S,T0.030S,T0.032S,T0.035S,T0.036S,T0.040S,T0.042S,T0.044S,T0.045S,T0.046S,T0.048S,T0.050S,T0.055S,T0.060S,T0.065S,T0.067S,T0.070S,T0.075S,T0.080S,T0.085S,T0.090S,T0.095S,T0.100S,T0.110S,T0.120S,T0.130S,T0.133S,T0.140S,T0.150S,T0.160S,T0.170S,T0.180S,T0.190S,T0.200S,T0.220S,T0.240S,T0.250S,T0.260S,T0.280S,T0.290S,T0.300S,T0.320S,T0.340S,T0.350S,T0.360S,T0.380S,T0.400S,T0.420S,T0.440S,T0.450S,T0.460S,T0.480S,T0.500S,T0.550S,T0.600S,T0.650S,T0.667S,T0.700S,T0.750S,T0.800S,T0.850S,T0.900S,T0.950S,T1.000S,T1.100S,T1.200S,T1.300S,T1.400S,T1.500S,T1.600S,T1.700S,T1.800S,T1.900S,T2.000S,T2.200S,T2.400S,T2.500S,T2.600S,T2.800S,T3.000S,T3.200S,T3.400S,T3.500S,T3.600S,T3.800S,T4.000S,T4.200S,T4.400S,T4.600S,T4.800S,T5.000S,T5.500S,T6.000S,T6.500S,T7.000S,T7.500S,T8.000S,T8.500S,T9.000S,T9.500S,T10.000S,T11.000S,T12.000S,T13.000S,T14.000S,T15.000S,T20.000S,Ave Strike (deg),TYPE(CRjb = 0),CRjb,"TYPE
779,780,118,Loma Prieta,1989,1018,5,Larkspur Ferry Terminal (FF),1160,1590,6.93,Mw,0.081,0.036,10,0.1,278612116862977930864623616,128.0,70.0,140,3,10.68,184.55,41.99,84.78,37.0407,-121.8829,17.48,0,0,-999,1,3.85,40.0,18.0,719.8,108.11977445,1.5,72.0798496331,35.1467443897,2.79,0.774885027316,1.0,0,9,0,San Andreas-Santa Cruz,17.0,114.87,116.19,94.56,-999.0,113.46,94.64,-40.73,nu,-154.49,0.5,23.48,-999.0,0.81,49.09,-999.0,20.02,-999,2.6402,-999,24.74,0.7355,-0.1105,-999,-999,-999,-40.725564,I,H,E,F,E,D,E,169.72,-999.0,0,0.05,E,-999,-999,USGS,37.946,-122.508,0,GROUND LEVEL,-999.0,-999,-999,Holocene,Fine,Marine,40.0,278.3,849.6,40.0,278.3,849.6,0.025,-999,-999.0,-999.0,-999.0,-999.0,-999.0,-999.0,LOMAP\LKS270.AT2,LOMAP\LKS360.AT2,LOMAP\LKS-UP.AT2,270,0,-999,SMA-1,PEA,A,1,2.5,0.24,0.15,20.0,20.0,1.2,0.288,0.18,0.288,0.12169,18.452,4.0897,0.1217358,0.1218482,0.1218937,0.122127,0.1233097,0.1221028,0.1222832,0.1231579,0.1227253,0.1248252,0.1248417,0.1250131,0.1261018,0.1254026,0.1273223,0.13466,0.1327829,0.1264103,0.1323548,0.1470385,0.1318352,0.1349195,0.155614,0.1580129,0.1575336,0.1773988,0.1764773,0.1730546,0.1785941,0.2623519,0.2432855,0.2362562,0.2566311,0.2624034,0.3353841,0.2594865,0.2518173,0.2025938,0.2674053,0.3521873,0.3708193,0.4241835,0.3001744,0.3830772,0.4357321,0.3573448,0.2335694,0.2950478,0.3031427,0.3203762,0.2491264,0.2297487,0.2531161,0.2573629,0.2667416,0.3494171,0.2910343,0.3761177,0.5087932,0.7387148,0.702673,1.119591,1.239876,0.5711456,0.6221375,0.8949423,1.148194,0.7510841,0.592482,0.5785902,0.3988166,0.2636534,0.2129135,0.1644662,0.1272306,0.1052321,0.1234009,0.1160471,0.07148016,0.05927193,0.05454053,0.05195955,0.04486411,0.03896736,0.03169885,0.02364436,0.02002051,0.0180179,0.01760851,0.01739242,0.01876899,0.01853528,0.01588685,0.01404568,0.0122694,0.008052337,0.005980001,0.004328903,0.003905177,0.003370142,0.002801828,0.002377491,0.00208818,0.001910799,0.001752546,0.001470875,0.00123376,0.001042223,0.0008893118,0.0007662509,0.0004159138,128.0,C1,0,C1,0.0,C1,0.0,C1,0.0,C1,0.0,C1,0.0,-85.340763,2.2289,0.5305,0.16,0.5,50,-999.0,-999.0,-999,-999,0,-999,?,0,-999.0,-105.340763
780,781,118,Loma Prieta,1989,1018,5,Lower Crystal Springs Dam dwnst,1486,58233,6.93,Mw,0.081,0.036,10,0.1,278612116862977930864623616,128.0,70.0,140,3,10.68,184.55,41.99,84.78,37.0407,-121.8829,17.48,0,0,-999,1,3.85,40.0,18.0,719.8,108.11977445,1.5,72.0798496331,35.1467443897,2.79,0.774885027316,1.0,0,9,0,San Andreas-Santa Cruz,17.0,68.88,71.06,48.24,-999.0,67.06,48.39,-11.9,nu,-165.72,0.5,14.23,-999.0,0.81,24.08,-999.0,20.02,-999,2.9989,-999,24.74,0.8908,0.0869,-999,-999,-999,-11.895377,I,F,A,D,B,S,C,586.08,-999.0,2a_3a_4b_4c,0.4,B,KJf,-999,CDMG,37.529,-122.361,0,DOWNSTREAM,0.0,-999,-999,-999,-999,-999,0.0,301.2,852.3,0.0,301.2,852.3,-999.0,-999,-999.0,-999.0,-999.0,-999.0,-999.0,-999.0,LOMAP\XSP000.AT2,LOMAP\XSP090.AT2,LOMAP\XSP-UP.AT2,0,90,A,-999,PEA,A,1,2.5,0.1,0.06,23.0,20.0,1.25,0.125,0.075,0.125,0.074154,9.4798,7.4043,0.07417652,0.07455455,0.07450064,0.07514636,0.07610806,0.07572098,0.0770428,0.0764688,0.07711235,0.08165149,0.08278753,0.08323684,0.0915189,0.08771896,0.08582955,0.09046782,0.09541562,0.1145889,0.1183057,0.1293905,0.1121367,0.1206913,0.1578059,0.1717497,0.1583361,0.1412479,0.2076063,0.2945896,0.3302183,0.277356,0.2654289,0.2967479,0.3182722,0.3752882,0.3509193,0.3851811,0.3799362,0.3253623,0.420843,0.601173,0.5845915,0.5012584,0.6284507,0.6831124,0.5950579,0.3996718,0.3586551,0.3282736,0.2393325,0.2387663,0.2228234,0.1898315,0.1988904,0.2177884,0.2064127,0.2205319,0.1941283,0.2197002,0.154489,0.1429062,0.1449326,0.2175817,0.2168882,0.1083896,0.1078933,0.1171428,0.1171981,0.1149438,0.06570859,0.06352984,0.08385035,0.06971779,0.07511263,0.1004455,0.08860738,0.09314261,0.1154825,0.09066052,0.06011159,0.05482524,0.05200948,0.05272632,0.07410546,0.09721918,0.06683648,0.05862145,0.05031987,0.0451649,0.03795088,0.03264441,0.02766808,0.02384613,0.02063029,0.02405455,0.02603992,0.02479111,0.020462,0.01594217,0.0151897,0.01575979,0.01508935,0.01439806,0.01287441,0.01100632,0.009554815,0.007609788,0.00577549,0.004332002,0.00339328,0.002737425,0.001181548,128.0,C1,0,C1,0.0,C1,0.0,C1,0.0,C1,0.0,C1,0.0,-46.747325,2.682,0.5595,0.1671,0.5,50,-999.0,-999.0,-999,-999,0,-999,?,0,-999.0,-66.747325
781,782,118,Loma Prieta,1989,1018,5,Monterey City Hall,423,47377,6.93,Mw,0.081,0.036,10,0.1,278612116862977930864623616,128.0,70.0,140,3,10.68,184.55,41.99,84.78,37.0407,-121.8829,17.48,0,0,-999,1,3.85,40.0,18.0,719.8,108.11977445,1.5,72.0798496331,35.1467443897,2.79,0.774885027316,1.0,0,9,0,San Andreas-Santa Cruz,17.0,49.39,52.39,39.69,-999.0,52.51,44.35,44.71,nu,78.1,0.5,53.46,-999.0,0.16,86.23,-999.0,19.98,-999,1.1745,-999,20.18,-0.3888,-0.5112,-999,-999,-999,44.713708,A,G,A,D,C,S,C,638.63,-999.0,1,0.3,B,Kgr,-999,CDMG,36.597,-121.897,1,BASEMENT,0.0,-999,-999,Mesozoic,-999,-999,219.8,322.4,718.2,219.8,322.4,718.2,0.003,-999,-999.0,-999.0,-999.0,-999.0,-999.0,-999.0,LOMAP\MCH000.AT2,LOMAP\MCH090.AT2,LOMAP\MCH-UP.AT2,0,90,A,-999,PEA,A,1,2.5,0.1,0.08,28.0,22.0,1.25,0.125,0.1,0.125,0.073336,4.7963,3.3986,0.07339757,0.07401031,0.07476701,0.07535449,0.07600764,0.07681756,0.07963857,0.07519814,0.08055548,0.07670212,0.08090471,0.08767927,0.08733431,0.08648958,0.08877761,0.09252424,0.1090134,0.119053,0.1051037,0.1336971,0.1515556,0.1454073,0.148803,0.1917607,0.1884047,0.2907253,0.2704843,0.2698196,0.3414312,0.3440891,0.4047055,0.4836259,0.6088013,0.5200183,0.4386252,0.6333977,0.3597305,0.5281613,0.2847967,0.3123638,0.3020116,0.2873957,0.3393738,0.3293707,0.3898813,0.3171688,0.3182707,0.2053688,0.2743405,0.3741761,0.3601326,0.2164732,0.2523964,0.2395533,0.1987983,0.1717285,0.2038487,0.2035499,0.2045539,0.14136,0.1220552,0.1550645,0.1393063,0.09973076,0.09372126,0.09428044,0.05518178,0.07812114,0.1019028,0.09194267,0.05772868,0.03871433,0.03799771,0.02556628,0.02327869,0.02157135,0.02367945,0.029901,0.02924597,0.03447615,0.02957929,0.02319864,0.01300086,0.01131113,0.01567576,0.01723784,0.01654519,0.01621927,0.01723362,0.01557204,0.01299988,0.01187676,0.01007994,0.008177748,0.007465489,0.007220405,0.007185337,0.007130118,0.007143945,0.008109831,0.007500247,0.006615972,0.005853696,0.005009832,0.004134793,0.003034241,0.002254937,0.001583579,0.001249596,0.001062872,0.0005140175,128.0,C1,0,C1,0.0,C1,0.0,C1,0.0,C1,0.0,C1,0.0,49.422633,0.4365,0.0785,-0.1352,0.5,50,-999.0,-999.0,-999,-999,0,-999,?,0,-999.0,29.422633
782,783,118,Loma Prieta,1989,1018,5,Oakland - Outer Harbor Wharf,1487,58472,6.93,Mw,0.081,0.036,10,0.1,278612116862977930864623616,128.0,70.0,140,3,10.68,184.55,41.99,84.78,37.0407,-121.8829,17.48,0,0,-999,1,3.85,40.0,18.0,719.8,108.11977445,1.5,72.0798496331,35.1467443897,2.79,0.774885027316,1.0,0,9,0,San Andreas-Santa Cruz,17.0,94.0,95.62,74.16,-999.0,92.5,74.26,-39.43,nu,-147.88,0.5,28.22,-999.0,0.81,48.54,-999.0,20.02,-999,2.5871,-999,24.74,0.6767,-0.1398,-999,-999,-999,-39.425894,I,Q,D,F,D,D,D,248.62,-999.0,0,0.1,E,af/qi,-999,CDMG,37.813,-122.314,0,GROUND LEVEL,0.17,-999,-999,Holocene,Coarse,Marine,168.4,270.9,842.0,168.4,270.9,842.0,-999.0,-999,-999.0,-999.0,-999.0,-999.0,-999.0,-999.0,LOMAP\OHW000.AT2,LOMAP\OHW270.AT2,LOMAP\OHW-UP.AT2,0,270,A,-999,PEA,A,1,2.5,0.08,0.08,20.0,20.0,1.25,0.1,0.1,0.1,0.2829,41.663,9.8285,0.2829635,0.2835034,0.2834575,0.2846611,0.2839337,0.2827596,0.2866802,0.2925937,0.2932935,0.2971504,0.3024016,0.2955426,0.2924004,0.2961117,0.3090687,0.3025526,0.300103,0.3373325,0.3506413,0.3558589,0.3924075,0.3556997,0.425231,0.4752599,0.3733481,0.5029922,0.4048064,0.544111,0.5925159,0.6278409,0.6338518,0.5551638,0.5779675,0.6731934,0.5318392,0.7413927,0.7428309,0.9942593,0.5923552,0.7627253,0.8582415,0.7594846,0.7958661,0.6472325,0.9109254,0.8770356,1.121522,1.073089,0.8732783,0.7019567,0.9382139,0.8064649,0.6408598,0.7298372,0.770206,0.7407305,0.7950176,0.8272725,1.275711,1.441096,1.336586,1.314648,1.232605,1.24148,1.046287,0.9656314,0.9689797,0.8621075,0.5658713,0.4836139,0.5846257,0.7021776,0.7129025,0.5805497,0.4227214,0.3525819,0.302276,0.2604943,0.2029039,0.1662619,0.155356,0.1376835,0.112256,0.09133424,0.09904775,0.09413226,0.07964888,0.07040145,0.0577787,0.04688633,0.03871825,0.03440327,0.03340643,0.02876756,0.02838752,0.01809731,0.01680955,0.01766438,0.01736676,0.01620651,0.01332707,0.01101352,0.009187161,0.006954273,0.005574966,0.003844165,0.003279681,0.002677187,0.002120724,0.001644302,0.0009465929,128.0,C1,0,C1,0.0,C1,0.0,C1,0.0,C1,0.0,C1,0.0,-62.808507,2.0707,0.4967,0.1591,0.5,50,-999.0,-999.0,-999,-999,0,-999,?,0,-999.0,-82.808507
783,784,118,Loma Prieta,1989,1018,5,Oakland - Title & Trust,472,58224,6.93,Mw,0.081,0.036,10,0.1,278612116862977930864623616,128.0,70.0,140,3,10.68,184.55,41.99,84.78,37.0407,-121.8829,17.48,0,0,-999,1,3.85,40.0,18.0,719.8,108.11977445,1.5,72.0798496331,35.1467443897,2.79,0.774885027316,1.0,0,9,0,San Andreas-Santa Cruz,17.0,91.68,93.33,72.09,-999.0,90.18,72.2,-41.34,nu,-145.01,0.5,30.39,-999.0,0.81,49.35,-999.0,20.02,-999,2.5269,-999,24.74,0.6366,-0.1535,-999,-999,-999,-41.339682,B,H,D,F,D,D,D,306.3,-999.0,0,0.1,E,Qs,-999,CDMG,37.806,-122.267,2,GROUND LEVEL,0.27,-999,-999,Holocene,Coarse,Aeolian,153.8,278.3,849.5,153.8,278.3,849.5,-999.0,-999,-999.0,-999.0,-999.0,-999.0,-999.0,-999.0,LOMAP\TIB200.AT2,LOMAP\TIB290.AT2,LOMAP\TIB-UP.AT2,200,290,A,-999,PEA,A,1,2.5,0.09,0.09,38.0,44.0,1.25,0.1125,0.1125,0.1125,0.21199,28.232,6.5429,0.2120119,0.2137006,0.2154694,0.2168974,0.2144111,0.2163159,0.2309831,0.2250015,0.216379,0.2391255,0.2438756,0.2409437,0.2471533,0.2476501,0.2161742,0.2533143,0.2501482,0.2312896,0.2485147,0.2417951,0.2743292,0.2763548,0.2568161,0.2640553,0.3356792,0.3148197,0.3690659,0.290199,0.3156154,0.4369459,0.4293559,0.3755755,0.5193321,0.3866279,0.5109587,0.5677629,0.5680706,0.5943223,0.9069208,0.8809204,0.5865247,0.641291,0.720736,0.8955883,0.8440065,1.196413,1.11273,0.8271196,0.6277639,0.5712696,0.4909262,0.6011828,0.7386752,0.903882,0.9870345,0.9052539,1.015848,0.5298527,0.5124373,0.6206051,0.6303532,0.6185079,0.4312439,0.5248899,0.5600172,0.5627571,0.5772945,0.6584487,0.6908196,0.70696,0.6515196,0.5653726,0.5722366,0.4347299,0.2743124,0.1831319,0.1434487,0.1239766,0.09794541,0.08761632,0.08486003,0.08128778,0.06854966,0.05735971,0.06284657,0.07073061,0.06199372,0.05965276,0.04947844,0.04053731,0.03426078,0.02678448,0.02392828,0.02389446,0.02226121,0.01518894,0.01601011,0.02124933,0.02017693,0.01783269,0.01443214,0.01131269,0.008877463,0.006953506,0.005464525,0.003564984,0.002596068,0.002062178,0.001696075,0.001462749,0.0007452792,128.0,C1,0,C1,0.0,C1,0.0,C1,0.0,C1,0.0,C1,0.0,-59.064467,1.9622,0.4838,0.1574,0.5,50,-999.0,-999.0,-999,-999,0,-999,?,0,-999.0,-79.064467
784,785,118,Loma Prieta,1989,1018,5,Olema - Point Reyes Station,1490,68003,6.93,Mw,0.081,0.036,10,0.1,278612116862977930864623616,128.0,70.0,140,3,10.68,184.55,41.99,84.78,37.0407,-121.8829,17.48,0,0,-999,1,3.85,40.0,18.0,719.8,108.11977445,1.5,72.0798496331,35.1467443897,2.79,0.774885027316,1.0,0,9,0,San Andreas-Santa Cruz,17.0,137.64,138.75,117.02,-999.0,136.42,117.08,-33.85,nu,-163.19,0.5,16.41,-999.0,0.81,45.79,-999.0,20.02,-999,2.6725,-999,24.74,0.8085,-0.0158,-999,-999,-999,-33.848298,I,H,B,A,C,S,C,418.07,-999.0,2a_3a_4b_4c,0.25,D,"Qal, thin",-999,CDMG,38.043,-122.797,0,GROUND LEVEL,-999.0,-999,-999,Holocene,-999,Alluvial Fan,0.0,300.5,872.2,0.0,300.5,872.2,-999.0,-999,-999.0,-999.0,-999.0,-999.0,-999.0,-999.0,LOMAP\OLEM000.AT2,LOMAP\OLEM090.AT2,LOMAP\OLEM-UP.AT2,0,90,A,-999,PEA,A,1,2.5,0.15,0.13,18.0,14.0,1.25,0.1875,0.1625,0.1875,0.13564,16.489,3.4897,0.1356996,0.1360309,0.13605,0.1364953,0.1362995,0.1362351,0.1369828,0.1371899,0.1366229,0.1371468,0.1363509,0.1373802,0.1384565,0.1380719,0.1386432,0.1403618,0.1380804,0.1427927,0.1365705,0.1435634,0.1440819,0.1452142,0.1541822,0.1561954,0.1593204,0.1538782,0.1623189,0.1799655,0.2173897,0.2518351,0.2547503,0.2209446,0.3142062,0.2730777,0.3100979,0.3921423,0.404122,0.3407348,0.4462513,0.354894,0.3233918,0.3780077,0.3238569,0.3456912,0.3716229,0.4160705,0.4481329,0.4179285,0.4225852,0.5274763,0.5690445,0.5097868,0.3979929,0.363052,0.363856,0.3137363,0.2867708,0.3529573,0.4235525,0.4948527,0.6531707,0.8663151,0.895451,0.8184704,0.8189366,0.6283908,0.5909026,0.4902951,0.5518254,0.3419988,0.2811646,0.290712,0.273052,0.2159348,0.1371939,0.1191865,0.1140776,0.0994878,0.06571793,0.0601442,0.04738238,0.03739856,0.03127217,0.02578498,0.02046706,0.01974406,0.02174824,0.02333936,0.02444271,0.02766577,0.02813026,0.02622816,0.02267136,0.02068283,0.01762621,0.01001958,0.006916645,0.005317376,0.004354973,0.003719625,0.003192661,0.002768887,0.002489814,0.002180638,0.001923228,0.001470393,0.001154429,0.0009386757,0.0007901922,0.0006795932,0.0003723473,128.0,C1,0,C1,0.0,C1,0.0,C1,0.0,C1,0.0,C1,0.0,-112.01625,2.4233,0.5489,0.1584,0.5,50,-999.0,-999.0,-999,-999,0,-999,?,0,-999.0,-132.01625
785,786,118,Loma Prieta,1989,1018,5,Palo Alto - 1900 Embarc.,479,58264,6.93,Mw,0.081,0.036,10,0.1,278612116862977930864623616,128.0,70.0,140,3,10.68,184.55,41.99,84.78,37.0407,-121.8829,17.48,0,0,-999,1,3.85,40.0,18.0,719.8,108.11977445,1.5,72.0798496331,35.1467443897,2.79,0.774885027316,1.0,0,9,0,San Andreas-Santa Cruz,17.0,50.17,53.13,30.56,-999.0,48.26,30.81,-18.68,nu,-142.32,0.5,28.21,-999.0,0.81,33.6,-999.0,20.02,-999,2.8763,-999,24.74,0.7979,-0.04,-999,-999,-999,-18.681614,B,Q,D,F,E,D,D,209.87,-999.0,0,0.1,E,af/qi,-999,CDMG,37.453,-122.112,2,GROUND LEVEL,0.52,-999,-999,Holocene,Fine,Marine,366.1,366.1,842.0,366.1,366.1,842.0,-999.0,-999,-999.0,-999.0,-999.0,-999.0,-999.0,-999.0,LOMAP\PAE055.AT2,LOMAP\PAE325.AT2,LOMAP\PAE-UP.AT2,55,325,A,-999,PEA,A,1,2.5,0.09,0.03,30.0,32.0,1.25,0.1125,0.0375,0.1125,0.2028,36.023,16.947,0.2028808,0.2034686,0.2033939,0.2042467,0.2048131,0.2051987,0.2068562,0.208418,0.2099651,0.2192259,0.2157017,0.2200019,0.2182481,0.2248675,0.2221158,0.2080959,0.2485613,0.2321918,0.2298176,0.2359894,0.2589917,0.2674698,0.2813083,0.2609603,0.2763523,0.2726633,0.289012,0.3544918,0.3362451,0.3621056,0.4353945,0.4742034,0.531266,0.5123389,0.6379992,0.8940676,0.8483276,0.685564,0.734047,1.410322,1.11426,0.9552739,0.7509021,0.811166,0.8097941,0.7105942,0.7788449,0.8538175,1.000067,1.215485,1.08718,1.098564,1.250213,1.054165,0.7932035,0.685102,0.7639275,0.7233459,0.5601102,0.6308424,0.7086817,0.9587612,0.6011844,0.6607018,0.5447757,0.448081,0.5260224,0.7289701,1.257921,0.6477786,0.3320202,0.2520865,0.2188859,0.2163725,0.2296751,0.199668,0.1835978,0.214173,0.2161657,0.2740601,0.2928677,0.3403196,0.6682681,0.5794731,0.4323397,0.3309594,0.2836841,0.254333,0.1818286,0.1400083,0.113606,0.0925101,0.07592207,0.06496914,0.06185272,0.05308486,0.04856445,0.04295893,0.03695774,0.03338145,0.02734911,0.02087223,0.01972506,0.01856064,0.0165677,0.01183135,0.008361563,0.006534964,0.005370386,0.004653939,0.002290224,128.0,C1,0,C1,0.0,C1,0.0,C1,0.0,C1,0.0,C1,0.0,-24.190551,2.3941,0.4806,0.1622,0.5,50,-999.0,-999.0,-999,-999,0,-999,?,0,-999.0,-44.190551
