,Record Sequence Number,EQID,Earthquake Name,YEAR,MODY,HRMN,Station Name,Station Sequence Number,Station ID  No.,Earthquake Magnitude,Magnitude Type,Magnitude Uncertainty: Kagan Model,Magnitude Uncertainty: Statistical,Magnitude Sample Size,Magnitude Uncertainty: Study Class,Mo (dyne.cm),Strike (deg),Dip (deg),Rake Angle (deg),Mechanism Based on Rake Angle,P-plunge (deg),P-trend (deg),T-plunge (deg),T-trend (deg),Hypocenter Latitude (deg),Hypocenter Longitude (deg),Hypocenter Depth (km),Coseismic Surface Rupture: 1=Yes; 0=No;    -999=Unknown,Coseismic Surface Rupture (Including Inferred),Basis for Inference of Surface Rupture,Finite Rupture Model: 1=Yes;  0=No,Depth to Top Of Fault Rupture Model,Fault Rupture Length for Calculation of Ry (km),Fault Rupture Width (km),Fault Rupture Area (km^2),Avg Fault Disp (cm),Rise Time (s),Avg Slip Velocity (cm/s),Static Stress Drop (bars),Preferred Rupture Velocity (km/s),Average Vr/Vs,Percent of Moment Release in the Top 5 Km of Crust,Existence of Shallow Asperity: 0=No; 1=Yes,Depth to Top of Shallowest Asperity (km),Earthquake in Extensional Regime: 1=Yes; 0=No,Fault Name,Slip Rate (mm/Yr),EpiD (km),HypD (km),Joyner-Boore Dist. (km),Campbell R Dist. (km),RmsD (km),ClstD (km),Rx,FW/HW Indicator,Source to Site Azimuth (deg),X,Theta.D (deg),SSGA (Strike Slip),Y,Phi.D (deg),SSGA (Dip Slip),s,d,ctildepr,Unused Column,D,Rfn.Hyp,Rfp.Hyp,Unused Column.1,Unused Column.2,Unused Column.3,T,GMX's C1,GMX's C2,GMX's C3,Campbell's GEOCODE,Bray and Rodriguez-Marek SGS,Depth,Preferred NEHRP Based on Vs30,Vs30 (m/s) selected for analysis,Column Not Used,Measured/Inferred Class,Sigma of Vs30 (in natural log Units),NEHRP Classification from CGS's Site Condition Map,Geological Unit,Geology,Owner,Station Latitude,Station Longitude,STORIES,INSTLOC,Depth to Basement Rock,Site Visited,NGA Type,Age,Grain Size,Depositional History,Northern CA/Southern CA - H11 Z1 (m),Northern CA/Southern CA - H11 Z1.5 (m),Northern CA/Southern CA - H11 Z2.5 (m),Northern CA/Southern CA - S4 Z1 (m),Northern CA/Southern CA - S4 Z1.5 (m),Northern CA/Southern CA - S4 Z2.5 (m),Depth to Franciscan Rock (km),Basin,h (m),hnorm (m),Rsbe (m),Rcebe (m),Rebe (m),Rsbe1 (m),File Name (Horizontal 1),File Name (Horizontal 2),File Name (Vertical),H1 azimth (degrees),H2 azimith (degrees),Type of Recording,Instrument Model,PEA Processing Flag,Type of Filter,npass,nroll,HP-H1 (Hz),HP-H2 (Hz),LP-H1 (Hz),LP-H2 (Hz),Factor,Lowest Usable Freq - H1 (Hz),Lowest Usable Freq - H2 (H2),Lowest Usable Freq - Ave. Component (Hz),PGA (g),PGV (cm/sec),PGD (cm),T0.010S,T0.020S,T0.022S,T0.025S,T0.029S,T0.030S,T0.032S,T0.035S,T0.036S,T0.040S,T0.042S,T0.044S,T0.045S,T0.046S,T0.048S,T0.050S,T0.055S,T0.060S,T0.065S,T0.067S,T0.070S,T0.075S,T0.080S,T0.085S,T0.090S,T0.095S,T0.100S,T0.110S,T0.120S,T0.130S,T0.133S,T0.140S,T0.150S,T0.160S,T0.170S,T0.180S,T0.190S,T0.200S,T0.220S,T0.240S,T0.250S,T0.260S,T0.280S,T0.290S,T0.300S,T0.320S,T0.340S,T0.350S,T0.360S,T0.380S,T0.400S,T0.420S,T0.440S,T0.450S,T0.460S,T0.480S,T0.500S,T0.550S,T0.600S,T0.650S,T0.667S,T0.700S,T0.750S,T0.800S,T0.850S,T0.900S,T0.950S,T1.000S,T1.100S,T1.200S,T1.300S,T1.400S,T1.500S,T1.600S,T1.700S,T1.800S,T1.900S,T2.000S,T2.200S,T2.400S,T2.500S,T2.600S,T2.800S,T3.000S,T3.200S,T3.400S,T3.500S,T3.600S,T3.800S,T4.000S,T4.200S,T4.400S,T4.600S,T4.800S,T5.000S,T5.500S,T6.000S,T6.500S,T7.000S,T7.500S,T8.000S,T8.500S,T9.000S,T9.500S,T10.000S,T11.000S,T12.000S,T13.000S,T14.000S,T15.000S,T20.000S,Ave Strike (deg),TYPE(CRjb = 0),CRjb,"TYPE
(CRjb = 2)",CRjb.1,"TYPE
(CRjb = 5)",CRjb.2,"TYPE
(CRjb = 10)",CRjb.3,"TYPE
(CRjb = 20)",CRjb.4,"TYPE
(CRjb = 40)",CRjb.5,U,IDPv4,XCI,XCI1,Damping (%),RotD percentile,Instrument Nat. Freq.,Instrument Damping,Instrument Type,Quality_Flag,Spectra Quality Flag,Late S-trigger,Late P-trigger,Idirectivity,Tp,Ry 2
730,731,118,Loma Prieta,1989,1018,5,APEEL 10 - Skyline,481,58373,6.93,Mw,0.081,0.036,10,0.1,278612116862977930864623616,128.0,70.0,140,3,10.68,184.55,41.99,84.78,37.0407,-121.8829,17.48,0,0,-999,1,3.85,40.0,18.0,719.8,108.11977445,1.5,72.0798496331,35.1467443897,2.79,0.774885027316,1.0,0,9,0,San Andreas-Santa Cruz,17.0,62.31,64.72,41.71,-999.0,60.39,41.88,-7.29,nu,-169.94,0.5,11.4,-999.0,0.81,15.17,-999.0,20.02,-999,3.0596,-999,24.74,0.9067,0.144,-999,-999,-999,-7.2876654,I,E,A,C,C,S,C,391.91,-999.0,0,0.2,C,Tss,-999,CDMG,37.465,-122.342,0,GROUND LEVEL,-999.0,-999,-999,-999,-999,-999,557.7,1308.7,1308.7,557.7,1308.7,1308.7,0.002,-999,-999.0,-999.0,-999.0,-999.0,-999.0,-999.0,LOMAP\A10000.AT2,LOMAP\A10090.AT2,LOMAP\A10-UP.AT2,0,90,A,-999,PEA,A,1,2.5,0.08,0.06,25.0,20.0,1.25,0.1,0.075,0.1,0.093941,18.309,9.0082,0.09394421,0.09414445,0.09411234,0.09393969,0.09433696,0.09423961,0.09528343,0.096004,0.09571441,0.09523673,0.09751017,0.09607772,0.0970251,0.0996579,0.09770319,0.1027485,0.1124629,0.1112098,0.1040891,0.1077096,0.1079257,0.1114059,0.1123706,0.1096409,0.1295373,0.1444698,0.1442384,0.1093243,0.1519703,0.1703357,0.1501053,0.1677482,0.1967523,0.233615,0.1793696,0.2606892,0.2068127,0.2140694,0.3739402,0.4100145,0.4467156,0.4604958,0.461661,0.4845125,0.4218632,0.4236108,0.3096193,0.3620663,0.469909,0.6755388,0.5346498,0.5165962,0.4892942,0.5339139,0.4872973,0.4046672,0.5481061,0.5660747,0.6451938,0.4786584,0.503939,0.498374,0.308347,0.2737576,0.302662,0.4677461,0.3536018,0.4859513,0.2880355,0.3076918,0.3027801,0.1410285,0.1581672,0.2400084,0.3454936,0.3435026,0.2961099,0.1906111,0.1126181,0.09571807,0.08843584,0.08796972,0.1352421,0.1049821,0.1075336,0.1075981,0.09620523,0.09434794,0.06821127,0.05161085,0.03952586,0.03309556,0.02846579,0.02889385,0.03337358,0.0328022,0.02930487,0.02113689,0.02095212,0.02145342,0.01993978,0.01753872,0.0138225,0.0124667,0.01099776,0.008322222,0.005976155,0.004631006,0.003762796,0.002938181,0.00130903,128.0,C1,0,C1,0.0,C1,0.0,C1,0.0,C1,0.0,C1,0.0,-41.063733,2.7512,0.5636,0.1676,0.5,50,-999.0,-999.0,-999,-999,0,-999,?,0,-999.0,-61.063733
731,732,118,Loma Prieta,1989,1018,5,APEEL 2 - Redwood City,123,1002,6.93,Mw,0.081,0.036,10,0.1,278612116862977930864623616,128.0,70.0,140,3,10.68,184.55,41.99,84.78,37.0407,-121.8829,17.48,0,0,-999,1,3.85,40.0,18.0,719.8,108.11977445,1.5,72.0798496331,35.1467443897,2.79,0.774885027316,1.0,0,9,0,San Andreas-Santa Cruz,17.0,63.49,65.86,43.06,-999.0,61.6,43.23,-17.48,nu,-156.05,0.5,20.76,-999.0,0.81,32.17,-999.0,20.02,-999,2.9826,-999,24.74,0.8536,-0.001,-999,-999,-999,-17.479068,I,H,E,F,E,D,E,133.11,-999.0,0,0.05,E,af/qi,-999,USGS,37.528,-122.256,0,GROUND LEVEL,0.094,-999,-999,Holocene,Fine,Marine,87.9,263.6,841.9,87.9,263.6,841.9,-999.0,-999,-999.0,-999.0,-999.0,-999.0,-999.0,-999.0,LOMAP\A02043.AT2,LOMAP\A02133.AT2,LOMAP\A02-UP.AT2,43,133,A,-999,PEA,A,1,2.5,0.05,0.06,27.0,22.0,1.25,0.0625,0.075,0.075,0.2435,43.945,10.561,0.2435046,0.2438216,0.2439286,0.2445043,0.2443369,0.2443274,0.2457206,0.2490344,0.2504921,0.2466447,0.2472095,0.2459154,0.2484797,0.2528647,0.2502524,0.2574468,0.2476687,0.2491918,0.2510087,0.252834,0.2595432,0.2559665,0.268732,0.2603955,0.2647251,0.2744352,0.2798103,0.2783611,0.2792068,0.3475198,0.3337638,0.3817946,0.3945197,0.2950526,0.2807287,0.3537158,0.3125186,0.348188,0.3751948,0.3383777,0.5755136,0.4744357,0.4236202,0.4301616,0.3815738,0.4297232,0.4408624,0.4937499,0.4931977,0.7154227,0.8851146,0.5195401,0.4955042,0.4659007,0.5180122,0.5499443,0.649235,0.6439896,0.9252934,1.453427,1.477528,1.294833,0.8961557,0.7215438,0.6977215,0.8933133,1.126944,1.419449,1.645073,1.196829,0.8819985,0.5750736,0.3943741,0.2796111,0.2079921,0.1547883,0.1254243,0.112167,0.112397,0.09911603,0.1004485,0.1016418,0.09896962,0.09713615,0.09239154,0.07664905,0.0712168,0.06616545,0.05805781,0.05313423,0.04413676,0.04004856,0.03748202,0.03626668,0.03379996,0.02856008,0.02108469,0.01626321,0.01576325,0.01684497,0.01612914,0.01462892,0.01267455,0.01185835,0.01016691,0.007645271,0.005822395,0.004270791,0.003400378,0.002858124,0.001334479,128.0,C1,0,C1,0.0,C1,0.0,C1,0.0,C1,0.0,C1,0.0,-39.351615,2.5578,0.5301,0.1674,0.5,50,-999.0,-999.0,-999,-999,0,-999,?,0,-999.0,-59.351615
732,733,118,Loma Prieta,1989,1018,5,APEEL 2E Hayward Muir Sch,485,58393,6.93,Mw,0.081,0.036,10,0.1,278612116862977930864623616,128.0,70.0,140,3,10.68,184.55,41.99,84.78,37.0407,-121.8829,17.48,0,0,-999,1,3.85,40.0,18.0,719.8,108.11977445,1.5,72.0798496331,35.1467443897,2.79,0.774885027316,1.0,0,9,0,San Andreas-Santa Cruz,17.0,70.8,72.93,52.53,-999.0,69.4,52.68,-38.23,nu,-133.31,0.5,37.66,-999.0,0.81,48.0,-999.0,20.02,-999,2.3196,-999,24.74,0.5273,-0.1399,-999,-999,-999,-38.22623,A,Q,D,B,D,D,D,271.06,-999.0,0,0.1,C,Qoa,-999,CDMG,37.657,-122.082,1,GROUND LEVEL,0.2,-999,-999,Pleistocene,-999,Alluvial Fan,102.6,278.5,872.2,102.6,278.5,872.2,0.01,-999,-999.0,-999.0,-999.0,-999.0,-999.0,-999.0,LOMAP\A2E000.AT2,LOMAP\A2E090.AT2,LOMAP\A2E-UP.AT2,0,90,A,-999,PEA,A,1,2.5,0.1,0.05,30.0,25.0,1.25,0.125,0.0625,0.125,0.15743,14.881,6.9897,0.1575646,0.1582262,0.1586073,0.1590707,0.1609707,0.1651646,0.1627559,0.164974,0.1645047,0.165723,0.1779931,0.1689246,0.1737895,0.1756728,0.1803656,0.204629,0.2175113,0.2653639,0.2398733,0.2471714,0.3559789,0.3572143,0.3250873,0.2991855,0.3901228,0.4723861,0.3526649,0.5120632,0.7578201,1.018859,0.7323275,0.6150202,0.7068827,0.8997654,1.089279,0.4903397,0.4588189,0.7568115,0.6994545,0.8966404,0.8000641,1.110607,1.133993,0.9000618,0.6986069,0.7105923,0.5643246,0.7500573,0.5614811,0.533942,0.6617131,0.4383172,0.6109298,0.5099364,0.3593321,0.5369698,0.6017251,0.6040407,0.6277544,0.6995687,0.6099694,0.4385667,0.2983872,0.2914213,0.2906174,0.5009568,0.4975813,0.3267912,0.3540924,0.4771087,0.3174728,0.3138251,0.2431378,0.1804897,0.2126671,0.1959847,0.1498868,0.09753593,0.05944612,0.04466158,0.04990169,0.04346101,0.03795023,0.03053984,0.02684538,0.02506957,0.02390711,0.02747239,0.03531638,0.03634973,0.03591198,0.02904525,0.02194751,0.02047864,0.01942676,0.02606217,0.02907882,0.02127958,0.01470534,0.01119457,0.009537528,0.008550047,0.008261646,0.008012288,0.007556432,0.006461997,0.004930325,0.004077349,0.003425641,0.002686863,0.00111331,128.0,C1,0,C1,0.0,C1,0.0,C1,0.0,C1,0.0,C1,0.0,-36.036304,1.5058,0.4274,0.1486,0.5,50,-999.0,-999.0,-999,-999,0,-999,?,0,-999.0,-56.036304
733,734,118,Loma Prieta,1989,1018,5,APEEL 3E Hayward CSUH,469,58219,6.93,Mw,0.081,0.036,10,0.1,278612116862977930864623616,128.0,70.0,140,3,10.68,184.55,41.99,84.78,37.0407,-121.8829,17.48,0,0,-999,1,3.85,40.0,18.0,719.8,108.11977445,1.5,72.0798496331,35.1467443897,2.79,0.774885027316,1.0,0,9,0,San Andreas-Santa Cruz,17.0,70.37,72.5,52.39,-999.0,69.01,52.53,-39.36,nu,-131.3,0.5,39.12,-999.0,0.81,48.51,-999.0,20.02,-999,2.2595,-999,24.74,0.4946,-0.1378,-999,-999,-999,-39.36227,I,V,A,E,C,S,C,517.06,-999.0,0,0.2,C,Tv,-999,CDMG,37.657,-122.061,0,GROUND LEVEL,0.003,-999,-999,Mesozoic,-999,-999,30.0,-999.0,-999.0,30.0,-999.0,-999.0,0.01,-999,-999.0,-999.0,-999.0,-999.0,-999.0,-999.0,LOMAP\A3E000.AT2,LOMAP\A3E090.AT2,LOMAP\A3E-UP.AT2,0,90,A,-999,PEA,A,1,2.5,0.1,0.1,30.0,30.0,1.25,0.125,0.125,0.125,0.081274,6.6284,4.4001,0.08141203,0.08238138,0.08316655,0.08460335,0.08720977,0.08410083,0.08802014,0.0906549,0.09874059,0.09620702,0.112318,0.09654372,0.1018848,0.1050447,0.129602,0.1296353,0.1009269,0.1505539,0.1487939,0.1668298,0.1739262,0.1645867,0.2111307,0.2396015,0.2633124,0.3107937,0.2608325,0.3695538,0.3485816,0.4452429,0.4384326,0.5651701,0.314366,0.3116276,0.5021588,0.4179659,0.416946,0.3242584,0.4000304,0.3246063,0.4662571,0.5961496,0.6930239,0.4863802,0.5469348,0.5252578,0.3397219,0.2861868,0.2267057,0.2667391,0.3310228,0.1945897,0.2190507,0.20354,0.1963147,0.2307632,0.215619,0.2666688,0.2611228,0.3094807,0.2318604,0.2106292,0.152442,0.1375022,0.1386936,0.144052,0.1205223,0.1280568,0.1856188,0.1847657,0.1140405,0.06147735,0.05161098,0.04586229,0.08048166,0.087808,0.05873254,0.04747928,0.03459887,0.05121266,0.03577514,0.03556463,0.02954356,0.02533291,0.02054296,0.02719062,0.02557229,0.02427926,0.02711771,0.02944649,0.02685298,0.02391387,0.0194332,0.01791232,0.01661537,0.02580914,0.02761207,0.02164954,0.01717733,0.0131555,0.01067731,0.00873962,0.006743003,0.005830765,0.005065991,0.003743223,0.002851888,0.002089983,0.00157039,0.00135168,0.000627776,128.0,C1,0,C1,0.0,C1,0.0,C1,0.0,C1,0.0,C1,0.0,-34.576184,1.361,0.4138,0.1461,0.5,50,-999.0,-999.0,-999,-999,0,-999,?,0,-999.0,-54.576184
734,735,118,Loma Prieta,1989,1018,5,APEEL 7 - Pulgas,484,58378,6.93,Mw,0.081,0.036,10,0.1,278612116862977930864623616,128.0,70.0,140,3,10.68,184.55,41.99,84.78,37.0407,-121.8829,17.48,0,0,-999,1,3.85,40.0,18.0,719.8,108.11977445,1.5,72.0798496331,35.1467443897,2.79,0.774885027316,1.0,0,9,0,San Andreas-Santa Cruz,17.0,62.32,64.73,41.68,-999.0,60.38,41.86,-10.53,nu,-165.37,0.5,14.46,-999.0,0.81,21.67,-999.0,20.02,-999,3.0723,-999,24.74,0.9014,0.0943,-999,-999,-999,-10.527084,I,E,A,C,C,S,C,415.27,-999.0,0,0.2,C,Tss,-999,CDMG,37.484,-122.313,0,GROUND LEVEL,0.5,-999,-999,Tertiary,-999,-999,103.0,301.5,875.2,103.0,301.5,875.2,0.002,-999,-999.0,-999.0,-999.0,-999.0,-999.0,-999.0,LOMAP\A07000.AT2,LOMAP\A07090.AT2,LOMAP\A07-UP.AT2,0,90,A,-999,PEA,A,1,2.5,0.05,0.07,30.0,22.0,1.25,0.0625,0.0875,0.0875,0.11989,15.64,8.5443,0.1199863,0.1208976,0.1214288,0.1223545,0.1231072,0.1234213,0.1248655,0.1228169,0.1303786,0.1235664,0.1380868,0.1314227,0.1346389,0.1322711,0.1376355,0.1396809,0.1259676,0.1390287,0.1542239,0.1964617,0.1935154,0.205956,0.246493,0.2698385,0.2536646,0.2312848,0.3815387,0.3579958,0.2736115,0.1953326,0.1880626,0.2722379,0.3375258,0.3203293,0.2743251,0.345723,0.312599,0.6011032,0.5541384,0.3936208,0.4722335,0.6484378,0.5845856,0.6612664,0.6980941,0.8202657,0.6220904,0.6270801,0.7212979,0.5531625,0.5637965,0.5127527,0.5563251,0.594916,0.5178502,0.3645059,0.3309651,0.4107764,0.5129558,0.4510428,0.4824313,0.4456434,0.429791,0.3591115,0.315832,0.3831622,0.4624288,0.4204679,0.2330198,0.2150106,0.1163915,0.1208883,0.1305473,0.1303367,0.1035478,0.1011881,0.1334482,0.1226817,0.07085063,0.07084453,0.08831231,0.1025401,0.1470559,0.1299983,0.1030522,0.08577339,0.08100931,0.07558355,0.05946044,0.05044425,0.04096374,0.03122308,0.03023252,0.02833381,0.03125114,0.02519193,0.02045996,0.01780703,0.01814841,0.01930692,0.01807578,0.0164212,0.01381658,0.01199166,0.01060837,0.007481512,0.005434301,0.004515746,0.00348549,0.002829171,0.001117117,128.0,C1,0,C1,0.0,C1,0.0,C1,0.0,C1,0.0,C1,0.0,-40.331943,2.7159,0.5549,0.1686,0.5,50,-999.0,-999.0,-999,-999,0,-999,?,0,-999.0,-60.331943
735,736,118,Loma Prieta,1989,1018,5,APEEL 9 - Crystal Springs Res,153,1161,6.93,Mw,0.081,0.036,10,0.1,278612116862977930864623616,128.0,70.0,140,3,10.68,184.55,41.99,84.78,37.0407,-121.8829,17.48,0,0,-999,1,3.85,40.0,18.0,719.8,108.11977445,1.5,72.0798496331,35.1467443897,2.79,0.774885027316,1.0,0,9,0,San Andreas-Santa Cruz,17.0,61.49,63.92,40.85,-999.0,59.53,41.03,-8.92,nu,-167.39,0.5,13.11,-999.0,0.81,18.59,-999.0,20.02,-999,3.0814,-999,24.74,0.9066,0.1173,-999,-999,-999,-8.9167039,I,Q,C,B,C,S,C,449.64,-999.0,0,0.2,C,Tss,-999,USGS,37.47,-122.32,0,GROUND LEVEL,-999.0,-999,-999,Tertiary,-999,-999,596.1,1000.9,1000.9,596.1,1000.9,1000.9,-999.0,-999,-999.0,-999.0,-999.0,-999.0,-999.0,-999.0,LOMAP\A09137.AT2,LOMAP\A09227.AT2,LOMAP\A09-UP.AT2,137,227,A,-999,PEA,A,1,2.5,0.033,0.03,40.0,40.0,1.25,0.04125,0.0375,0.04125,0.1114,18.215,10.262,0.1115493,0.1133698,0.1152184,0.1184769,0.1187305,0.1146988,0.1178443,0.1151987,0.1238529,0.1176928,0.1174921,0.1203816,0.1234926,0.1255838,0.1216808,0.1328282,0.1488392,0.1290884,0.1347855,0.1305397,0.1504112,0.138261,0.1442238,0.1812348,0.161457,0.1864877,0.2305269,0.3719879,0.3433303,0.3143557,0.3150732,0.3075149,0.3019084,0.5071018,0.5415137,0.4379801,0.3710261,0.5180025,0.4618144,0.4609283,0.4253282,0.474234,0.5920774,0.6977963,0.8286487,0.7331831,0.4292814,0.3770645,0.3654117,0.3281465,0.2934706,0.3071796,0.3131996,0.3699295,0.3702382,0.5163672,0.4115047,0.490719,0.5556459,0.3265842,0.3143662,0.2770967,0.1884185,0.1729912,0.2670268,0.3939456,0.3629391,0.3823121,0.3089229,0.3061511,0.1934302,0.1707158,0.1606256,0.1811247,0.2377446,0.3079297,0.337931,0.2645898,0.1479771,0.09399188,0.1003775,0.1203986,0.1713538,0.1333841,0.1384822,0.1308302,0.1298949,0.1167888,0.09114587,0.06249001,0.04816853,0.03786525,0.03111295,0.02773363,0.03292375,0.03332418,0.02541515,0.01972961,0.01681164,0.01855134,0.01780274,0.01714157,0.01404859,0.01275927,0.01110673,0.008637297,0.00672056,0.005257131,0.004365214,0.003521671,0.001553728,128.0,C1,0,C1,0.0,C1,0.0,C1,0.0,C1,0.0,C1,0.0,-39.86735,2.7394,0.5585,0.1684,0.5,50,-999.0,-999.0,-999,-999,0,-999,?,0,-999.0,-59.86735
736,737,118,Loma Prieta,1989,1018,5,Agnews State Hospital,445,57066,6.93,Mw,0.081,0.036,10,0.1,278612116862977930864623616,128.0,70.0,140,3,10.68,184.55,41.99,84.78,37.0407,-121.8829,17.48,0,0,-999,1,3.85,40.0,18.0,719.8,108.11977445,1.5,72.0798496331,35.1467443897,2.79,0.774885027316,1.0,0,9,0,San Andreas-Santa Cruz,17.0,40.12,43.76,24.27,-999.0,39.18,24.57,-22.45,fw,-112.3,0.5,43.24,0.36,0.81,37.54,0.64,20.02,-999,2.109,-999,24.74,0.588,-0.0235,-999,-999,-999,-22.452356,A,Q,D,A,D,D,D,239.69,-999.0,0,0.1,D,"Qal, deep (incl LA)",-999,CDMG,37.397,-121.952,1,GROUND LEVEL,0.4,-999,-999,Holocene,Fine,Alluvial Fan,593.1,849.4,849.4,593.1,849.4,849.4,-999.0,-999,-999.0,-999.0,-999.0,-999.0,-999.0,-999.0,LOMAP\AGW000.AT2,LOMAP\AGW090.AT2,LOMAP\AGW-UP.AT2,0,90,A,-999,PEA,A,1,2.5,0.06,0.083,30.0,30.0,1.25,0.075,0.10375,0.10375,0.16294,25.549,17.337,0.1632159,0.1648973,0.1636108,0.165537,0.1679037,0.1692306,0.1767587,0.1796423,0.182736,0.1837077,0.1863909,0.1916851,0.190256,0.2018518,0.1980705,0.2033707,0.2128818,0.2493922,0.2930365,0.2577811,0.3047075,0.3641447,0.2386341,0.3913665,0.448559,0.364728,0.4785258,0.6524797,0.5644965,0.3977609,0.5216713,0.6265012,0.4619887,0.6114308,0.9345269,0.6951219,1.079704,0.9087155,0.7128082,0.9662309,1.004995,1.335703,1.190351,1.159191,0.8993959,0.6838619,0.8834411,0.8125943,1.109607,0.7934325,0.4882113,0.5202813,0.4518661,0.4334539,0.4065729,0.3726134,0.6253143,0.5290613,0.4228685,0.3988054,0.5168325,0.5039654,0.442877,0.3078406,0.3862477,0.4326645,0.3245812,0.3839543,0.2243468,0.224371,0.2155555,0.2935477,0.2321376,0.1929072,0.1931968,0.2634678,0.1967054,0.1850913,0.2405996,0.2303057,0.2759437,0.3340344,0.2771935,0.1707321,0.1497161,0.1370272,0.1218688,0.1068553,0.08833344,0.08034705,0.06758928,0.06329925,0.08512561,0.09984103,0.1096138,0.09510486,0.07106303,0.05465059,0.0509063,0.04550367,0.03840281,0.03187165,0.02679598,0.02383617,0.02025859,0.01498496,0.01128109,0.008375076,0.006525761,0.005634302,0.002803941,128.0,C1,0,C1,0.0,C1,0.0,C1,0.0,C1,0.0,C1,0.0,-9.2062158,1.3991,0.3498,0.1285,0.5,50,-999.0,-999.0,-999,-999,0,-999,?,0,-999.0,-29.2062158
